;Unnamed: 0;event_id;event_time;event_country;event_latitude;event_longitude;event_depth;magnitude;strike_1;dip_1;rake_1;strike_2;dip_2;rake_2;MT_Agency;MT_Identifier;strike;dip;rake;depth_top_of_rupture;rupture_length;rupture_width;network_code;station_code;location_code;sensor_depth_m;housing_code;station_country;station_latitude;station_longitude;station_elevation;ec8_code;vs30;slope_deg;repi;azimuth;rjb;rrup;rx;ry0;highpass_h1;highpass_h2;lowpass_h1;lowpass_h2;PGA;PGV;PGD;duration_5_95_components;CAV;IA;magnitude_type;vs30measured;z1;z2pt5;rhypo;digital_recording;SA(0.010);SA(0.025);SA(0.040);SA(0.050);SA(0.070);SA(0.100);SA(0.150);SA(0.200);SA(0.250);SA(0.300);SA(0.350);SA(0.400);SA(0.450);SA(0.500);SA(0.600);SA(0.700);SA(0.750);SA(0.800);SA(0.900);SA(1.000);SA(1.200);SA(1.400);SA(1.600);SA(1.800);SA(2.000);SA(2.500);SA(3.000);SA(3.500);SA(4.000);SA(4.500);SA(5.000);SA(6.000);SA(7.000);SA(8.000);SA(9.000);SA(10.000);station_id
34;1842;EMSC-20130108_0000044;2013-01-08 14:16:09;GR;39.6681;25.5372;11.1303;5.8;331.0;77.0;-1.0;61.0;88.0;-166.0;GFZ;300037.0;61.0;89.0;-173.0;6.42006;9.72523;7.06643;KO;GOKC;0;0.0;;TR;40.1998;25.9183;123.0;;788.517904;9.077905;67.4;209.0;63.26;63.58;-34.96;52.72;0.04;0.04;30.0;30.0;104.1938935;7.371495;1.651045;16.5975;462.845935009;15.3092402297;Mw;False;33.71083609084165;0.581783177009832;68.31283611511091;True;108.58565061277665;112.36446893613657;124.10191694732198;135.70386530604057;171.62755233353414;311.9476086925495;273.8659780713917;274.1937915325582;223.54718943435634;237.34525023265158;215.09538394628555;190.31461711334734;241.79258693351207;164.36298273942342;192.44093037085432;160.17610712275413;144.2108257794816;149.98234010042648;147.51206143227748;118.00116475018372;73.94525788595237;58.99236935909593;52.659781396906695;38.00400085517313;28.69355300847213;27.11330998236844;10.251873625635461;10.293901194202322;7.593985972346802;5.938848797039709;4.883930441089431;3.497988028367164;2.511168800777837;1.8057726256647042;1.4477029353427449;1.2107814489411373;29
35;1843;EMSC-20130108_0000044;2013-01-08 14:16:09;GR;39.6681;25.5372;11.1303;5.8;331.0;77.0;-1.0;61.0;88.0;-166.0;GFZ;300037.0;61.0;89.0;-173.0;6.42006;9.72523;7.06643;KO;GOMA;0;0.0;;TR;38.7077;27.9175;110.0;;545.767803;4.08679;231.6;298.2;228.87;229.07;193.29;122.76;0.04;0.04;30.0;30.0;4.4571565;0.577433;0.2493025;56.2725;46.7053665781;0.0686940381674;Mw;False;176.81647835756837;0.8862913927069017;231.8672973450331;True;4.813445398246458;4.822934933751439;4.856564567593022;4.890137300986548;4.93829081300403;5.102087601413759;5.837383776521808;9.379504448103855;10.259083014577863;10.629728469250756;14.628165371296564;15.175638043588151;13.44709824512337;11.388399697411396;9.613473034861022;8.871085722074836;6.9394298117928965;7.745173633031089;10.317372714359019;11.599020307767375;8.281440212728702;6.601265973697773;5.781518540764183;5.452892651318198;3.822621363933394;2.6432187821858406;1.6396641174947997;1.108690273304497;0.9264941217730418;0.7441243560050969;0.7013021245882548;0.6337861670390101;0.43681476828742866;0.31696762185907884;0.2284285141132779;0.19314421689504452;30
36;1844;EMSC-20130108_0000044;2013-01-08 14:16:09;GR;39.6681;25.5372;11.1303;5.8;331.0;77.0;-1.0;61.0;88.0;-166.0;GFZ;300037.0;61.0;89.0;-173.0;6.42006;9.72523;7.06643;KO;GPNR;0;0.0;;TR;39.4552;26.1329;570.0;;693.349986;6.896829;56.4;295.0;53.66;54.14;45.98;27.87;0.03;0.03;30.0;30.0;74.8324665;4.77712;1.30674;25.875;413.125124638;9.6930666035;Mw;False;66.37130302921189;0.67400622790512;57.487768943402216;True;72.33989379657673;73.87999611857056;79.66449158583767;95.40553424985367;116.02771027646801;161.67241655891706;228.43404593011087;165.89393540753682;208.89665461897658;193.70581370211892;155.73258441315357;125.76232626665268;137.38196390356342;123.56588915230611;109.08040970770142;107.89679394680826;88.13425337801415;67.68461335340551;61.34712447107851;48.69191462512026;41.537069990070314;31.405561417048414;31.95649528343182;21.17297124354539;19.14709380454381;11.216554449116716;9.378443242244419;6.8931065535286775;4.264799706809219;4.1217970705506595;4.013829049324348;3.1540996377730366;2.0013405067604064;1.3480456917701271;1.0906081639892486;0.8526889333162475;31
37;1845;EMSC-20130108_0000044;2013-01-08 14:16:09;GR;39.6681;25.5372;11.1303;5.8;331.0;77.0;-1.0;61.0;88.0;-166.0;GFZ;300037.0;61.0;89.0;-173.0;6.42006;9.72523;7.06643;KO;KIYI;0;0.0;;TR;41.4844;28.3;23.0;;578.339304;4.800245;308.8;230.1;303.96;304.03;-62.76;297.41;0.04;0.04;30.0;30.0;14.1328805;1.556865;0.5333;43.975;165.751983864;0.949102470085;Mw;False;144.68940148104627;0.8294239358503821;309.0005235886988;True;13.918832563113906;13.983743860640468;14.047219635927958;14.188776589614765;14.575054098355862;16.450343263287852;17.60218184430555;25.34747828404238;37.14024934515115;41.707704288536426;40.79560347157522;54.28178791436406;62.89528714935643;54.72476773143948;42.26268481769704;34.025429365696475;28.9573583498219;24.539990994293376;21.1834453132629;15.493026941498552;12.018477008340117;7.136357276958602;6.0612231319346765;5.434692175717038;5.357822383534191;3.315605678454541;3.145565157328648;2.3632298752554735;2.540111429051883;2.3770913292299056;2.5212403903634417;1.4653037150024564;0.8906921705348038;0.6003882218531607;0.4420958367989909;0.3477164035935032;32
38;1846;EMSC-20130108_0000044;2013-01-08 14:16:09;GR;39.6681;25.5372;11.1303;5.8;331.0;77.0;-1.0;61.0;88.0;-166.0;GFZ;300037.0;61.0;89.0;-173.0;6.42006;9.72523;7.06643;KO;KRBN;0;0.0;;TR;38.5936;26.5537;135.0;;591.358409;5.085015;148.2;323.9;147.58;147.85;147.16;12.68;0.04;0.04;30.0;30.0;16.2527185;1.44618;0.7009555;51.85;118.03472369;0.495136427058;Mw;False;133.1136577743456;0.8085675232783482;148.6173730695372;True;15.234414218472596;15.56224162837732;15.868246704661482;15.904536985715742;16.863958061202595;19.57630324652742;37.816084248901284;40.45499794870839;55.7639018606123;42.01932066466568;27.311071290778763;25.793466665417426;36.84924121674692;28.872849132879146;25.31926465243412;29.65103099995007;29.02140855919988;25.248795816434495;19.825234823829955;20.996411470534674;14.828498300232564;12.176024006218121;10.67335432785776;10.139842354099988;7.561595294539374;5.739715740626882;3.5300117142015264;2.6656334141250557;2.6226327218465038;2.2992335108900965;2.1452390395011927;1.3964243196464317;0.9000831700070833;0.7805386048165716;0.8871059645780768;0.945116849442438;33
39;1847;EMSC-20130108_0000044;2013-01-08 14:16:09;GR;39.6681;25.5372;11.1303;5.8;331.0;77.0;-1.0;61.0;88.0;-166.0;GFZ;300037.0;61.0;89.0;-173.0;6.42006;9.72523;7.06643;KO;ORLT;0;0.0;;TR;40.0452;28.8914;650.0;;809.755212;9.898872;290.0;262.8;285.39;285.51;101.81;266.66;0.04;0.04;30.0;30.0;13.786431;1.48887;0.4418425;36.9275;118.30845588;0.556957572359;Mw;False;28.9944270384325;0.5643608642794525;290.2135137757889;True;13.33704343923345;13.380739111125363;13.484966693321864;13.58800161318801;13.855930857217786;14.848047388798298;17.783718292303217;31.086535837883257;47.18758266885474;39.53685756253271;38.04828592959215;40.98027931456788;47.07889277202683;38.49284792529646;26.90122947246092;26.24496199082788;20.326050378762716;18.557695510218934;21.2592502932253;21.63255480265796;22.406503786177797;13.040681839919262;10.878570473642204;9.284902863250643;8.942764000520198;4.440570092015213;2.3273767164341916;1.6441719073138308;1.4424194687746004;1.1881936305333403;0.9885090328115368;0.5988052964762419;0.4280251522001949;0.36445435036503543;0.3463851870389379;0.2794818752960556;34
40;1848;EMSC-20130108_0000044;2013-01-08 14:16:09;GR;39.6681;25.5372;11.1303;5.8;331.0;77.0;-1.0;61.0;88.0;-166.0;GFZ;300037.0;61.0;89.0;-173.0;6.42006;9.72523;7.06643;KO;SHAP;0;0.0;;TR;39.0231;29.222;1050.0;;837.645812;10.970781;325.6;283.9;321.84;321.98;215.51;239.14;0.03;0.03;30.0;30.0;3.499206;0.3933915;0.185269;73.7625;40.6801349787;0.041900652231;Mw;False;23.81801071121003;0.542915774132176;325.79018336667235;True;3.4968024619071634;3.514712354859214;3.5623979023685717;3.567734519271298;3.706613294369943;3.982887687294233;5.113273443030404;6.238392356184404;9.3608090195239;9.626004655307414;9.062868685741838;12.04857442853718;11.375126254420213;8.323797368268883;6.063112711718297;6.775055187967105;7.15825259466303;6.353854023630068;6.357408294108535;5.846141710376169;5.014139923147339;4.088723856987654;2.548669051093139;2.1634080719087647;1.6247792778097583;1.368632898442822;0.9293884585037626;0.7893446103496242;0.6066009435328963;0.6212764928403456;0.634184253286062;0.5764870083202223;0.47114742356825007;0.38162400525910317;0.28608001368498287;0.21315315280802205;35
