event_id,event_time,ISC_ev_id,USGS_ev_id,INGV_ev_id,EMSC_ev_id,ev_nation_code,ev_latitude,ev_longitude,ev_depth_km,ev_hyp_ref,fm_type_code,ML,ML_ref,Mw,Mw_ref,Ms,Ms_ref,EMEC_Mw,EMEC_Mw_type,EMEC_Mw_ref,event_source_id,es_strike,es_dip,es_rake,es_strike_dip_rake_ref,es_z_top,es_z_top_ref,es_length,es_width,es_geometry_ref,network_code,station_code,location_code,instrument_code,sensor_depth_m,proximity_code,housing_code,installation_code,st_nation_code,st_latitude,st_longitude,st_elevation,ec8_code,ec8_code_method,ec8_code_ref,vs30_m_sec,vs_ref,vs30_calc_method,vs30_meas_type,slope_deg,vs30_m_sec_WA,epi_dist,epi_az,JB_dist,rup_dist,Rx_dist,Ry0_dist,instrument_type_code,late_triggered_flag_01,U_channel_code,U_azimuth_deg,V_channel_code,V_azimuth_deg,W_channel_code,U_hp,V_hp,W_hp,U_lp,V_lp,W_lp,U_pga,V_pga,W_pga,rotD50_pga,rotD100_pga,rotD00_pga,U_pgv,V_pgv,W_pgv,rotD50_pgv,rotD100_pgv,rotD00_pgv,U_pgd,V_pgd,w_pgd,rotD50_pgd,rotD100_pgd,rotD00_pgd,U_T90,V_T90,W_T90,rotD50_T90,rotD100_T90,rotD00_T90,U_housner,V_housner,W_housner,rotD50_housner,rotD100_housner,rotD00_housner,U_CAV,V_CAV,W_CAV,rotD50_CAV,rotD100_CAV,rotD00_CAV,U_ia,V_ia,W_ia,rotD50_ia,rotD100_ia,rotD00_ia,U_T0_010,U_T0_025,U_T0_040,U_T0_050,U_T0_070,U_T0_100,U_T0_150,U_T0_200,U_T0_250,U_T0_300,U_T0_350,U_T0_400,U_T0_450,U_T0_500,U_T0_600,U_T0_700,U_T0_750,U_T0_800,U_T0_900,U_T1_000,U_T1_200,U_T1_400,U_T1_600,U_T1_800,U_T2_000,U_T2_500,U_T3_000,U_T3_500,U_T4_000,U_T4_500,U_T5_000,U_T6_000,U_T7_000,U_T8_000,U_T9_000,U_T10_000,V_T0_010,V_T0_025,V_T0_040,V_T0_050,V_T0_070,V_T0_100,V_T0_150,V_T0_200,V_T0_250,V_T0_300,V_T0_350,V_T0_400,V_T0_450,V_T0_500,V_T0_600,V_T0_700,V_T0_750,V_T0_800,V_T0_900,V_T1_000,V_T1_200,V_T1_400,V_T1_600,V_T1_800,V_T2_000,V_T2_500,V_T3_000,V_T3_500,V_T4_000,V_T4_500,V_T5_000,V_T6_000,V_T7_000,V_T8_000,V_T9_000,V_T10_000,W_T0_010,W_T0_025,W_T0_040,W_T0_050,W_T0_070,W_T0_100,W_T0_150,W_T0_200,W_T0_250,W_T0_300,W_T0_350,W_T0_400,W_T0_450,W_T0_500,W_T0_600,W_T0_700,W_T0_750,W_T0_800,W_T0_900,W_T1_000,W_T1_200,W_T1_400,W_T1_600,W_T1_800,W_T2_000,W_T2_500,W_T3_000,W_T3_500,W_T4_000,W_T4_500,W_T5_000,W_T6_000,W_T7_000,W_T8_000,W_T9_000,W_T10_000,rotD50_T0_010,rotD50_T0_025,rotD50_T0_040,rotD50_T0_050,rotD50_T0_070,rotD50_T0_100,rotD50_T0_150,rotD50_T0_200,rotD50_T0_250,rotD50_T0_300,rotD50_T0_350,rotD50_T0_400,rotD50_T0_450,rotD50_T0_500,rotD50_T0_600,rotD50_T0_700,rotD50_T0_750,rotD50_T0_800,rotD50_T0_900,rotD50_T1_000,rotD50_T1_200,rotD50_T1_400,rotD50_T1_600,rotD50_T1_800,rotD50_T2_000,rotD50_T2_500,rotD50_T3_000,rotD50_T3_500,rotD50_T4_000,rotD50_T4_500,rotD50_T5_000,rotD50_T6_000,rotD50_T7_000,rotD50_T8_000,rotD50_T9_000,rotD50_T10_000
TR-2019-0001,26/09/2019 10:59:25,,,,,MR,40.882,28.214,7.97,,U,,,5.8,,,,5.8,,,,276,55,145,AFAD,4.711,GW,8.7,7.25,,TR,315,0,,,,,,TR,38.271,30.502,1233,B,VS30,Vs30_ref,469.3121948,WA2007,0,TOPO,5.110869669,469.31,350.2997,145.2270,347.4689,347.3739,-332.9633,99.1658,,,,,,,,,,,,,,6.98560000E-01,1.09800000E+00,7.60160000E-01,7.98559971E-01,,,2.14811303E-01,2.55594439E-01,1.49394237E-01,2.36730886E-01,,,8.66828321E-02,9.00695574E-02,7.71291054E-02,9.21036871E-02,,,117.1800,119.8600,124.7900,,,,1.03195947,1.30596428,0.72953033,,,,18.69988633,21.45901957,16.16625914,,,,0.00540954,0.00755218,0.00403821,,,,6.98422130E-01,7.00647435E-01,7.03386902E-01,7.04144478E-01,7.02272777E-01,7.05761017E-01,7.25455628E-01,7.23425150E-01,7.33350009E-01,7.96735944E-01,8.93600176E-01,9.99631912E-01,9.17859495E-01,9.62768045E-01,1.33178959E+00,1.70032121E+00,2.06990732E+00,2.52428956E+00,2.77621941E+00,2.05322593E+00,1.68524775E+00,1.70706128E+00,1.98425518E+00,2.19263123E+00,2.05428640E+00,2.64832968E+00,1.12023249E+00,1.13535274E+00,9.30567321E-01,6.03255620E-01,5.27188045E-01,3.78766937E-01,2.83195177E-01,1.45097457E-01,7.17110879E-02,5.01225514E-02,1.09784276E+00,1.09991177E+00,1.10355111E+00,1.10092564E+00,1.10530678E+00,1.10614975E+00,1.11847764E+00,1.13604023E+00,1.19206702E+00,1.18307990E+00,1.20514592E+00,1.38057598E+00,1.17161396E+00,1.62974211E+00,1.49318535E+00,2.14572324E+00,1.88648566E+00,2.00109597E+00,1.76052571E+00,2.52285489E+00,2.16590799E+00,1.85908362E+00,2.53547609E+00,2.90888291E+00,2.83074062E+00,3.52627186E+00,1.53667759E+00,8.56837840E-01,6.81298792E-01,4.86349431E-01,6.00884485E-01,3.32089841E-01,2.41562665E-01,1.33133736E-01,7.61385331E-02,5.06593482E-02,7.59783379E-01,7.60623311E-01,7.63865530E-01,7.61951899E-01,7.82746607E-01,7.87001182E-01,7.92422947E-01,7.99329081E-01,8.85548750E-01,1.07055353E+00,1.62073949E+00,1.81213423E+00,1.71983870E+00,1.84958247E+00,1.68204715E+00,1.54602350E+00,1.61159520E+00,1.89970801E+00,2.16367085E+00,1.76632997E+00,1.48816797E+00,1.41044577E+00,1.27636731E+00,1.62525937E+00,1.57769016E+00,1.12303342E+00,6.81551760E-01,4.23442786E-01,3.81433208E-01,3.58406159E-01,2.39710638E-01,1.71108164E-01,8.44890227E-02,5.34979220E-02,4.25313599E-02,3.33584972E-02,7.98442123E-01,7.99878123E-01,8.02353828E-01,8.01279003E-01,8.05812200E-01,8.04658330E-01,8.20002610E-01,8.31934660E-01,8.72757000E-01,8.74441970E-01,9.83526410E-01,1.13628594E+00,1.05324172E+00,1.33236095E+00,1.35401450E+00,1.82148490E+00,1.90576069E+00,2.08099912E+00,2.40677488E+00,2.29376979E+00,1.91611241E+00,1.91769513E+00,2.23645950E+00,2.52298074E+00,2.25004342E+00,3.17015032E+00,1.32475422E+00,9.04222908E-01,8.23775946E-01,5.55880059E-01,5.77724683E-01,3.51597084E-01,2.68348747E-01,1.43063202E-01,7.38552304E-02,5.18597647E-02
TR-2019-0001,26/09/2019 10:59:25,,,,,MR,40.882,28.214,7.97,,U,,,5.8,,,,5.8,,,,276,55,145,AFAD,4.711,GW,8.7,7.25,,TR,601,0,,,,,,TR,40.16,31.917,684,B,VS30,Vs30_ref,339.633,AFAD,0,MASW,4.960531514,589.16,323.1010,103.1738,319.8157,319.7321,-291.6538,131.2157,,,,,,,,,,,,,,8.85030000E-01,6.91600000E-01,5.60870000E-01,7.75243020E-01,,,2.39085451E-01,1.85664601E-01,1.54934445E-01,1.87978455E-01,,,7.84307114E-02,8.31039648E-02,5.43897120E-02,8.10609586E-02,,,63.8700,66.0700,60.9200,,,,1.07446991,1.05493537,0.80177290,,,,12.53908476,13.13623184,9.35846289,,,,0.00497748,0.00510140,0.00270535,,,,8.84488405E-01,8.97336320E-01,1.07827442E+00,1.87967561E+00,3.10026987E+00,9.70870085E-01,9.52022539E-01,9.96238964E-01,9.49603678E-01,1.61751390E+00,1.77293985E+00,2.52115635E+00,1.85032404E+00,2.12524992E+00,1.68523709E+00,1.80717565E+00,2.12481347E+00,2.07061922E+00,1.93932710E+00,1.63435433E+00,2.80612171E+00,2.94555385E+00,3.03843915E+00,3.06650167E+00,2.05239051E+00,1.05905975E+00,8.96737383E-01,7.96149265E-01,4.68706748E-01,2.59007276E-01,2.11464600E-01,1.61386896E-01,9.70286346E-02,5.68473782E-02,4.13280548E-02,3.33995736E-02,6.89562585E-01,7.71408151E-01,1.14768638E+00,2.05949244E+00,2.17292749E+00,7.10429099E-01,6.55633574E-01,6.66946989E-01,9.02599293E-01,1.15569982E+00,1.22072023E+00,2.23356976E+00,1.64637151E+00,1.60083191E+00,1.83284754E+00,1.64001853E+00,1.71542344E+00,1.86336027E+00,1.97604846E+00,2.23892687E+00,2.37137231E+00,2.39673345E+00,2.24703425E+00,2.47268791E+00,2.14508711E+00,1.89821685E+00,1.47083702E+00,5.87684052E-01,3.87251724E-01,3.58724550E-01,2.41656798E-01,1.44630253E-01,7.99142329E-02,5.73996596E-02,4.45948152E-02,3.32427287E-02,5.60714832E-01,5.74123282E-01,6.07858963E-01,8.61548710E-01,6.32507698E-01,6.32977022E-01,5.84326945E-01,5.82329719E-01,6.03056754E-01,6.79293944E-01,6.81133078E-01,6.42196273E-01,6.98429639E-01,7.41823606E-01,7.96352333E-01,1.14820267E+00,1.02596729E+00,1.03175119E+00,1.09061999E+00,1.10052614E+00,1.69397132E+00,2.80662993E+00,2.01525454E+00,2.06243844E+00,1.68212481E+00,1.13750972E+00,5.34901592E-01,3.47385811E-01,2.03295312E-01,1.66284441E-01,1.28649941E-01,9.92996885E-02,5.43501094E-02,4.14202875E-02,2.99379261E-02,2.29610350E-02,7.74954819E-01,8.19708884E-01,1.08802864E+00,1.89545339E+00,2.57849158E+00,8.31891270E-01,8.30388790E-01,8.69767420E-01,9.43641990E-01,1.39119818E+00,1.67630135E+00,2.28940314E+00,1.80538338E+00,1.76950531E+00,1.81533745E+00,1.87111490E+00,1.88799323E+00,1.96219181E+00,1.90629744E+00,2.02427222E+00,2.36517417E+00,2.46820934E+00,2.33952406E+00,2.82344322E+00,2.06255474E+00,1.50129480E+00,1.18210179E+00,6.89780987E-01,4.29238806E-01,3.09533592E-01,2.34668535E-01,1.51157282E-01,8.25482737E-02,5.54488960E-02,4.22809773E-02,3.32614010E-02
TR-2019-0001,26/09/2019 10:59:25,,,,,MR,40.882,28.214,7.97,,U,,,5.8,,,,5.8,,,,276,55,145,AFAD,4.711,GW,8.7,7.25,,TR,617,0,,,,,,TR,40.456,32.631,991,B,VS30,Vs30_ref,587.7440186,WA2007,0,TOPO,3.987393655,587.74,375.4851,95.8000,371.7804,371.6728,-316.1259,195.6052,,,,,,,,,,,,,,4.27390000E-01,2.57890000E-01,2.45790000E-01,3.38462843E-01,,,9.78199733E-02,6.94331832E-02,6.98390071E-02,9.38315565E-02,,,6.09902588E-02,5.30208774E-02,2.71942155E-02,5.85018157E-02,,,116.7300,99.4600,105.5500,,,,0.44434442,0.35606198,0.32581740,,,,8.77467092,7.85255335,6.44430109,,,,0.00121206,0.00093942,0.00066220,,,,4.27284594E-01,4.31308742E-01,4.32256853E-01,4.33877019E-01,4.28120233E-01,4.35301714E-01,4.44173995E-01,4.46079606E-01,5.25396878E-01,4.66791452E-01,5.28702384E-01,5.10153129E-01,5.90107709E-01,6.03154428E-01,5.98448830E-01,1.21431152E+00,1.28779437E+00,1.01945376E+00,1.02811978E+00,7.87099274E-01,8.82444517E-01,9.70552841E-01,1.25117746E+00,1.01159151E+00,7.64550022E-01,8.17772588E-01,6.71634378E-01,5.22889209E-01,2.86939092E-01,2.40009370E-01,1.59776951E-01,7.89224367E-02,4.29870197E-02,2.73765020E-02,1.97192205E-02,1.61597736E-02,2.57823675E-01,2.59914954E-01,2.66330661E-01,2.70910370E-01,2.58448144E-01,2.65416142E-01,2.76447904E-01,3.13948168E-01,3.87332099E-01,5.13203295E-01,7.34023528E-01,6.48969827E-01,6.36871346E-01,7.79517482E-01,8.22922890E-01,7.35187697E-01,5.24332731E-01,5.38804134E-01,8.08828183E-01,8.94865296E-01,9.63772501E-01,7.29236029E-01,8.00554027E-01,7.44658854E-01,7.16492056E-01,5.45796541E-01,4.08656561E-01,4.03676000E-01,2.10470538E-01,1.94207825E-01,1.87231493E-01,1.23656103E-01,6.49083281E-02,3.67867975E-02,2.31950370E-02,1.59654010E-02,2.45709880E-01,2.53620124E-01,2.59919586E-01,2.73456563E-01,2.48231584E-01,2.56835840E-01,2.43690518E-01,2.51333469E-01,3.12583761E-01,3.62220123E-01,3.43125387E-01,4.12551162E-01,3.90164036E-01,5.10736297E-01,4.72292460E-01,4.26017012E-01,4.53714305E-01,3.51108715E-01,4.52174213E-01,5.38338573E-01,5.09125515E-01,6.00550440E-01,9.49414550E-01,8.48542742E-01,7.74861654E-01,5.41430706E-01,5.51795964E-01,3.56542115E-01,1.65479712E-01,1.27842096E-01,9.22091861E-02,4.78575337E-02,3.09117411E-02,2.02533353E-02,1.58401149E-02,1.24129722E-02,3.38407025E-01,3.41305869E-01,3.44627157E-01,3.42191493E-01,3.39738839E-01,3.44136690E-01,3.41789210E-01,3.75649400E-01,4.54175280E-01,4.78810310E-01,5.54552690E-01,5.62100870E-01,6.28506470E-01,6.21196240E-01,7.28873090E-01,1.00871715E+00,9.67558510E-01,8.08583820E-01,8.99439770E-01,9.63459240E-01,9.73955623E-01,7.98896506E-01,1.05294902E+00,8.82461168E-01,7.14057283E-01,6.56014197E-01,5.69212298E-01,4.59268651E-01,2.52454687E-01,2.14456813E-01,1.67348771E-01,1.03436247E-01,6.03343812E-02,3.49837688E-02,2.35762638E-02,1.67930930E-02
TR-2019-0001,26/09/2019 10:59:25,,,,,MR,40.882,28.214,7.97,,U,,,5.8,,,,5.8,,,,276,55,145,AFAD,4.711,GW,8.7,7.25,,TR,619,0,,,,,,TR,39.905,32.757,851,B,VS30,Vs30_ref,265,AFAD,0,MASW,0.54323413,329.96,399.7181,104.2844,396.4639,396.3453,-364.3629,156.2712,,,,,,,,,,,,,,4.22970000E-01,4.76800000E-01,1.71200000E-01,4.16652914E-01,,,1.00041920E-01,9.95361273E-02,4.01480188E-02,9.51137701E-02,,,3.10053414E-02,8.36298777E-02,5.41625862E-01,6.07654462E-02,,,113.3600,108.1500,137.7700,,,,0.46412434,0.41577643,0.18918954,,,,10.29274029,9.26619226,4.41105456,,,,0.00153856,0.00123968,0.00025438,,,,4.22800987E-01,4.24252340E-01,4.48018697E-01,4.47865492E-01,4.52509765E-01,6.33886516E-01,4.06031055E-01,4.17717177E-01,4.16190852E-01,4.04518943E-01,4.62964909E-01,4.47429082E-01,5.60767714E-01,5.89014813E-01,5.81675711E-01,6.09962543E-01,7.46139989E-01,1.06232714E+00,1.40067048E+00,1.21590510E+00,1.18882403E+00,1.43163955E+00,1.04577624E+00,7.90848046E-01,8.17263142E-01,7.99426997E-01,4.63631229E-01,2.06075531E-01,1.28287009E-01,1.27625852E-01,9.51997489E-02,8.17832910E-02,4.78232532E-02,2.06542648E-02,1.55926017E-02,1.21576161E-02,4.76239466E-01,4.88147060E-01,4.88176522E-01,5.40305897E-01,7.98027650E-01,8.48336185E-01,4.62223773E-01,4.28701753E-01,4.08273503E-01,4.23270753E-01,4.44158005E-01,4.91461874E-01,5.37002579E-01,7.16550132E-01,9.39088533E-01,8.93159916E-01,9.66326950E-01,1.16221315E+00,1.05178120E+00,1.07771745E+00,1.52988097E+00,1.24238047E+00,7.45349935E-01,7.65732706E-01,7.29442204E-01,5.26673140E-01,3.02170371E-01,3.03436615E-01,2.52414418E-01,1.73910216E-01,1.59057877E-01,7.84355585E-02,4.40668784E-02,2.94575879E-02,2.08418623E-02,1.54647428E-02,1.71077124E-01,1.77277127E-01,2.03594387E-01,2.49127865E-01,2.09529110E-01,1.90132155E-01,1.83253330E-01,1.65513013E-01,1.69040893E-01,2.22485740E-01,2.14739099E-01,2.56283832E-01,2.91116253E-01,3.09409182E-01,3.13373697E-01,4.20014787E-01,4.67718828E-01,4.26245247E-01,3.95915523E-01,3.35150611E-01,5.32209973E-01,6.80099344E-01,5.04282751E-01,3.71572588E-01,2.67672899E-01,2.91492771E-01,1.93934811E-01,1.39047423E-01,7.69445347E-02,7.53018255E-02,6.78894035E-02,7.79853781E-02,4.19553121E-02,1.79829606E-02,1.17697243E-02,7.67461292E-03,4.16410877E-01,4.19529002E-01,4.40204960E-01,4.48747893E-01,6.01899326E-01,6.79963750E-01,4.09379070E-01,4.07676290E-01,4.12383670E-01,4.02496890E-01,4.49840970E-01,4.79481730E-01,5.81298910E-01,6.21986140E-01,7.21389650E-01,7.51431330E-01,9.45930160E-01,1.15342117E+00,1.23609598E+00,1.11487853E+00,1.37976135E+00,1.36687787E+00,9.32084698E-01,7.72203678E-01,7.41608611E-01,6.61419014E-01,3.32726933E-01,2.78643195E-01,2.12765017E-01,1.51834048E-01,1.37333218E-01,7.76242180E-02,4.57778052E-02,2.57629192E-02,1.75814332E-02,1.32384277E-02
TR-2019-0001,26/09/2019 10:59:25,,,,,MR,40.882,28.214,7.97,,U,,,5.8,,,,5.8,,,,276,55,145,AFAD,4.711,GW,8.7,7.25,,TR,621,0,,,,,,TR,40.229,33.028,995,B,VS30,Vs30_ref,340.2667236,WA2007,0,TOPO,0.918917073,340.27,413.0734,98.5481,409.4914,409.3671,-358.0765,198.5924,,,,,,,,,,,,,,7.51210000E-01,8.06980000E-01,5.30250000E-01,7.91882700E-01,,,2.55813945E-01,3.16756769E-01,1.29491641E-01,2.65811430E-01,,,1.13363482E-01,1.61360353E-01,4.73798310E-02,1.45677017E-01,,,84.3800,52.4600,79.9700,,,,1.08330268,1.31636370,0.67472207,,,,14.63987562,15.80036305,8.96777289,,,,0.00589186,0.00779921,0.00253782,,,,7.51023698E-01,7.59077834E-01,7.50688123E-01,7.63666448E-01,8.01352383E-01,7.73569654E-01,7.83600321E-01,7.82393477E-01,7.44200072E-01,7.37474077E-01,7.80580894E-01,8.43187813E-01,9.05125711E-01,8.84906771E-01,9.91099905E-01,1.22743483E+00,1.44519566E+00,1.81943044E+00,2.15670814E+00,2.05975589E+00,2.62956621E+00,1.82831135E+00,2.55439184E+00,2.42180343E+00,1.79274951E+00,2.89437171E+00,1.43760256E+00,8.64142367E-01,5.02980190E-01,3.55455132E-01,2.19780922E-01,1.42705410E-01,8.71785046E-02,6.23168726E-02,4.80778961E-02,3.83402801E-02,8.06710084E-01,8.15248430E-01,8.42309095E-01,8.49913397E-01,9.50834634E-01,9.25353650E-01,8.20061077E-01,7.87521994E-01,8.22277900E-01,8.76695243E-01,8.80329297E-01,9.04705626E-01,1.01989452E+00,1.08790477E+00,1.16755194E+00,1.61511000E+00,1.77379002E+00,1.73146659E+00,1.74302199E+00,2.02087120E+00,2.56583883E+00,3.22313304E+00,3.49206841E+00,3.69167988E+00,2.79508494E+00,2.28381812E+00,2.12643401E+00,1.10532397E+00,5.28321497E-01,4.95203980E-01,4.19725272E-01,1.89583670E-01,1.15011543E-01,7.67329244E-02,5.90313608E-02,4.61180885E-02,5.30152978E-01,5.31015043E-01,5.33576398E-01,5.38844982E-01,5.46359565E-01,9.33855222E-01,5.39258884E-01,5.43965383E-01,5.65489115E-01,5.47149251E-01,5.38577902E-01,5.71789429E-01,5.73444630E-01,6.55610756E-01,6.58230040E-01,6.72352216E-01,8.02853093E-01,9.04757094E-01,1.04729453E+00,1.10128459E+00,1.52146987E+00,2.56915912E+00,2.15724096E+00,1.78160096E+00,1.33853682E+00,6.11423884E-01,4.73016941E-01,3.02462928E-01,1.96496395E-01,1.45372687E-01,1.04268475E-01,6.13065583E-02,3.64018776E-02,2.43321882E-02,1.81790631E-02,1.45786945E-02,7.91597904E-01,8.00249226E-01,8.14587815E-01,8.22293978E-01,8.68764866E-01,8.70218670E-01,8.11252740E-01,7.87449200E-01,7.85796140E-01,8.39002930E-01,8.21117940E-01,8.75076720E-01,9.79862230E-01,9.92943720E-01,1.18090153E+00,1.67561411E+00,1.81266554E+00,1.76400026E+00,1.79264078E+00,2.18472109E+00,2.78215802E+00,2.57297198E+00,3.00181693E+00,3.01720978E+00,2.27685870E+00,2.45523889E+00,1.79314625E+00,9.87254366E-01,5.24524431E-01,4.52860061E-01,3.51301791E-01,1.66904125E-01,1.04308680E-01,7.33253912E-02,5.63148942E-02,4.42698661E-02
TR-2019-0001,26/09/2019 10:59:25,,,,,MR,40.882,28.214,7.97,,U,,,5.8,,,,5.8,,,,276,55,145,AFAD,4.711,GW,8.7,7.25,,TR,625,0,,,,,,TR,39.972,32.582,833,B,VS30,Vs30_ref,213,AFAD,0,MASW,0.770972486,309.22,383.2732,103.8787,380.0034,379.8921,-348.2092,152.1501,,,,,,,,,,,,,,1.00600000E+00,9.31300000E-01,4.88560000E-01,1.01416448E+00,,,2.08315639E-01,2.12521733E-01,6.58907422E-02,2.08483746E-01,,,6.26928086E-02,5.13705837E-02,2.40491123E-02,5.57698031E-02,,,83.5000,88.8900,160.9100,,,,1.22036011,0.96591848,0.30525489,,,,24.34370224,20.88176579,9.19775165,,,,0.01171394,0.00821207,0.00128357,,,,1.00579537E+00,1.00883367E+00,1.02735393E+00,1.03478596E+00,1.01124946E+00,1.01772489E+00,1.01940615E+00,1.06061320E+00,1.09438843E+00,1.25566796E+00,1.44920687E+00,1.59999663E+00,1.81623957E+00,1.86501957E+00,2.89508593E+00,2.19577562E+00,2.02019081E+00,2.11810302E+00,2.57573236E+00,3.54930058E+00,3.80409655E+00,4.11828174E+00,4.92692992E+00,2.83010039E+00,1.52915484E+00,7.33234102E-01,5.63082026E-01,3.52158212E-01,1.80272331E-01,1.48727423E-01,1.47246561E-01,1.22651036E-01,6.35019256E-02,3.98079890E-02,3.04146167E-02,2.42815153E-02,9.31163547E-01,9.34423817E-01,9.38332234E-01,9.43510972E-01,9.39796150E-01,9.33936660E-01,9.63841513E-01,9.68933824E-01,1.00400630E+00,9.54723438E-01,1.11414867E+00,1.75928625E+00,1.72288563E+00,1.66637410E+00,2.25066879E+00,2.40344269E+00,2.51529993E+00,2.33752410E+00,2.11594618E+00,3.12594457E+00,5.00402328E+00,3.01905887E+00,2.61643700E+00,1.63544758E+00,1.05289986E+00,8.04012404E-01,5.75226447E-01,4.66548731E-01,2.78486476E-01,2.29543092E-01,2.00606339E-01,1.25198915E-01,6.84343035E-02,4.47280174E-02,3.01464567E-02,2.19887455E-02,4.87926688E-01,5.19375647E-01,1.20310430E+00,8.70631118E-01,1.06291762E+00,5.09463464E-01,4.29569724E-01,4.32624609E-01,4.83811513E-01,4.93321267E-01,5.16881052E-01,6.19827404E-01,7.51359254E-01,8.17304214E-01,8.56277669E-01,1.35044933E+00,1.10018219E+00,9.20204250E-01,9.75494507E-01,1.30555945E+00,8.66810943E-01,9.09310725E-01,6.57902108E-01,4.86481096E-01,3.36898238E-01,3.84323888E-01,3.06313308E-01,1.84556864E-01,1.07782563E-01,9.18142267E-02,8.98965548E-02,9.69853308E-02,4.86451415E-02,2.44495202E-02,1.48716985E-02,1.07624203E-02,1.01401446E+00,1.01900911E+00,1.03559164E+00,1.03451123E+00,1.02305248E+00,1.01986478E+00,1.03769747E+00,1.06137748E+00,1.09045568E+00,1.15481043E+00,1.30163506E+00,1.71310476E+00,1.80700434E+00,1.73902498E+00,2.51513580E+00,2.47336737E+00,2.42877263E+00,2.24386946E+00,2.21288311E+00,3.46845497E+00,4.39432130E+00,4.00910829E+00,3.67736563E+00,2.32054346E+00,1.28269079E+00,7.24892080E-01,5.65644354E-01,4.07567129E-01,2.44656322E-01,1.96083822E-01,1.54762226E-01,1.23891631E-01,7.12865851E-02,4.27522684E-02,3.16996560E-02,2.49222116E-02
