event_id,event_time,ISC_ev_id,USGS_ev_id,INGV_ev_id,EMSC_ev_id,ev_nation_code,ev_latitude,ev_longitude,ev_depth_km,ev_hyp_ref,fm_type_code,ML,ML_ref,Mw,Mw_ref,Ms,Ms_ref,EMEC_Mw,EMEC_Mw_type,EMEC_Mw_ref,event_source_id,es_strike,es_dip,es_rake,es_strike_dip_rake_ref,es_z_top,es_z_top_ref,es_length,es_width,es_geometry_ref,network_code,station_code,location_code,instrument_code,sensor_depth_m,proximity_code,housing_code,installation_code,st_nation_code,st_latitude,st_longitude,st_elevation,ec8_code,ec8_code_method,ec8_code_ref,vs30_m_sec,vs_ref,vs30_calc_method,vs30_meas_type,slope_deg,vs30_m_sec_WA,epi_dist,epi_az,JB_dist,rup_dist,Rx_dist,Ry0_dist,instrument_type_code,late_triggered_flag_01,U_channel_code,U_azimuth_deg,V_channel_code,V_azimuth_deg,W_channel_code,U_hp,V_hp,W_hp,U_lp,V_lp,W_lp,U_pga,V_pga,W_pga,rotD50_pga,rotD100_pga,rotD00_pga,U_pgv,V_pgv,W_pgv,rotD50_pgv,rotD100_pgv,rotD00_pgv,U_pgd,V_pgd,w_pgd,rotD50_pgd,rotD100_pgd,rotD00_pgd,U_T90,V_T90,W_T90,rotD50_T90,rotD100_T90,rotD00_T90,U_housner,V_housner,W_housner,rotD50_housner,rotD100_housner,rotD00_housner,U_CAV,V_CAV,W_CAV,rotD50_CAV,rotD100_CAV,rotD00_CAV,U_ia,V_ia,W_ia,rotD50_ia,rotD100_ia,rotD00_ia,U_T0_010,U_T0_025,U_T0_040,U_T0_050,U_T0_070,U_T0_100,U_T0_150,U_T0_200,U_T0_250,U_T0_300,U_T0_350,U_T0_400,U_T0_450,U_T0_500,U_T0_600,U_T0_700,U_T0_750,U_T0_800,U_T0_900,U_T1_000,U_T1_200,U_T1_400,U_T1_600,U_T1_800,U_T2_000,U_T2_500,U_T3_000,U_T3_500,U_T4_000,U_T4_500,U_T5_000,U_T6_000,U_T7_000,U_T8_000,U_T9_000,U_T10_000,V_T0_010,V_T0_025,V_T0_040,V_T0_050,V_T0_070,V_T0_100,V_T0_150,V_T0_200,V_T0_250,V_T0_300,V_T0_350,V_T0_400,V_T0_450,V_T0_500,V_T0_600,V_T0_700,V_T0_750,V_T0_800,V_T0_900,V_T1_000,V_T1_200,V_T1_400,V_T1_600,V_T1_800,V_T2_000,V_T2_500,V_T3_000,V_T3_500,V_T4_000,V_T4_500,V_T5_000,V_T6_000,V_T7_000,V_T8_000,V_T9_000,V_T10_000,W_T0_010,W_T0_025,W_T0_040,W_T0_050,W_T0_070,W_T0_100,W_T0_150,W_T0_200,W_T0_250,W_T0_300,W_T0_350,W_T0_400,W_T0_450,W_T0_500,W_T0_600,W_T0_700,W_T0_750,W_T0_800,W_T0_900,W_T1_000,W_T1_200,W_T1_400,W_T1_600,W_T1_800,W_T2_000,W_T2_500,W_T3_000,W_T3_500,W_T4_000,W_T4_500,W_T5_000,W_T6_000,W_T7_000,W_T8_000,W_T9_000,W_T10_000,rotD50_T0_010,rotD50_T0_025,rotD50_T0_040,rotD50_T0_050,rotD50_T0_070,rotD50_T0_100,rotD50_T0_150,rotD50_T0_200,rotD50_T0_250,rotD50_T0_300,rotD50_T0_350,rotD50_T0_400,rotD50_T0_450,rotD50_T0_500,rotD50_T0_600,rotD50_T0_700,rotD50_T0_750,rotD50_T0_800,rotD50_T0_900,rotD50_T1_000,rotD50_T1_200,rotD50_T1_400,rotD50_T1_600,rotD50_T1_800,rotD50_T2_000,rotD50_T2_500,rotD50_T3_000,rotD50_T3_500,rotD50_T4_000,rotD50_T4_500,rotD50_T5_000,rotD50_T6_000,rotD50_T7_000,rotD50_T8_000,rotD50_T9_000,rotD50_T10_000
TR-2019-0001,26/09/2019 10:59:25,,,,,MR,40.882,28.214,7.97,,U,,,5.8,,,,5.8,,,,276,55,145,AFAD,4.711,GW,8.7,7.25,,TR,1028,0,,,,,,TR,39.585,26.923,5,B,VS30,Vs30_ref,306.1669006,WA2007,0,TOPO,0.5622308,306.17,181.1112,217.6537,176.7575,176.7553,0.5252,176.7575,,,,,,,,,,,,,,4.86140000E+00,3.19190000E+00,1.72060000E+00,4.32163658E+00,,,3.83945064E-01,3.60144949E-01,1.03461907E-01,3.46920551E-01,,,4.65356562E-02,4.44598058E-02,2.46226882E-02,4.31167923E-02,,,38.7200,42.1400,55.9500,,,,1.40778486,1.17142404,0.43831660,,,,32.18118051,25.61313479,14.07118898,,,,0.04711110,0.02803713,0.00722238,,,,4.85417169E+00,4.87723831E+00,4.92890583E+00,4.90688619E+00,5.64334381E+00,6.59241919E+00,7.34334958E+00,9.62472068E+00,1.55208181E+01,1.58318512E+01,1.42719027E+01,1.21101541E+01,1.56288998E+01,1.82332044E+01,8.65204441E+00,4.94157367E+00,3.56886343E+00,3.30951400E+00,4.58061577E+00,4.26136230E+00,4.72495090E+00,2.86185084E+00,1.95552147E+00,1.48992622E+00,1.53383680E+00,6.16278713E-01,4.87525118E-01,2.59329000E-01,2.09585104E-01,1.62036108E-01,1.26156434E-01,1.08225722E-01,4.96689153E-02,3.46642793E-02,2.48847554E-02,2.05586744E-02,3.18758254E+00,3.19646518E+00,3.24763665E+00,3.36896873E+00,3.72078313E+00,5.85901157E+00,6.35798135E+00,6.77083179E+00,7.70744426E+00,1.02197297E+01,7.75449232E+00,8.60208184E+00,8.88019537E+00,1.02149505E+01,9.10116508E+00,5.96727375E+00,5.09789926E+00,4.13096637E+00,3.85885430E+00,3.34431966E+00,4.68222094E+00,2.90112286E+00,1.58158624E+00,1.09949317E+00,1.01617013E+00,6.29386949E-01,2.91186049E-01,2.73283718E-01,1.98430477E-01,1.88838773E-01,1.53162605E-01,9.06794572E-02,4.97980178E-02,3.82838328E-02,2.62290637E-02,2.02962461E-02,1.71732773E+00,1.71952180E+00,1.76580863E+00,2.06141028E+00,3.02764166E+00,3.85499838E+00,4.25081087E+00,5.09391553E+00,3.45083637E+00,3.59552775E+00,3.56762839E+00,2.87160099E+00,3.90370524E+00,2.64242754E+00,2.51807639E+00,2.58214001E+00,2.29471132E+00,1.77331387E+00,1.75165854E+00,1.21775757E+00,1.18602839E+00,9.84430551E-01,7.55395156E-01,4.57005172E-01,3.35332344E-01,3.79247559E-01,1.77720051E-01,1.78001657E-01,1.48318885E-01,1.26289104E-01,9.15383536E-02,5.86829947E-02,3.81322837E-02,2.37520098E-02,1.55806006E-02,1.15875778E-02,4.31444376E+00,4.33977005E+00,4.43864523E+00,4.50397606E+00,5.01848997E+00,5.77103132E+00,6.43451828E+00,8.67175211E+00,1.21709771E+01,1.31417517E+01,1.16255042E+01,9.21078435E+00,1.13723260E+01,1.30157904E+01,9.02988769E+00,5.13382741E+00,4.14344800E+00,3.89555214E+00,4.32737368E+00,4.01899050E+00,5.16544812E+00,2.92818145E+00,1.84320403E+00,1.27433177E+00,1.32892237E+00,6.34903725E-01,3.71952217E-01,2.82829088E-01,2.10738491E-01,1.60487179E-01,1.41933773E-01,1.01871215E-01,5.26478678E-02,3.45272237E-02,2.44228011E-02,1.98479754E-02
TR-2019-0001,26/09/2019 10:59:25,,,,,MR,40.882,28.214,7.97,,U,,,5.8,,,,5.8,,,,276,55,145,AFAD,4.711,GW,8.7,7.25,,TR,1101,0,,,,,,TR,40.141,29.977,532,B,VS30,Vs30_ref,901.572,AFAD,0,MASW,1.863915751,475.51,170.2855,118.3540,168.0337,168.0376,-166.2930,24.1523,,,,,,,,,,,,,,2.18200000E+00,2.21450000E+00,1.61450000E+00,2.18887406E+00,,,3.40720416E-01,3.16449363E-01,2.25348348E-01,3.22192895E-01,,,6.07299115E-02,1.13708448E-01,5.04705267E-02,8.67971777E-02,,,34.0100,28.8400,39.7100,,,,1.44646164,1.44410671,0.99499338,,,,15.49489334,14.12482655,12.37210523,,,,0.01222430,0.00964905,0.00623025,,,,2.17999743E+00,2.18401153E+00,2.19142657E+00,2.21346433E+00,2.20118289E+00,2.52906223E+00,4.26223979E+00,4.21002796E+00,3.76640371E+00,4.18970089E+00,5.01574956E+00,6.66972453E+00,8.64786586E+00,1.13458031E+01,6.55671689E+00,4.89561938E+00,4.64868111E+00,4.43410504E+00,4.21927589E+00,3.97646311E+00,5.76078488E+00,4.11652017E+00,2.51480251E+00,2.09994389E+00,1.46859205E+00,1.38545968E+00,7.25088189E-01,5.34040173E-01,4.16917618E-01,2.74036411E-01,2.07408714E-01,9.31449819E-02,5.42011302E-02,4.07754175E-02,3.16230194E-02,2.59303377E-02,2.21299571E+00,2.22087107E+00,2.23861434E+00,2.23906274E+00,2.26398064E+00,2.35727892E+00,2.72785359E+00,2.88313563E+00,3.76441511E+00,5.42564671E+00,8.23986701E+00,7.65571825E+00,8.14501476E+00,7.49139470E+00,5.11033712E+00,3.66403780E+00,3.02080353E+00,2.55223728E+00,3.37008060E+00,4.16819195E+00,3.26772837E+00,3.61660347E+00,2.63765820E+00,1.94568166E+00,2.01724097E+00,2.68970149E+00,9.95875093E-01,8.97535636E-01,5.88850725E-01,5.06166194E-01,4.59642719E-01,2.53010189E-01,1.28993296E-01,8.48639211E-02,6.46814812E-02,5.13440263E-02,1.61329484E+00,1.61757748E+00,1.62945438E+00,1.65547401E+00,1.70907357E+00,1.72220627E+00,1.94674866E+00,2.38014489E+00,2.55473648E+00,2.89545607E+00,3.10154451E+00,2.83016029E+00,3.93722743E+00,6.15425840E+00,3.54777025E+00,3.35566875E+00,3.26517951E+00,2.80894240E+00,2.34855177E+00,2.29906241E+00,3.14294131E+00,1.92636618E+00,1.95815829E+00,2.17710466E+00,1.53122286E+00,1.10598439E+00,7.75408813E-01,4.34846759E-01,3.03259600E-01,2.15487068E-01,1.85175899E-01,1.18028365E-01,6.30683440E-02,3.77174787E-02,2.78745791E-02,2.10578779E-02,2.18711068E+00,2.19188554E+00,2.20558934E+00,2.21886641E+00,2.22668239E+00,2.52514047E+00,3.45337128E+00,3.61450129E+00,3.76540941E+00,4.80162409E+00,6.64644008E+00,7.24751162E+00,8.39522202E+00,9.60296781E+00,5.92853184E+00,4.36216755E+00,3.92326726E+00,3.58366312E+00,3.81843387E+00,4.07417091E+00,4.29837340E+00,3.75303521E+00,2.52925886E+00,2.12065698E+00,1.87337167E+00,2.11608107E+00,8.72977538E-01,7.49558457E-01,5.17118781E-01,4.07099085E-01,3.64900610E-01,1.86317754E-01,9.76788521E-02,6.39093400E-02,4.82016607E-02,3.82663387E-02
TR-2019-0001,26/09/2019 10:59:25,,,,,MR,40.882,28.214,7.97,,U,,,5.8,,,,5.8,,,,276,55,145,AFAD,4.711,GW,8.7,7.25,,TR,1103,0,,,,,,TR,40.282,30.3083,538,B,VS30,Vs30_ref,711.967041,WA2007,0,TOPO,8.659425518,711.97,189.0146,109.9779,186.1869,186.1777,-178.1591,54.0911,,,,,,,,,,,,,,5.71070000E+00,2.84340000E+00,1.81140000E+00,4.47348322E+00,,,5.14811413E-01,5.30896698E-01,2.73505873E-01,5.17068354E-01,,,6.28019756E-02,9.90658441E-02,5.54512730E-02,9.36977062E-02,,,38.8100,39.3300,44.0900,,,,1.85305773,2.28275709,1.15524787,,,,33.03461020,31.42401860,14.08067112,,,,0.05025083,0.03902328,0.00821185,,,,5.70338401E+00,5.72864618E+00,5.75499052E+00,5.85545416E+00,5.87888525E+00,6.11855599E+00,7.56898648E+00,8.73240251E+00,1.21569018E+01,1.29452950E+01,1.18010960E+01,1.81511673E+01,2.05566365E+01,1.82251684E+01,8.91252041E+00,9.35259478E+00,8.83025244E+00,6.85666831E+00,6.64089532E+00,6.86675582E+00,3.69375340E+00,3.76326043E+00,3.40897798E+00,2.96199825E+00,1.95076543E+00,9.01013006E-01,7.04083636E-01,4.09033664E-01,2.17710461E-01,1.76309073E-01,1.58324438E-01,1.16289184E-01,7.62737089E-02,4.00235495E-02,3.07812462E-02,2.45490574E-02,2.84013652E+00,2.85469369E+00,2.86641088E+00,2.90403904E+00,2.95209592E+00,3.18339220E+00,4.64570885E+00,3.83205591E+00,5.96202080E+00,7.42869714E+00,9.37317046E+00,1.34977936E+01,8.89512474E+00,9.41057613E+00,7.70502616E+00,5.81393385E+00,6.31398213E+00,6.44593020E+00,5.94041432E+00,5.26229031E+00,9.42024321E+00,6.04268413E+00,5.01035875E+00,3.53767325E+00,2.86019679E+00,2.46722571E+00,1.28163746E+00,5.73639229E-01,3.91654031E-01,2.77260910E-01,2.38741593E-01,1.94434643E-01,1.07138672E-01,7.19689840E-02,5.30429569E-02,4.09930900E-02,1.80801719E+00,1.82258468E+00,1.84401559E+00,1.87201536E+00,1.98162067E+00,1.97121377E+00,3.14326057E+00,4.42401882E+00,5.91943239E+00,4.61337892E+00,4.07677868E+00,5.47550001E+00,5.42790287E+00,4.24439926E+00,2.60135029E+00,2.22164766E+00,2.71558463E+00,2.89861967E+00,2.67706658E+00,3.08005915E+00,4.79305587E+00,2.98495447E+00,2.42970955E+00,2.09443785E+00,1.56457614E+00,1.14609782E+00,7.75665200E-01,3.94254027E-01,2.51856861E-01,1.77498225E-01,1.42757079E-01,9.49610548E-02,6.04080419E-02,4.45773597E-02,3.28510529E-02,2.51767727E-02,4.46993852E+00,4.47536698E+00,4.49237588E+00,4.55482591E+00,4.55007278E+00,4.67957478E+00,5.61093698E+00,6.30383070E+00,8.75860990E+00,1.10168163E+01,1.02225099E+01,1.50215575E+01,1.64256302E+01,1.37622597E+01,8.74013500E+00,7.23719787E+00,7.75576430E+00,6.85549986E+00,5.93030048E+00,6.10615396E+00,7.37678811E+00,5.03814398E+00,4.36025358E+00,3.21924224E+00,2.50479847E+00,1.79099269E+00,9.48989188E-01,5.38725171E-01,3.88855742E-01,2.68027557E-01,2.01373607E-01,1.50807284E-01,9.84585449E-02,6.58691140E-02,5.00256132E-02,3.91566832E-02
TR-2019-0001,26/09/2019 10:59:25,,,,,MR,40.882,28.214,7.97,,U,,,5.8,,,,5.8,,,,276,55,145,AFAD,4.711,GW,8.7,7.25,,TR,1104,0,,,,,,TR,40.357,30.018,113,B,VS30,Vs30_ref,448.8742676,WA2007,0,TOPO,1.283488373,448.87,163.0576,110.3806,160.2643,160.2743,-153.8259,44.9758,,,,,,,,,,,,,,3.54060000E+00,4.51920000E+00,1.84410000E+00,4.05778246E+00,,,6.04794941E-01,8.16440805E-01,3.41929934E-01,7.18776295E-01,,,1.33567327E-01,2.43791915E-01,1.04594802E-01,1.94134098E-01,,,49.0200,34.8600,41.4800,,,,2.54232730,3.44446229,1.51904389,,,,26.97855496,30.36707193,17.28944571,,,,0.02998090,0.04100412,0.01256141,,,,3.53908560E+00,3.54752226E+00,3.58943459E+00,3.54478527E+00,3.59670305E+00,3.63583020E+00,3.97888583E+00,5.53467756E+00,4.46648295E+00,6.57993943E+00,4.74995742E+00,7.91019034E+00,8.42006034E+00,8.17512188E+00,7.29850585E+00,7.27458632E+00,6.28127329E+00,7.80257126E+00,9.13997599E+00,1.00071851E+01,1.07823766E+01,7.35385468E+00,5.74364372E+00,4.48228100E+00,2.98808871E+00,1.52072999E+00,1.14459369E+00,7.21542386E-01,4.79769933E-01,3.47950649E-01,2.46111969E-01,1.90118605E-01,1.17240045E-01,8.83038703E-02,6.75753270E-02,5.31361440E-02,4.51741994E+00,4.53620937E+00,4.56617925E+00,4.58413864E+00,4.63969224E+00,4.70320792E+00,4.88640325E+00,6.61356846E+00,4.47957931E+00,5.65044311E+00,5.50196472E+00,5.89435464E+00,8.12248729E+00,9.01245273E+00,9.36678644E+00,8.42027435E+00,7.47026444E+00,8.13590355E+00,8.62176275E+00,9.47982628E+00,1.14164567E+01,9.89336054E+00,8.37345327E+00,6.39566763E+00,5.36582905E+00,3.89375632E+00,2.18136296E+00,1.32163781E+00,9.78057125E-01,7.78220327E-01,6.23738503E-01,3.86587846E-01,2.45847235E-01,1.71895694E-01,1.29340827E-01,1.02096894E-01,1.84372667E+00,1.85172253E+00,1.85644449E+00,1.86196673E+00,1.91937241E+00,1.94027610E+00,2.30323408E+00,2.10598117E+00,2.50328904E+00,2.44863465E+00,2.44896156E+00,3.06594324E+00,3.21340376E+00,4.48233944E+00,3.51877359E+00,4.51539959E+00,4.01014329E+00,4.15729043E+00,4.42818959E+00,5.06665631E+00,4.61196420E+00,4.21498074E+00,3.72124651E+00,3.07359218E+00,2.44384955E+00,1.25931666E+00,7.35691560E-01,4.77548578E-01,3.37040838E-01,2.58565851E-01,2.06223632E-01,1.66834986E-01,1.04954913E-01,7.32584276E-02,5.51297307E-02,4.35685880E-02,4.05618643E+00,4.07198368E+00,4.10692918E+00,4.09749873E+00,4.14897683E+00,4.20548984E+00,4.45735608E+00,5.64794291E+00,4.47303113E+00,6.21153290E+00,5.13214320E+00,7.11914506E+00,8.15812189E+00,8.15896102E+00,8.90768639E+00,7.86304924E+00,6.89653597E+00,7.91844464E+00,8.91671064E+00,9.74677247E+00,1.10918304E+01,8.70710441E+00,7.18007961E+00,5.82522225E+00,4.54512701E+00,3.03598883E+00,1.70047581E+00,1.07175842E+00,7.43469891E-01,5.86299006E-01,4.66038578E-01,2.90089814E-01,1.92598415E-01,1.36650082E-01,1.03194734E-01,8.13943954E-02
TR-2019-0001,26/09/2019 10:59:25,,,,,MR,40.882,28.214,7.97,,U,,,5.8,,,,5.8,,,,276,55,145,AFAD,4.711,GW,8.7,7.25,,TR,1105,0,,,,,,TR,40.023,30.179,667,B,VS30,Vs30_ref,348.5056763,WA2007,0,TOPO,0.930744092,348.51,191.7301,119.2307,189.5332,189.5216,-187.9038,24.8454,,,,,,,,,,,,,,2.13360000E+00,2.55050000E+00,1.54520000E+00,2.16081300E+00,,,2.36122921E-01,2.44163248E-01,2.47602656E-01,2.53631408E-01,,,5.86716237E-02,5.41090734E-02,7.12574494E-02,5.52541574E-02,,,37.1000,21.6400,40.2500,,,,1.02068211,1.11725679,1.20536116,,,,17.38114466,18.73834324,10.74535242,,,,0.01409116,0.01934918,0.00524049,,,,2.13126341E+00,2.14019641E+00,2.14312762E+00,2.17904804E+00,2.15561998E+00,2.55554208E+00,4.08298719E+00,4.29214346E+00,4.10473996E+00,5.23370952E+00,6.08738608E+00,8.09566491E+00,8.91538241E+00,8.14661993E+00,7.10059140E+00,4.30084037E+00,3.62292686E+00,3.68837840E+00,3.28876726E+00,2.24939777E+00,2.87964167E+00,1.83066158E+00,1.86152902E+00,1.96840840E+00,1.17047960E+00,7.34573214E-01,8.39195005E-01,5.49308478E-01,2.50019071E-01,1.88129377E-01,1.64422202E-01,1.18359502E-01,6.67007207E-02,4.56837399E-02,3.37562062E-02,2.62218476E-02,2.54797042E+00,2.55742090E+00,2.57069981E+00,2.59127137E+00,2.64817413E+00,2.92021653E+00,3.51362416E+00,3.63772918E+00,3.89303417E+00,5.14635624E+00,6.83142705E+00,1.11333445E+01,1.11631657E+01,9.03045116E+00,1.12662075E+01,7.56425968E+00,6.71514946E+00,4.98893627E+00,3.35499816E+00,3.25932790E+00,2.00804503E+00,2.18375919E+00,1.39374598E+00,1.49166252E+00,1.18971521E+00,9.08372015E-01,7.69698757E-01,4.45928213E-01,2.84096318E-01,2.54065341E-01,2.70382814E-01,1.44634752E-01,7.53621421E-02,4.30971407E-02,2.92188458E-02,2.28458411E-02,1.54380872E+00,1.54632089E+00,1.56076427E+00,1.58527082E+00,1.60942043E+00,1.75314908E+00,2.41137908E+00,2.58919018E+00,2.72993204E+00,3.37352466E+00,3.01915378E+00,3.68728725E+00,2.52160645E+00,2.86968467E+00,2.78394623E+00,2.74955729E+00,2.80429712E+00,2.70618598E+00,2.41353370E+00,2.68117610E+00,3.27889260E+00,4.28462288E+00,3.33592246E+00,2.35479296E+00,1.92963507E+00,1.11772970E+00,5.15138045E-01,3.01752532E-01,2.19956264E-01,1.81876057E-01,1.84005596E-01,1.02641428E-01,6.86250185E-02,5.17690023E-02,4.05155453E-02,3.19813646E-02,2.15868669E+00,2.16861833E+00,2.18628203E+00,2.20455294E+00,2.26129046E+00,2.57295697E+00,3.96376109E+00,3.97054950E+00,3.98437585E+00,5.20683689E+00,6.84942878E+00,1.01335200E+01,1.03643606E+01,8.32214704E+00,9.49025563E+00,6.94732393E+00,4.81672471E+00,4.10678255E+00,3.17242400E+00,2.71220325E+00,2.55963340E+00,1.97215053E+00,1.71504799E+00,1.79826470E+00,1.18307567E+00,8.21767672E-01,8.16629627E-01,5.02852183E-01,2.67016487E-01,2.20474627E-01,2.19527976E-01,1.33657467E-01,7.03150215E-02,4.46233813E-02,3.20913574E-02,2.48666971E-02
TR-2019-0001,26/09/2019 10:59:25,,,,,MR,40.882,28.214,7.97,,U,,,5.8,,,,5.8,,,,276,55,145,AFAD,4.711,GW,8.7,7.25,,TR,1106,0,,,,,,TR,40.176,30.52,626,B,VS30,Vs30_ref,423.8614197,WA2007,0,TOPO,0.626373722,423.86,210.0953,111.1817,207.3397,207.3166,-199.5269,56.3958,,,,,,,,,,,,,,3.40920000E+00,3.00780000E+00,1.29290000E+00,3.29544382E+00,,,4.07520225E-01,4.36354631E-01,2.54081006E-01,4.41799084E-01,,,9.14126839E-02,1.28839504E-01,5.71473863E-02,1.10561310E-01,,,43.5700,41.2100,50.7100,,,,2.03859520,2.45078524,1.07490266,,,,29.87674105,26.70553154,13.28695624,,,,0.03436867,0.02870896,0.00619662,,,,3.40766394E+00,3.42730302E+00,3.41956515E+00,3.41496749E+00,3.44317466E+00,3.50428837E+00,3.53420347E+00,4.12097668E+00,5.38877136E+00,7.18752255E+00,6.70265895E+00,9.13582720E+00,9.98188728E+00,1.09250372E+01,6.95740536E+00,6.67889125E+00,8.75998245E+00,8.27495413E+00,7.60345169E+00,8.40863994E+00,6.61702377E+00,6.32316940E+00,3.07881453E+00,3.54938483E+00,2.65173904E+00,9.70317585E-01,4.81742563E-01,4.33951705E-01,2.83642602E-01,2.31242817E-01,1.59126904E-01,1.49087495E-01,9.07054376E-02,6.50808377E-02,4.73407080E-02,3.72522303E-02,3.00707721E+00,3.02132842E+00,3.12252177E+00,3.03811690E+00,3.11856454E+00,3.21837343E+00,3.52393972E+00,4.02559089E+00,4.80737111E+00,6.08804590E+00,7.28392106E+00,7.61146070E+00,7.41828163E+00,8.39557524E+00,6.70415323E+00,4.55559332E+00,4.43180876E+00,4.40215241E+00,5.10901332E+00,7.87441023E+00,7.90163668E+00,7.62070229E+00,6.41869456E+00,4.96210177E+00,3.62324206E+00,2.06662398E+00,1.32505781E+00,7.25270433E-01,5.11458829E-01,4.15792942E-01,3.03399996E-01,1.90864927E-01,1.30967014E-01,9.25988342E-02,6.93670899E-02,5.46025095E-02,1.29227382E+00,1.29625096E+00,1.33901323E+00,1.29550873E+00,1.34038380E+00,1.32593142E+00,1.39647933E+00,1.76480477E+00,2.10815886E+00,2.25431009E+00,2.66634112E+00,3.31348371E+00,2.65745172E+00,3.05962277E+00,4.04337997E+00,2.79417005E+00,2.90072888E+00,2.36828373E+00,2.35109440E+00,3.27429435E+00,2.24309572E+00,2.64744014E+00,2.56777999E+00,2.33833574E+00,1.87625742E+00,1.24054356E+00,7.98371728E-01,4.39110407E-01,2.73320393E-01,2.10732849E-01,1.48616118E-01,1.03681486E-01,7.02868986E-02,3.99512886E-02,3.04135807E-02,2.40095505E-02,3.29350288E+00,3.31192292E+00,3.32248344E+00,3.34503036E+00,3.41683187E+00,3.43425007E+00,3.58000249E+00,4.26220282E+00,4.87442389E+00,7.09527420E+00,6.98410241E+00,8.74604338E+00,9.24562998E+00,9.73757280E+00,7.47302883E+00,5.76036536E+00,6.60136816E+00,7.41546593E+00,6.67384304E+00,8.15528725E+00,6.62165968E+00,6.72128472E+00,5.65964846E+00,4.43240882E+00,3.37770328E+00,1.65511642E+00,1.05207318E+00,6.55930352E-01,4.25226076E-01,3.19695623E-01,2.42094731E-01,1.50630247E-01,1.00452971E-01,7.39553918E-02,5.63295488E-02,4.50516551E-02
