event_id,event_time,ISC_ev_id,USGS_ev_id,INGV_ev_id,EMSC_ev_id,ev_nation_code,ev_latitude,ev_longitude,ev_depth_km,ev_hyp_ref,fm_type_code,ML,ML_ref,Mw,Mw_ref,Ms,Ms_ref,EMEC_Mw,EMEC_Mw_type,EMEC_Mw_ref,event_source_id,es_strike,es_dip,es_rake,es_strike_dip_rake_ref,es_z_top,es_z_top_ref,es_length,es_width,es_geometry_ref,network_code,station_code,location_code,instrument_code,sensor_depth_m,proximity_code,housing_code,installation_code,st_nation_code,st_latitude,st_longitude,st_elevation,ec8_code,ec8_code_method,ec8_code_ref,vs30_m_sec,vs_ref,vs30_calc_method,vs30_meas_type,slope_deg,vs30_m_sec_WA,epi_dist,epi_az,JB_dist,rup_dist,Rx_dist,Ry0_dist,instrument_type_code,late_triggered_flag_01,U_channel_code,U_azimuth_deg,V_channel_code,V_azimuth_deg,W_channel_code,U_hp,V_hp,W_hp,U_lp,V_lp,W_lp,U_pga,V_pga,W_pga,rotD50_pga,rotD100_pga,rotD00_pga,U_pgv,V_pgv,W_pgv,rotD50_pgv,rotD100_pgv,rotD00_pgv,U_pgd,V_pgd,w_pgd,rotD50_pgd,rotD100_pgd,rotD00_pgd,U_T90,V_T90,W_T90,rotD50_T90,rotD100_T90,rotD00_T90,U_housner,V_housner,W_housner,rotD50_housner,rotD100_housner,rotD00_housner,U_CAV,V_CAV,W_CAV,rotD50_CAV,rotD100_CAV,rotD00_CAV,U_ia,V_ia,W_ia,rotD50_ia,rotD100_ia,rotD00_ia,U_T0_010,U_T0_025,U_T0_040,U_T0_050,U_T0_070,U_T0_100,U_T0_150,U_T0_200,U_T0_250,U_T0_300,U_T0_350,U_T0_400,U_T0_450,U_T0_500,U_T0_600,U_T0_700,U_T0_750,U_T0_800,U_T0_900,U_T1_000,U_T1_200,U_T1_400,U_T1_600,U_T1_800,U_T2_000,U_T2_500,U_T3_000,U_T3_500,U_T4_000,U_T4_500,U_T5_000,U_T6_000,U_T7_000,U_T8_000,U_T9_000,U_T10_000,V_T0_010,V_T0_025,V_T0_040,V_T0_050,V_T0_070,V_T0_100,V_T0_150,V_T0_200,V_T0_250,V_T0_300,V_T0_350,V_T0_400,V_T0_450,V_T0_500,V_T0_600,V_T0_700,V_T0_750,V_T0_800,V_T0_900,V_T1_000,V_T1_200,V_T1_400,V_T1_600,V_T1_800,V_T2_000,V_T2_500,V_T3_000,V_T3_500,V_T4_000,V_T4_500,V_T5_000,V_T6_000,V_T7_000,V_T8_000,V_T9_000,V_T10_000,W_T0_010,W_T0_025,W_T0_040,W_T0_050,W_T0_070,W_T0_100,W_T0_150,W_T0_200,W_T0_250,W_T0_300,W_T0_350,W_T0_400,W_T0_450,W_T0_500,W_T0_600,W_T0_700,W_T0_750,W_T0_800,W_T0_900,W_T1_000,W_T1_200,W_T1_400,W_T1_600,W_T1_800,W_T2_000,W_T2_500,W_T3_000,W_T3_500,W_T4_000,W_T4_500,W_T5_000,W_T6_000,W_T7_000,W_T8_000,W_T9_000,W_T10_000,rotD50_T0_010,rotD50_T0_025,rotD50_T0_040,rotD50_T0_050,rotD50_T0_070,rotD50_T0_100,rotD50_T0_150,rotD50_T0_200,rotD50_T0_250,rotD50_T0_300,rotD50_T0_350,rotD50_T0_400,rotD50_T0_450,rotD50_T0_500,rotD50_T0_600,rotD50_T0_700,rotD50_T0_750,rotD50_T0_800,rotD50_T0_900,rotD50_T1_000,rotD50_T1_200,rotD50_T1_400,rotD50_T1_600,rotD50_T1_800,rotD50_T2_000,rotD50_T2_500,rotD50_T3_000,rotD50_T3_500,rotD50_T4_000,rotD50_T4_500,rotD50_T5_000,rotD50_T6_000,rotD50_T7_000,rotD50_T8_000,rotD50_T9_000,rotD50_T10_000
TR-2019-0001,26/09/2019 10:59:25,,,,,MR,40.882,28.214,7.97,,U,,,5.8,,,,5.8,,,,276,55,145,AFAD,4.711,GW,8.7,7.25,,TR,301,0,,,,,,TR,38.775,30.533,1054,B,VS30,Vs30_ref,225.607,AFAD,0,MASW,0.092749012,263.96,306.7243,139.0433,304.3271,304.2520,-299.4410,54.2187,,,,,,,,,,,,,,1.47130000E+00,1.24800000E+00,6.39650000E-01,1.40603698E+00,,,2.49147982E-01,2.30486999E-01,7.33979410E-02,2.40852619E-01,,,5.34518921E-02,7.00178587E-02,2.48816227E-02,6.11847600E-02,,,49.5900,55.5800,60.3300,,,,1.23103362,1.07816440,0.33027378,,,,17.04293731,16.51732659,5.80327856,,,,0.01303997,0.01096439,0.00123418,,,,1.47080656E+00,1.47767313E+00,1.48241857E+00,1.64035204E+00,1.62780628E+00,1.49650933E+00,1.50394312E+00,1.60748368E+00,1.63953826E+00,1.59803039E+00,1.90036793E+00,2.51342537E+00,2.70395050E+00,3.68873245E+00,3.40449632E+00,3.02641605E+00,4.03518249E+00,5.54607104E+00,6.82321740E+00,6.27054220E+00,4.05098255E+00,4.43401683E+00,2.42883535E+00,1.54347374E+00,1.20203765E+00,9.38535713E-01,4.65643987E-01,2.81305457E-01,3.10696859E-01,2.91949002E-01,2.24906922E-01,8.91095145E-02,6.20715898E-02,4.30642828E-02,3.06450554E-02,2.37667642E-02,1.24774113E+00,1.25136697E+00,1.36286138E+00,1.52909164E+00,2.70957751E+00,1.69564253E+00,1.29707408E+00,1.35436225E+00,1.49293903E+00,1.50186832E+00,1.70580814E+00,2.40177079E+00,3.10110590E+00,2.81852291E+00,2.62909811E+00,2.83439399E+00,3.45888926E+00,4.29704229E+00,4.21417070E+00,5.10036939E+00,5.16136300E+00,2.75802012E+00,2.27146614E+00,1.46625693E+00,1.20639222E+00,8.05867926E-01,5.17981253E-01,4.59562854E-01,4.18023231E-01,2.69946589E-01,3.52593712E-01,1.47549023E-01,7.05524300E-02,4.56928175E-02,3.28658821E-02,2.51834139E-02,6.38127495E-01,7.15784839E-01,1.18626563E+00,1.76196916E+00,2.67803108E+00,1.55390921E+00,7.29432962E-01,5.98239577E-01,7.88780716E-01,6.26682809E-01,6.56500321E-01,8.71494003E-01,1.25078350E+00,1.88439858E+00,1.49049864E+00,1.23844507E+00,9.58519739E-01,8.99596598E-01,8.01837087E-01,7.63690408E-01,9.38145740E-01,9.83090658E-01,7.71050676E-01,5.84390207E-01,4.90757042E-01,2.89108448E-01,2.44589621E-01,2.04762654E-01,1.25994136E-01,1.09756166E-01,1.25269716E-01,6.42963698E-02,3.51261085E-02,1.90433317E-02,1.30885834E-02,9.97301897E-03,1.40549191E+00,1.40663596E+00,1.48992032E+00,1.57707943E+00,2.25196952E+00,1.54090939E+00,1.44730941E+00,1.50259940E+00,1.64544992E+00,1.59473714E+00,1.79214699E+00,2.53304787E+00,2.79445747E+00,3.09447620E+00,2.92518982E+00,2.99234006E+00,4.04111575E+00,4.82322057E+00,5.64490206E+00,5.87857056E+00,4.74933110E+00,4.13822457E+00,2.46619979E+00,1.50791819E+00,1.25734104E+00,8.57224341E-01,4.86195981E-01,3.94929924E-01,3.59355472E-01,2.84842461E-01,2.80701165E-01,1.29759664E-01,6.80192874E-02,4.52110645E-02,3.19395528E-02,2.44473685E-02
TR-2019-0001,26/09/2019 10:59:25,,,,,MR,40.882,28.214,7.97,,U,,,5.8,,,,5.8,,,,276,55,145,AFAD,4.711,GW,8.7,7.25,,TR,302,0,,,,,,TR,38.059,30.153,862,B,VS30,Vs30_ref,198.124,AFAD,0,MASW,0.36459023,267.96,355.2534,151.4436,352.0349,351.9384,-324.2882,136.7488,,,,,,,,,,,,,,1.14090000E+00,1.45660000E+00,7.01910000E-01,1.30004756E+00,,,2.94015721E-01,3.46378091E-01,1.18610234E-01,3.00459635E-01,,,1.22853512E-01,1.07982582E-01,3.28473739E-02,1.13895563E-01,,,60.6700,54.6200,62.3900,,,,1.62800728,1.86702455,0.61170076,,,,16.39643990,15.89917846,8.29822328,,,,0.01077310,0.01035239,0.00262961,,,,1.14073048E+00,1.15326586E+00,1.17298348E+00,1.22651971E+00,1.41208434E+00,1.19383371E+00,1.18431655E+00,1.22096526E+00,1.25359226E+00,1.22697485E+00,1.28182794E+00,1.35463451E+00,1.73390961E+00,2.51197019E+00,2.57821942E+00,2.22192694E+00,2.62901709E+00,3.17637407E+00,3.87448521E+00,3.36114205E+00,4.60503389E+00,3.51171711E+00,2.98979682E+00,2.63581100E+00,3.25887261E+00,3.67914747E+00,1.17206142E+00,8.14065674E-01,4.91616077E-01,3.78192074E-01,3.14975112E-01,1.82265269E-01,1.27551586E-01,9.02439233E-02,6.58981713E-02,5.07679717E-02,1.45590531E+00,1.45970287E+00,1.53682702E+00,1.93731773E+00,1.85271813E+00,1.48281242E+00,1.37864466E+00,1.39216096E+00,1.37228987E+00,1.43383259E+00,1.41937953E+00,1.62406535E+00,1.94004320E+00,2.65954482E+00,2.67285143E+00,2.70221668E+00,2.94962916E+00,3.32862961E+00,3.12032532E+00,3.18865878E+00,3.43477308E+00,4.53676248E+00,4.64810177E+00,4.57095365E+00,4.34375574E+00,2.91780623E+00,1.50577662E+00,6.80390005E-01,4.13228110E-01,3.24788582E-01,2.99944562E-01,1.70093239E-01,9.22471896E-02,7.09358593E-02,5.66801873E-02,4.52988424E-02,7.01613819E-01,7.05069431E-01,7.13657604E-01,7.15086641E-01,8.56600348E-01,7.49212840E-01,7.16580801E-01,7.32064825E-01,7.55575297E-01,8.33246712E-01,8.51024139E-01,8.89437564E-01,1.04527680E+00,1.16763989E+00,1.36430217E+00,1.78631052E+00,1.87724779E+00,1.99464904E+00,2.35284063E+00,2.67683689E+00,2.01801827E+00,2.01356493E+00,1.30587543E+00,1.18395117E+00,7.68155764E-01,4.76800578E-01,1.97447892E-01,1.56145660E-01,1.21631618E-01,7.92001917E-02,8.24561274E-02,5.15623796E-02,3.33464523E-02,3.17661419E-02,2.26679163E-02,1.66713967E-02,1.29966406E+00,1.30713507E+00,1.35324370E+00,1.47093688E+00,1.57362427E+00,1.34645503E+00,1.29428495E+00,1.32595034E+00,1.32038977E+00,1.33621244E+00,1.39205446E+00,1.47271263E+00,1.83810488E+00,2.56093532E+00,2.64456445E+00,2.57555541E+00,2.88417165E+00,3.07769188E+00,3.51630827E+00,3.28992791E+00,3.98021212E+00,3.65259505E+00,4.25972392E+00,3.39778591E+00,3.71742334E+00,3.09475465E+00,1.20251072E+00,7.25162529E-01,4.63430311E-01,3.32422350E-01,3.08226034E-01,1.73455296E-01,1.09473428E-01,7.73990307E-02,5.97349265E-02,4.68342103E-02
TR-2019-0001,26/09/2019 10:59:25,,,,,MR,40.882,28.214,7.97,,U,,,5.8,,,,5.8,,,,276,55,145,AFAD,4.711,GW,8.7,7.25,,TR,309,0,,,,,,TR,38.536,31.237,1006,B,VS30,Vs30_ref,388.237,AFAD,0,MASW,1.073019025,373.88,367.2521,134.2732,365.1697,365.0656,-363.4545,35.5610,,,,,,,,,,,,,,3.87010000E-01,3.52800000E-01,1.89690000E-01,3.68867394E-01,,,7.90357106E-02,8.02290753E-02,2.88236658E-02,7.56375795E-02,,,2.63365853E-02,2.91599297E-02,2.03367644E-02,2.81618274E-02,,,50.1800,50.3200,58.8700,,,,0.34677014,0.34557591,0.14096212,,,,2.98002953,3.17993440,2.00665182,,,,0.00047412,0.00051173,0.00015532,,,,3.86829875E-01,4.02460646E-01,3.99232381E-01,4.39812827E-01,4.16852601E-01,3.91218090E-01,3.95034853E-01,3.87890927E-01,4.50595344E-01,5.46186149E-01,7.85628770E-01,8.84954612E-01,1.08439206E+00,1.40142334E+00,1.29851614E+00,7.85524606E-01,7.81344225E-01,6.61048109E-01,6.38081611E-01,7.54548819E-01,8.16348816E-01,1.03639658E+00,9.22004278E-01,6.29804196E-01,6.37379136E-01,3.77602063E-01,3.01749840E-01,2.17757278E-01,1.35492428E-01,1.03428697E-01,9.71749262E-02,7.08873165E-02,4.05282111E-02,2.10182585E-02,1.42712689E-02,1.12298286E-02,3.52741653E-01,3.56158249E-01,3.70060165E-01,3.63218596E-01,3.57973616E-01,3.62927528E-01,3.66626947E-01,4.06785039E-01,4.39086336E-01,6.07888880E-01,9.65032433E-01,1.02713172E+00,1.32945631E+00,1.48386585E+00,8.19600064E-01,8.31891056E-01,1.25284219E+00,1.24902983E+00,9.14923516E-01,1.30178996E+00,7.60754118E-01,7.94937766E-01,1.07515024E+00,8.52161545E-01,4.09197273E-01,3.05894524E-01,2.78231679E-01,2.32465064E-01,1.90616350E-01,1.28641283E-01,1.18364902E-01,8.07062129E-02,4.04719279E-02,2.21340373E-02,1.55064921E-02,1.23708040E-02,1.89507010E-01,1.91515820E-01,1.99500240E-01,1.90622628E-01,2.03600638E-01,1.98144039E-01,2.64413623E-01,3.16692990E-01,2.99144597E-01,3.64146241E-01,2.84182413E-01,3.10342448E-01,4.12350664E-01,4.00591220E-01,4.11590477E-01,4.76167329E-01,3.83228572E-01,3.28661539E-01,3.53047522E-01,3.29571338E-01,4.10888386E-01,2.95123244E-01,3.16252756E-01,2.04608138E-01,1.54875229E-01,3.29358352E-01,2.07474771E-01,1.77980264E-01,9.97483445E-02,5.88761990E-02,5.31114253E-02,5.37805686E-02,2.34102589E-02,1.60169015E-02,1.12287072E-02,8.00750612E-03,3.68605575E-01,3.83644035E-01,3.83822625E-01,3.95137866E-01,3.88214187E-01,3.79645130E-01,3.86820130E-01,3.97846740E-01,4.96053510E-01,5.49331050E-01,8.21096450E-01,1.00705812E+00,1.11058652E+00,1.36352995E+00,1.10635474E+00,8.05556450E-01,9.76619650E-01,9.13781100E-01,7.37287810E-01,9.96872230E-01,7.82411235E-01,9.22300369E-01,1.00019511E+00,7.60755591E-01,5.74497353E-01,3.32279585E-01,2.88809123E-01,2.24088140E-01,1.64980803E-01,1.18252698E-01,1.08337286E-01,7.51362042E-02,4.07931314E-02,2.29090181E-02,1.54580470E-02,1.20594365E-02
TR-2019-0001,26/09/2019 10:59:25,,,,,MR,40.882,28.214,7.97,,U,,,5.8,,,,5.8,,,,276,55,145,AFAD,4.711,GW,8.7,7.25,,TR,312,0,,,,,,TR,38.718,31.04,997,B,VS30,Vs30_ref,287.0966797,WA2007,0,TOPO,0.409645008,287.10,340.8066,133.9903,338.7567,338.6647,-337.3485,31.0172,,,,,,,,,,,,,,5.31480000E-01,8.41670000E-01,3.10590000E-01,7.19071957E-01,,,1.28973088E-01,1.65991782E-01,6.71854771E-02,1.49219955E-01,,,4.58832227E-02,6.85842049E-02,2.65173690E-02,5.13268850E-02,,,114.0500,92.3600,94.0200,,,,0.62159796,0.96350745,0.33105632,,,,12.42895368,14.88510324,7.22811298,,,,0.00273354,0.00430205,0.00103416,,,,5.31294378E-01,5.41938601E-01,8.32474528E-01,8.36541441E-01,5.88633362E-01,5.91558563E-01,6.77862067E-01,7.74609347E-01,9.05154029E-01,1.08888906E+00,1.39173135E+00,1.50010046E+00,1.51445530E+00,1.65332263E+00,1.53388481E+00,2.43400831E+00,2.31912947E+00,1.96613756E+00,1.30886426E+00,1.36068607E+00,1.62233569E+00,1.41716254E+00,1.30622538E+00,1.31351454E+00,1.11280793E+00,8.16931959E-01,6.37637183E-01,4.72624568E-01,2.74705880E-01,1.95996272E-01,1.95084314E-01,7.84190601E-02,5.51385531E-02,3.37410016E-02,2.55565877E-02,1.93769494E-02,8.41555086E-01,8.43831925E-01,8.55300912E-01,8.57387241E-01,8.49908407E-01,8.81699469E-01,8.76401035E-01,9.32947407E-01,1.01661398E+00,1.19608840E+00,1.18176996E+00,1.78807138E+00,1.61012487E+00,2.02492479E+00,1.84632460E+00,1.62111427E+00,2.14916926E+00,2.54947684E+00,2.17930554E+00,2.42317598E+00,2.57558935E+00,1.87314211E+00,1.55250767E+00,2.40218160E+00,2.13700067E+00,1.35577820E+00,6.69295168E-01,4.03729694E-01,2.03346551E-01,1.92684829E-01,2.03526812E-01,1.32496438E-01,8.25030991E-02,5.27111304E-02,3.84614603E-02,3.02577876E-02,3.10331138E-01,3.21860209E-01,4.19159432E-01,6.10461165E-01,4.17661374E-01,2.98542508E-01,3.27533937E-01,4.05148785E-01,4.48318771E-01,6.32351472E-01,4.89656173E-01,5.84538084E-01,7.55877612E-01,8.23264254E-01,6.60665559E-01,6.94448764E-01,7.90114124E-01,7.36344565E-01,7.74835375E-01,9.48080102E-01,1.27432561E+00,8.73467787E-01,1.04638134E+00,7.07304392E-01,4.87306742E-01,2.34806575E-01,1.79711649E-01,1.25198291E-01,9.04191294E-02,1.16860747E-01,1.50025626E-01,8.53619671E-02,4.17004128E-02,2.70585254E-02,1.75292692E-02,1.27099914E-02,7.18764890E-01,7.25310653E-01,8.12852148E-01,8.42522373E-01,7.40377524E-01,7.47410760E-01,7.73663510E-01,8.23727740E-01,9.36213730E-01,1.10464264E+00,1.26004575E+00,1.62348085E+00,1.60417947E+00,1.99808447E+00,1.70534948E+00,2.11249187E+00,2.23585069E+00,2.32334170E+00,1.54246273E+00,1.82190226E+00,1.90449593E+00,1.52026023E+00,1.49459331E+00,1.94634651E+00,1.59136663E+00,9.71320516E-01,6.52860097E-01,4.36684228E-01,2.34806585E-01,2.05615280E-01,1.99342089E-01,1.08052234E-01,6.60916373E-02,4.29362247E-02,3.02341595E-02,2.28236399E-02
TR-2019-0001,26/09/2019 10:59:25,,,,,MR,40.882,28.214,7.97,,U,,,5.8,,,,5.8,,,,276,55,145,AFAD,4.711,GW,8.7,7.25,,TR,313,0,,,,,,TR,38.5935,31.0268,1036,B,VS30,Vs30_ref,478.2902222,WA2007,0,TOPO,2.461742691,478.29,350.0880,135.7056,347.9098,347.8137,-345.3263,42.3807,,,,,,,,,,,,,,3.30170000E-01,2.01060000E-01,1.57070000E-01,2.78480911E-01,,,5.04626422E-02,5.74314607E-02,3.53828117E-02,5.26146986E-02,,,2.60543351E-02,2.71587334E-02,2.60454778E-02,2.73562890E-02,,,127.9100,129.4600,151.4400,,,,0.24251938,0.23984096,0.11316371,,,,5.74708074,5.97021250,4.16594430,,,,0.00052389,0.00054554,0.00024553,,,,3.29971800E-01,3.43004826E-01,4.47541609E-01,3.60738304E-01,3.52232140E-01,3.52241963E-01,3.55206149E-01,3.31126429E-01,4.82030267E-01,4.96201463E-01,4.70709626E-01,5.10576661E-01,4.81696578E-01,5.87980243E-01,5.42084527E-01,6.70562486E-01,7.34068885E-01,8.08368278E-01,8.19608736E-01,8.34243889E-01,5.75642369E-01,5.44735861E-01,6.43677048E-01,5.24810994E-01,2.97928807E-01,3.44534222E-01,1.92995911E-01,2.11783821E-01,1.58168160E-01,2.06675872E-01,2.38474691E-01,9.63992132E-02,4.35863172E-02,2.64248303E-02,1.87472688E-02,1.48361651E-02,2.00877839E-01,2.94920918E-01,3.83809150E-01,2.55040404E-01,2.55586931E-01,2.16020479E-01,2.12800500E-01,3.22235915E-01,4.77404835E-01,5.27189613E-01,5.59864809E-01,5.80096376E-01,4.39109460E-01,4.84492553E-01,6.53774275E-01,6.41410105E-01,5.91708006E-01,6.72784227E-01,7.51926630E-01,7.62108366E-01,4.69028063E-01,5.41503490E-01,4.90642367E-01,4.70723482E-01,4.31894942E-01,3.64571160E-01,2.36083723E-01,1.89367016E-01,1.62599947E-01,1.43118061E-01,1.78837410E-01,1.11316444E-01,5.48190648E-02,3.10178729E-02,1.99279187E-02,1.44780562E-02,1.56858554E-01,1.66313873E-01,3.29495613E-01,3.30066313E-01,3.30122248E-01,3.44543515E-01,1.80575462E-01,2.52201175E-01,2.97377965E-01,2.28860102E-01,4.14387029E-01,5.72698215E-01,5.12645162E-01,4.88207796E-01,2.54635752E-01,3.22461293E-01,3.36622298E-01,2.81369744E-01,2.55433263E-01,3.00041005E-01,2.49814756E-01,2.48900907E-01,2.17319271E-01,1.80414914E-01,1.64627788E-01,2.26409382E-01,1.95049612E-01,1.99394161E-01,1.54586659E-01,1.04248395E-01,1.37726203E-01,8.83753266E-02,3.65666429E-02,2.33299167E-02,1.71512873E-02,1.26298173E-02,2.78268528E-01,3.23484030E-01,4.50409090E-01,3.09025629E-01,2.79037079E-01,3.02071910E-01,2.98307410E-01,3.27577600E-01,4.79717550E-01,4.95163370E-01,5.05860840E-01,5.25139260E-01,4.54878030E-01,4.81225630E-01,5.42986230E-01,6.61159280E-01,6.35524640E-01,7.23556010E-01,7.74101410E-01,8.36536770E-01,5.55297607E-01,5.63932106E-01,5.30901817E-01,4.99260955E-01,3.55917907E-01,3.50966351E-01,2.01120740E-01,1.97414323E-01,1.60385236E-01,1.63100859E-01,2.09689807E-01,1.02981370E-01,4.80466380E-02,2.71813222E-02,1.84517945E-02,1.39280701E-02
TR-2019-0001,26/09/2019 10:59:25,,,,,MR,40.882,28.214,7.97,,U,,,5.8,,,,5.8,,,,276,55,145,AFAD,4.711,GW,8.7,7.25,,TR,314,0,,,,,,TR,38.744,30.246,1117,B,VS30,Vs30_ref,330.383728,WA2007,0,TOPO,0.795155002,330.38,294.3095,143.2108,291.6327,291.5643,-282.3897,72.6889,,,,,,,,,,,,,,1.00910000E+00,9.38090000E-01,4.80110000E-01,9.94322645E-01,,,2.23586207E-01,2.09289690E-01,1.19600571E-01,2.32928203E-01,,,1.31392226E-01,1.06144883E-01,4.42623212E-02,1.21629916E-01,,,58.5800,61.9800,76.3700,,,,1.08841432,0.98738658,0.68319309,,,,13.93710335,12.54174045,8.60911087,,,,0.00705338,0.00578447,0.00238533,,,,1.00853923E+00,1.01050339E+00,1.07797449E+00,1.06211198E+00,1.08376177E+00,1.06421540E+00,1.17269567E+00,1.43539177E+00,1.94578805E+00,1.81824302E+00,2.27310928E+00,2.00440999E+00,3.33711481E+00,3.47431988E+00,3.87256136E+00,2.13675087E+00,2.18887837E+00,2.34478943E+00,2.94734315E+00,2.74831483E+00,2.17729360E+00,2.15824968E+00,1.97846072E+00,2.07758770E+00,2.01793232E+00,2.09728001E+00,1.03414791E+00,8.84860687E-01,4.45269980E-01,3.77026912E-01,3.40652286E-01,2.41272995E-01,1.38781188E-01,9.27913126E-02,5.89380438E-02,4.34805863E-02,9.37896404E-01,9.42931563E-01,9.41274638E-01,9.43021301E-01,9.54972454E-01,9.53873998E-01,1.16772510E+00,1.29615561E+00,1.41008375E+00,1.98188327E+00,1.80329882E+00,1.70449856E+00,1.79134428E+00,1.53345555E+00,1.92678326E+00,1.97993335E+00,2.54851499E+00,2.40457407E+00,2.44582758E+00,2.28883470E+00,2.52368323E+00,3.05621960E+00,2.29514637E+00,2.55636027E+00,1.56547842E+00,1.17467687E+00,1.14874911E+00,1.14987271E+00,4.92974798E-01,4.17780052E-01,3.94232872E-01,1.94297658E-01,1.30768976E-01,8.49392468E-02,6.12316077E-02,4.73481767E-02,4.80042532E-01,4.83637939E-01,4.84805513E-01,5.37439231E-01,7.21450043E-01,5.89819506E-01,4.95632109E-01,5.31091778E-01,5.34939983E-01,5.37868011E-01,5.89789390E-01,6.52747185E-01,7.18663754E-01,9.14601189E-01,9.97471317E-01,1.27714229E+00,1.33388095E+00,1.50005358E+00,1.70467171E+00,1.13436125E+00,2.01983108E+00,2.31774314E+00,1.58814459E+00,1.60002839E+00,1.06856613E+00,1.01934494E+00,3.93455557E-01,3.28064974E-01,1.65343255E-01,1.24526531E-01,1.27445817E-01,8.98106683E-02,4.87821170E-02,3.14933974E-02,2.34511583E-02,1.83886843E-02,9.93964708E-01,9.96319861E-01,1.03598629E+00,1.03200621E+00,1.05011880E+00,1.02294494E+00,1.16736794E+00,1.37721766E+00,1.86619831E+00,1.90061502E+00,1.98898513E+00,2.03308437E+00,2.61816007E+00,2.54006941E+00,3.08078357E+00,2.05491115E+00,2.39028053E+00,2.38243294E+00,2.61113911E+00,2.36018013E+00,2.21904304E+00,2.64858354E+00,2.17275448E+00,2.35965637E+00,1.81036553E+00,1.59851663E+00,1.07902686E+00,1.04103088E+00,4.65974131E-01,3.83967794E-01,3.81797858E-01,2.21323166E-01,1.31999880E-01,8.38333461E-02,5.88264870E-02,4.54687582E-02
