event_id,event_time,ISC_ev_id,USGS_ev_id,INGV_ev_id,EMSC_ev_id,ev_nation_code,ev_latitude,ev_longitude,ev_depth_km,ev_hyp_ref,fm_type_code,ML,ML_ref,Mw,Mw_ref,Ms,Ms_ref,EMEC_Mw,EMEC_Mw_type,EMEC_Mw_ref,event_source_id,es_strike,es_dip,es_rake,es_strike_dip_rake_ref,es_z_top,es_z_top_ref,es_length,es_width,es_geometry_ref,network_code,station_code,location_code,instrument_code,sensor_depth_m,proximity_code,housing_code,installation_code,st_nation_code,st_latitude,st_longitude,st_elevation,ec8_code,ec8_code_method,ec8_code_ref,vs30_m_sec,vs_ref,vs30_calc_method,vs30_meas_type,slope_deg,vs30_m_sec_WA,epi_dist,epi_az,JB_dist,rup_dist,Rx_dist,Ry0_dist,instrument_type_code,late_triggered_flag_01,U_channel_code,U_azimuth_deg,V_channel_code,V_azimuth_deg,W_channel_code,U_hp,V_hp,W_hp,U_lp,V_lp,W_lp,U_pga,V_pga,W_pga,rotD50_pga,rotD100_pga,rotD00_pga,U_pgv,V_pgv,W_pgv,rotD50_pgv,rotD100_pgv,rotD00_pgv,U_pgd,V_pgd,w_pgd,rotD50_pgd,rotD100_pgd,rotD00_pgd,U_T90,V_T90,W_T90,rotD50_T90,rotD100_T90,rotD00_T90,U_housner,V_housner,W_housner,rotD50_housner,rotD100_housner,rotD00_housner,U_CAV,V_CAV,W_CAV,rotD50_CAV,rotD100_CAV,rotD00_CAV,U_ia,V_ia,W_ia,rotD50_ia,rotD100_ia,rotD00_ia,U_T0_010,U_T0_025,U_T0_040,U_T0_050,U_T0_070,U_T0_100,U_T0_150,U_T0_200,U_T0_250,U_T0_300,U_T0_350,U_T0_400,U_T0_450,U_T0_500,U_T0_600,U_T0_700,U_T0_750,U_T0_800,U_T0_900,U_T1_000,U_T1_200,U_T1_400,U_T1_600,U_T1_800,U_T2_000,U_T2_500,U_T3_000,U_T3_500,U_T4_000,U_T4_500,U_T5_000,U_T6_000,U_T7_000,U_T8_000,U_T9_000,U_T10_000,V_T0_010,V_T0_025,V_T0_040,V_T0_050,V_T0_070,V_T0_100,V_T0_150,V_T0_200,V_T0_250,V_T0_300,V_T0_350,V_T0_400,V_T0_450,V_T0_500,V_T0_600,V_T0_700,V_T0_750,V_T0_800,V_T0_900,V_T1_000,V_T1_200,V_T1_400,V_T1_600,V_T1_800,V_T2_000,V_T2_500,V_T3_000,V_T3_500,V_T4_000,V_T4_500,V_T5_000,V_T6_000,V_T7_000,V_T8_000,V_T9_000,V_T10_000,W_T0_010,W_T0_025,W_T0_040,W_T0_050,W_T0_070,W_T0_100,W_T0_150,W_T0_200,W_T0_250,W_T0_300,W_T0_350,W_T0_400,W_T0_450,W_T0_500,W_T0_600,W_T0_700,W_T0_750,W_T0_800,W_T0_900,W_T1_000,W_T1_200,W_T1_400,W_T1_600,W_T1_800,W_T2_000,W_T2_500,W_T3_000,W_T3_500,W_T4_000,W_T4_500,W_T5_000,W_T6_000,W_T7_000,W_T8_000,W_T9_000,W_T10_000,rotD50_T0_010,rotD50_T0_025,rotD50_T0_040,rotD50_T0_050,rotD50_T0_070,rotD50_T0_100,rotD50_T0_150,rotD50_T0_200,rotD50_T0_250,rotD50_T0_300,rotD50_T0_350,rotD50_T0_400,rotD50_T0_450,rotD50_T0_500,rotD50_T0_600,rotD50_T0_700,rotD50_T0_750,rotD50_T0_800,rotD50_T0_900,rotD50_T1_000,rotD50_T1_200,rotD50_T1_400,rotD50_T1_600,rotD50_T1_800,rotD50_T2_000,rotD50_T2_500,rotD50_T3_000,rotD50_T3_500,rotD50_T4_000,rotD50_T4_500,rotD50_T5_000,rotD50_T6_000,rotD50_T7_000,rotD50_T8_000,rotD50_T9_000,rotD50_T10_000
TR-2019-0001,26/09/2019 10:59:25,,,,,MR,40.882,28.214,7.97,,U,,,5.8,,,,5.8,,,,276,55,145,AFAD,4.711,GW,8.7,7.25,,TR,1401,0,,,,,,TR,40.745,31.607,746,B,VS30,Vs30_ref,293.575,AFAD,0,MASW,1.520467313,405.33,285.9316,91.9395,282.0751,282.0102,-229.5588,163.8868,,,,,,,,,,,,,,3.95440000E+00,2.91510000E+00,1.29010000E+00,3.05380551E+00,,,9.49315622E-01,3.91442883E-01,1.91819497E-01,6.88857206E-01,,,2.19348817E-01,9.01805524E-02,5.03320614E-02,1.67258155E-01,,,44.3900,54.5300,72.3200,,,,4.58929409,2.28907739,0.98077471,,,,44.39281521,31.97978487,16.44387907,,,,0.06611427,0.02840849,0.00627204,,,,3.95398965E+00,3.97730828E+00,3.95721505E+00,4.04886712E+00,4.09267234E+00,4.03416263E+00,4.25724856E+00,4.45846748E+00,6.78661318E+00,8.34218528E+00,6.73335388E+00,7.52780461E+00,7.91617995E+00,6.65421601E+00,9.84509746E+00,1.01700611E+01,1.01751113E+01,9.09049948E+00,9.01400772E+00,1.17310080E+01,1.10852901E+01,1.39672302E+01,1.40296375E+01,1.19042815E+01,8.54853020E+00,3.02392030E+00,1.58393557E+00,9.29450765E-01,6.74644964E-01,5.08628180E-01,4.20332786E-01,2.78296137E-01,1.99298355E-01,1.42514477E-01,1.09207217E-01,8.72554017E-02,2.91323957E+00,2.95511347E+00,2.99386888E+00,2.99874810E+00,2.96276869E+00,3.15977578E+00,3.66405784E+00,3.63784817E+00,3.60643492E+00,4.64588699E+00,5.96283326E+00,6.09547505E+00,5.35930041E+00,5.14999799E+00,7.17598812E+00,1.05537408E+01,1.10747207E+01,1.11439805E+01,9.15593696E+00,6.29521223E+00,5.05852289E+00,4.29716349E+00,4.38620999E+00,4.82477418E+00,4.35582113E+00,1.93997182E+00,8.98523576E-01,5.12011900E-01,3.46196885E-01,2.64023031E-01,2.09445896E-01,1.23708655E-01,8.26864674E-02,6.41764173E-02,4.95362089E-02,3.86700375E-02,1.28957455E+00,1.28950003E+00,1.31474812E+00,1.37446594E+00,1.43221116E+00,1.35785066E+00,1.31731425E+00,1.73619725E+00,1.68789782E+00,1.79153873E+00,1.91030162E+00,2.20876828E+00,2.25946174E+00,2.23277325E+00,3.04932012E+00,2.98196027E+00,3.77269695E+00,3.53001498E+00,3.30236501E+00,2.78018820E+00,2.93102313E+00,1.92473866E+00,1.85148100E+00,2.44159496E+00,1.69968410E+00,8.97566178E-01,4.49997604E-01,3.17611695E-01,2.35573531E-01,1.93893639E-01,1.33840307E-01,6.47737279E-02,4.33432063E-02,3.12657425E-02,2.45714316E-02,1.98825925E-02,3.05263665E+00,3.08165572E+00,3.08869476E+00,3.12115630E+00,3.39984263E+00,3.43554430E+00,3.60662097E+00,4.07440593E+00,5.17175050E+00,6.68106546E+00,6.17075425E+00,6.73398936E+00,5.66618696E+00,5.78304004E+00,8.15996568E+00,1.03064865E+01,1.06150178E+01,9.93070432E+00,9.30338574E+00,9.17611721E+00,8.31007350E+00,1.00323748E+01,1.01438896E+01,9.20112161E+00,6.76199174E+00,2.54171363E+00,1.28825631E+00,7.52371429E-01,5.32787585E-01,4.12238374E-01,3.17662294E-01,2.10359602E-01,1.51316236E-01,1.14734622E-01,8.88678978E-02,7.06034650E-02
TR-2019-0001,26/09/2019 10:59:25,,,,,MR,40.882,28.214,7.97,,U,,,5.8,,,,5.8,,,,276,55,145,AFAD,4.711,GW,8.7,7.25,,TR,1402,0,,,,,,TR,40.792,32.205,1305,B,VS30,Vs30_ref,444.688,AFAD,0,MASW,2.910796211,513.40,335.8710,90.3976,331.9293,331.8400,-264.4990,200.4895,,,,,,,,,,,,,,6.35000000E-01,8.94970000E-01,2.84240000E-01,6.65456021E-01,,,9.05083947E-02,1.44292496E-01,4.85795827E-02,1.09842022E-01,,,4.68302102E-02,3.05569462E-02,1.68785529E-02,4.37018504E-02,,,77.6500,72.4000,83.2000,,,,0.49984930,0.68052234,0.29422597,,,,8.35984441,9.55274920,4.27525254,,,,0.00192334,0.00279953,0.00050330,,,,6.34642053E-01,6.46364221E-01,6.53150707E-01,6.81909036E-01,8.02475499E-01,6.57239813E-01,6.57552931E-01,7.40898057E-01,9.03320594E-01,8.74084198E-01,9.91284536E-01,1.19007334E+00,1.66680211E+00,1.43083044E+00,1.47609317E+00,2.22212499E+00,2.50492704E+00,2.46681567E+00,2.20377181E+00,1.97818867E+00,1.14062909E+00,1.09182895E+00,8.53680783E-01,8.37800158E-01,6.33717279E-01,6.87778302E-01,3.01176376E-01,3.03988410E-01,1.89468726E-01,1.16498491E-01,7.95374164E-02,5.01169509E-02,3.19901419E-02,2.31220498E-02,1.59042960E-02,1.31144968E-02,8.94587102E-01,9.07673461E-01,9.19792058E-01,9.33884516E-01,9.53206767E-01,8.99128425E-01,8.77406252E-01,9.15196080E-01,1.02756786E+00,1.07379629E+00,1.01839197E+00,1.04964389E+00,1.32374963E+00,1.21242683E+00,2.27191940E+00,1.86027273E+00,1.99553165E+00,2.73170461E+00,2.91735310E+00,2.70878340E+00,2.35257709E+00,1.78645026E+00,1.17226353E+00,1.38027148E+00,8.78920765E-01,6.73866087E-01,4.28747913E-01,2.55715831E-01,1.64209232E-01,1.44686980E-01,1.08006200E-01,6.41520246E-02,5.55299362E-02,2.64213892E-02,1.92006407E-02,1.44549961E-02,2.83970528E-01,2.88841362E-01,3.05468614E-01,3.13009271E-01,3.28945405E-01,3.85747073E-01,3.55605921E-01,3.35770735E-01,3.28035715E-01,5.18355691E-01,4.41704781E-01,6.20175947E-01,5.78783370E-01,4.72540205E-01,5.92139473E-01,6.06295750E-01,7.06824210E-01,7.18003575E-01,6.68314406E-01,6.87283234E-01,1.05864988E+00,9.32328070E-01,6.75516176E-01,5.92046579E-01,4.43924588E-01,3.57715787E-01,2.25786560E-01,2.11031358E-01,1.15216633E-01,1.06430966E-01,5.15033112E-02,5.11902573E-02,2.79336875E-02,1.53716926E-02,1.00926802E-02,7.70231455E-03,6.65214057E-01,7.52763167E-01,6.84921698E-01,7.16311703E-01,8.65334918E-01,8.31434690E-01,6.92080900E-01,7.38452670E-01,9.02420810E-01,9.24309130E-01,9.95582880E-01,1.04315960E+00,1.37918030E+00,1.42034292E+00,1.78219606E+00,1.99127647E+00,2.28303400E+00,2.73167180E+00,2.53293336E+00,2.15716405E+00,1.73809264E+00,1.40961980E+00,1.18255194E+00,1.19325066E+00,7.91933078E-01,6.82393739E-01,3.86865857E-01,2.72519447E-01,1.70341633E-01,1.28730509E-01,9.10762840E-02,5.73382626E-02,4.49669414E-02,2.54373956E-02,1.90442460E-02,1.46966094E-02
TR-2019-0001,26/09/2019 10:59:25,,,,,MR,40.882,28.214,7.97,,U,,,5.8,,,,5.8,,,,276,55,145,AFAD,4.711,GW,8.7,7.25,,TR,1405,0,,,,,,TR,40.938,32.076,623,B,VS30,Vs30_ref,364.707,AFAD,0,MASW,5.435687011,557.86,324.5750,87.6325,320.5210,320.4371,-245.6978,205.7813,,,,,,,,,,,,,,8.35510000E-01,9.09820000E-01,7.53140000E-01,8.59781280E-01,,,1.47092201E-01,1.60089494E-01,1.34732407E-01,1.58787865E-01,,,5.82775648E-02,4.69761845E-02,4.23149916E-02,4.85515547E-02,,,68.3900,70.4000,69.5400,,,,0.76796821,0.80783075,0.72486085,,,,11.90080796,13.18277421,10.22477480,,,,0.00404490,0.00500959,0.00310581,,,,8.34823175E-01,8.48504073E-01,8.36254624E-01,9.29423001E-01,1.47453430E+00,8.63543972E-01,8.81039880E-01,9.20786721E-01,1.13308153E+00,1.41603271E+00,1.44585526E+00,1.39762900E+00,1.35080371E+00,1.82092992E+00,1.78982618E+00,2.37478912E+00,2.32241753E+00,2.35193005E+00,2.10151244E+00,2.33359892E+00,2.42513242E+00,2.62530252E+00,1.60020312E+00,1.54465247E+00,1.11013475E+00,7.33081454E-01,6.18432221E-01,3.71643219E-01,2.24196387E-01,2.23710948E-01,2.16083269E-01,1.28931475E-01,6.12813437E-02,4.63906798E-02,3.62071549E-02,2.56030766E-02,9.09216010E-01,9.13867846E-01,1.14926621E+00,9.66243547E-01,1.24031942E+00,9.42915427E-01,9.65489693E-01,1.02608873E+00,1.14502272E+00,1.46991407E+00,1.36119996E+00,1.61513902E+00,1.77012251E+00,1.91850844E+00,2.54126363E+00,2.32177716E+00,2.29942587E+00,2.77332483E+00,2.98707786E+00,2.80840631E+00,3.30993434E+00,2.86048119E+00,1.46936705E+00,1.16295126E+00,1.04690610E+00,6.68041066E-01,8.19594511E-01,4.14758484E-01,2.48934526E-01,1.45696815E-01,1.31349568E-01,9.26303952E-02,6.22466956E-02,3.77223971E-02,2.81240608E-02,2.09970798E-02,7.52694808E-01,7.56521485E-01,7.89489051E-01,7.93481370E-01,7.95611448E-01,7.39938417E-01,7.74900995E-01,8.53927140E-01,9.17125763E-01,1.15481724E+00,1.27265052E+00,1.28580582E+00,1.80162563E+00,2.14593897E+00,1.93351073E+00,1.72797368E+00,2.05568682E+00,1.71570718E+00,2.87025848E+00,2.75731660E+00,2.39245798E+00,1.93553742E+00,1.29263369E+00,1.47267781E+00,1.32068779E+00,4.75746716E-01,4.02490207E-01,2.13983324E-01,1.45765778E-01,1.26236513E-01,1.19506501E-01,8.46418788E-02,3.66832010E-02,2.67293545E-02,1.79938062E-02,1.45454630E-02,8.59256188E-01,8.74602066E-01,9.46421198E-01,9.40039890E-01,1.34395941E+00,8.77432900E-01,9.09121090E-01,9.64321180E-01,1.11866268E+00,1.44476407E+00,1.47937439E+00,1.39506769E+00,1.61614685E+00,1.78950446E+00,1.97018900E+00,2.34176169E+00,2.30631693E+00,2.67040528E+00,2.52870455E+00,2.66714683E+00,2.90634133E+00,2.78969361E+00,1.54480742E+00,1.41322991E+00,1.30646577E+00,7.09483729E-01,7.17192243E-01,3.98803263E-01,2.36736699E-01,1.77694496E-01,1.59855943E-01,1.05833898E-01,6.19035590E-02,4.03980063E-02,2.99216256E-02,2.21064280E-02
TR-2019-0001,26/09/2019 10:59:25,,,,,MR,40.882,28.214,7.97,,U,,,5.8,,,,5.8,,,,276,55,145,AFAD,4.711,GW,8.7,7.25,,TR,1409,0,,,,,,TR,40.717,32.063,1169,C,VS30,Vs30_ref,362,AFAD,0,MASW,0.092749012,219.87,324.4802,91.9782,320.6133,320.5293,-260.8421,186.3789,,,,,,,,,,,,,,7.79560000E-01,9.03450000E-01,6.21660000E-01,9.25135281E-01,,,1.62240945E-01,1.87749668E-01,1.44757439E-01,1.85959353E-01,,,2.36680073E-01,6.57608307E-02,1.93380182E-01,1.74135430E-01,,,66.1200,53.0100,70.3700,,,,0.95838076,1.19732310,0.73256561,,,,12.69842805,15.15849258,9.28399670,,,,0.00504831,0.00802309,0.00263878,,,,7.79334684E-01,7.83648960E-01,8.61715946E-01,8.04797118E-01,7.79295013E-01,8.01614432E-01,8.30745199E-01,8.46712053E-01,9.17267235E-01,1.40282089E+00,1.20507822E+00,1.51340984E+00,1.73625598E+00,1.60646379E+00,2.22823936E+00,2.83797732E+00,3.14354499E+00,3.09804240E+00,2.81795982E+00,2.05762585E+00,2.18793450E+00,2.11329437E+00,1.92604483E+00,2.27053144E+00,1.79219542E+00,1.38880912E+00,7.21187334E-01,3.72789456E-01,2.75768297E-01,2.00230015E-01,1.30131028E-01,9.13273448E-02,5.00524588E-02,3.63082825E-02,3.03185138E-02,2.32089036E-02,9.03260196E-01,9.05183033E-01,9.15679978E-01,1.03480001E+00,9.90872871E-01,9.30068873E-01,9.68024827E-01,1.02639995E+00,1.22550035E+00,1.74937637E+00,1.86468780E+00,2.59102467E+00,2.11628919E+00,1.97084408E+00,2.63329648E+00,4.65375902E+00,3.56970392E+00,3.58500321E+00,3.08081322E+00,2.56171575E+00,3.48137892E+00,2.33682294E+00,2.63656169E+00,2.33585117E+00,2.45180613E+00,1.52334695E+00,9.92648673E-01,5.58663319E-01,3.62942904E-01,2.76502125E-01,1.63334219E-01,9.59104567E-02,7.30983564E-02,5.50451725E-02,4.23568704E-02,3.33855373E-02,6.21412268E-01,6.23800246E-01,9.09758835E-01,1.51430673E+00,6.40356011E-01,6.35949258E-01,6.34049868E-01,6.82335322E-01,6.81441289E-01,8.99126285E-01,1.06057742E+00,1.07755039E+00,1.08290508E+00,1.28353836E+00,1.29639858E+00,2.06653704E+00,1.73124010E+00,1.52971637E+00,1.35990734E+00,1.62518106E+00,1.74111939E+00,2.06137288E+00,1.65682745E+00,2.29754032E+00,1.42273828E+00,6.36229133E-01,4.75735849E-01,2.56421463E-01,1.71639307E-01,1.19027846E-01,1.01172900E-01,6.77354909E-02,4.50399467E-02,2.85726238E-02,2.15257162E-02,1.70121201E-02,9.24865559E-01,9.33239685E-01,9.58707242E-01,9.82805047E-01,9.65928159E-01,9.52299930E-01,9.84914390E-01,9.99703240E-01,1.06607231E+00,1.66207827E+00,1.64100434E+00,2.10962542E+00,1.81318756E+00,1.90169331E+00,2.42667450E+00,3.60719249E+00,3.17341938E+00,3.29005201E+00,2.85032800E+00,2.56223984E+00,2.82807348E+00,2.23813853E+00,2.03208017E+00,2.39947350E+00,2.14536690E+00,1.45073082E+00,9.19785059E-01,4.49671396E-01,3.39706196E-01,2.61457362E-01,1.74766519E-01,9.78085125E-02,6.88042681E-02,4.21493538E-02,3.35913176E-02,2.57457070E-02
TR-2019-0001,26/09/2019 10:59:25,,,,,MR,40.882,28.214,7.97,,U,,,5.8,,,,5.8,,,,276,55,145,AFAD,4.711,GW,8.7,7.25,,TR,1411,0,,,,,,TR,40.684,31.617,720,B,VS30,Vs30_ref,229,AFAD,0,MASW,3.569642123,534.85,287.3425,93.2768,283.5477,283.4820,-234.5836,159.2488,,,,,,,,,,,,,,1.17980000E+00,1.06440000E+00,4.31920000E-01,1.06825760E+00,,,1.78021818E-01,1.73138723E-01,9.29488176E-02,1.71157799E-01,,,4.36406157E-02,6.56314779E-02,5.30754791E-02,5.73219577E-02,,,57.9500,54.9000,72.5300,,,,0.71122331,0.72607356,0.45747424,,,,11.79138436,11.37756679,7.08899268,,,,0.00514658,0.00472865,0.00147321,,,,1.17940578E+00,1.18956801E+00,1.23978296E+00,1.21032334E+00,1.18243087E+00,1.23060739E+00,1.21329735E+00,1.58013695E+00,2.09460577E+00,2.68164209E+00,2.23929828E+00,3.02715411E+00,3.31147512E+00,3.59695326E+00,3.17192527E+00,2.94400710E+00,2.97692126E+00,2.94944269E+00,2.78110235E+00,2.90834811E+00,1.77770054E+00,1.55920434E+00,1.06080670E+00,8.93550818E-01,9.43030049E-01,8.97163303E-01,6.19568328E-01,3.64459385E-01,3.02625481E-01,1.58645509E-01,1.37256410E-01,9.28171867E-02,4.27731001E-02,3.38167282E-02,2.26876756E-02,1.79384804E-02,1.06290227E+00,1.10758247E+00,1.05136606E+00,1.08265460E+00,1.05664431E+00,1.11085355E+00,1.43575787E+00,1.51382229E+00,2.83701923E+00,2.43382960E+00,3.14277923E+00,2.79113245E+00,2.64928681E+00,2.59939465E+00,3.47512842E+00,3.03819361E+00,3.20056734E+00,1.92765833E+00,1.60103274E+00,1.94266576E+00,1.44681114E+00,1.50343003E+00,1.59865337E+00,1.31503263E+00,1.18911688E+00,9.09998839E-01,5.37150273E-01,4.28397503E-01,2.80399157E-01,1.53293119E-01,1.34672023E-01,7.55436493E-02,4.30404792E-02,3.04292726E-02,2.76788800E-02,1.89238099E-02,4.31821235E-01,4.41195033E-01,4.71982562E-01,6.53628483E-01,9.53648667E-01,4.63345042E-01,4.85165059E-01,6.47159511E-01,9.69140316E-01,1.14689239E+00,1.03033982E+00,1.16128714E+00,1.13203661E+00,1.08142413E+00,9.39027133E-01,1.07780494E+00,9.59418651E-01,8.84566718E-01,9.84232334E-01,1.05123337E+00,9.83468332E-01,7.89794487E-01,1.13173939E+00,1.01529166E+00,8.16532149E-01,8.34999488E-01,3.63936139E-01,2.67092538E-01,1.79419309E-01,1.34211304E-01,1.00286103E-01,8.17633362E-02,3.77002994E-02,2.52170716E-02,1.91802460E-02,1.50819754E-02,1.06704910E+00,1.11136530E+00,1.07820661E+00,1.08421737E+00,1.07681861E+00,1.10142248E+00,1.24490796E+00,1.50103395E+00,2.36993651E+00,2.59478916E+00,2.50343813E+00,2.91722763E+00,3.00863427E+00,2.86872304E+00,3.33819883E+00,2.81497059E+00,2.98560271E+00,2.74327951E+00,2.17274747E+00,2.30380242E+00,1.60384901E+00,1.62526460E+00,1.25977217E+00,1.06785674E+00,1.06432065E+00,8.94052003E-01,6.67396350E-01,3.79795499E-01,2.79837192E-01,1.53331250E-01,1.34073599E-01,8.35021256E-02,4.66678262E-02,3.12924128E-02,2.53362346E-02,1.84022671E-02
TR-2019-0001,26/09/2019 10:59:25,,,,,MR,40.882,28.214,7.97,,U,,,5.8,,,,5.8,,,,276,55,145,AFAD,4.711,GW,8.7,7.25,,TR,1412,0,,,,,,TR,40.456,31.209,893,B,VS30,Vs30_ref,428.072876,WA2007,0,TOPO,0.713743033,428.07,256.9836,99.6379,253.5208,253.4708,-224.5538,117.6664,,,,,,,,,,,,,,6.89030000E-01,7.36670000E-01,7.78860000E-01,7.22037457E-01,,,1.27998230E-01,1.57056854E-01,2.13765041E-01,1.42176373E-01,,,4.72890617E-02,4.89577703E-02,5.65387258E-02,4.74271977E-02,,,55.4600,45.0000,44.0300,,,,0.74693961,0.75705664,0.91454191,,,,9.12588295,8.39836762,8.28019292,,,,0.00253781,0.00247686,0.00261839,,,,6.88834593E-01,7.14824142E-01,6.91962221E-01,6.86151320E-01,6.82282486E-01,7.19631801E-01,8.56383850E-01,8.01981371E-01,9.88771753E-01,1.15891532E+00,1.03730575E+00,1.54383695E+00,1.22538684E+00,1.13541178E+00,1.20844003E+00,1.46506840E+00,1.60982649E+00,1.86222165E+00,1.89747745E+00,1.85637493E+00,2.26818352E+00,2.88799314E+00,1.92390778E+00,1.54854879E+00,1.09682330E+00,7.41337764E-01,4.02074459E-01,2.39104537E-01,1.72700465E-01,2.38913290E-01,2.29301594E-01,1.39028106E-01,7.55678869E-02,4.10764078E-02,2.28797549E-02,1.69387902E-02,7.36406650E-01,7.71537630E-01,7.77321678E-01,7.57130103E-01,7.55471567E-01,7.98401398E-01,8.44392740E-01,8.61143361E-01,1.03488685E+00,1.15565863E+00,1.30188728E+00,1.56452708E+00,1.58490418E+00,1.61430385E+00,1.60398055E+00,1.74464415E+00,1.86977243E+00,1.99915640E+00,1.97235380E+00,2.05198949E+00,1.93438976E+00,1.94364375E+00,2.36537256E+00,1.99552646E+00,1.26968858E+00,5.17555508E-01,3.87614851E-01,3.60800732E-01,1.95463234E-01,2.34977806E-01,1.97008539E-01,1.43923605E-01,8.04023416E-02,3.95213463E-02,2.45864863E-02,1.94088931E-02,7.78818965E-01,7.86343220E-01,8.01422972E-01,7.91478145E-01,7.84545600E-01,7.94493211E-01,8.26326196E-01,8.96989320E-01,9.39153383E-01,9.38002590E-01,1.02469454E+00,1.15924668E+00,1.17124595E+00,1.35165040E+00,1.39325192E+00,2.26963890E+00,2.16731757E+00,1.62080581E+00,1.79817725E+00,2.17074626E+00,2.75782250E+00,3.23615483E+00,2.61382350E+00,1.84537413E+00,1.60258190E+00,8.41325093E-01,4.47889297E-01,3.15705628E-01,1.95696292E-01,2.03335278E-01,2.21329569E-01,1.83430008E-01,7.01925360E-02,4.22144634E-02,2.97613244E-02,2.19764692E-02,7.21568066E-01,7.50363842E-01,7.51585206E-01,7.35718382E-01,7.30169388E-01,7.69694580E-01,8.50549020E-01,8.23423860E-01,1.01099831E+00,1.16484874E+00,1.23836424E+00,1.44451131E+00,1.41604255E+00,1.37891131E+00,1.41562469E+00,1.58859517E+00,1.64623620E+00,1.98344662E+00,1.94992995E+00,1.95527408E+00,2.15460626E+00,2.48784368E+00,2.17070889E+00,1.67543667E+00,1.14192591E+00,6.70656873E-01,3.71670164E-01,2.60631815E-01,1.83497484E-01,2.28671260E-01,2.10930854E-01,1.41350758E-01,7.25600393E-02,3.99431663E-02,2.53876557E-02,1.84278958E-02
