event_id,event_time,ISC_ev_id,USGS_ev_id,INGV_ev_id,EMSC_ev_id,ev_nation_code,ev_latitude,ev_longitude,ev_depth_km,ev_hyp_ref,fm_type_code,ML,ML_ref,Mw,Mw_ref,Ms,Ms_ref,EMEC_Mw,EMEC_Mw_type,EMEC_Mw_ref,event_source_id,es_strike,es_dip,es_rake,es_strike_dip_rake_ref,es_z_top,es_z_top_ref,es_length,es_width,es_geometry_ref,network_code,station_code,location_code,instrument_code,sensor_depth_m,proximity_code,housing_code,installation_code,st_nation_code,st_latitude,st_longitude,st_elevation,ec8_code,ec8_code_method,ec8_code_ref,vs30_m_sec,vs_ref,vs30_calc_method,vs30_meas_type,slope_deg,vs30_m_sec_WA,epi_dist,epi_az,JB_dist,rup_dist,Rx_dist,Ry0_dist,instrument_type_code,late_triggered_flag_01,U_channel_code,U_azimuth_deg,V_channel_code,V_azimuth_deg,W_channel_code,U_hp,V_hp,W_hp,U_lp,V_lp,W_lp,U_pga,V_pga,W_pga,rotD50_pga,rotD100_pga,rotD00_pga,U_pgv,V_pgv,W_pgv,rotD50_pgv,rotD100_pgv,rotD00_pgv,U_pgd,V_pgd,w_pgd,rotD50_pgd,rotD100_pgd,rotD00_pgd,U_T90,V_T90,W_T90,rotD50_T90,rotD100_T90,rotD00_T90,U_housner,V_housner,W_housner,rotD50_housner,rotD100_housner,rotD00_housner,U_CAV,V_CAV,W_CAV,rotD50_CAV,rotD100_CAV,rotD00_CAV,U_ia,V_ia,W_ia,rotD50_ia,rotD100_ia,rotD00_ia,U_T0_010,U_T0_025,U_T0_040,U_T0_050,U_T0_070,U_T0_100,U_T0_150,U_T0_200,U_T0_250,U_T0_300,U_T0_350,U_T0_400,U_T0_450,U_T0_500,U_T0_600,U_T0_700,U_T0_750,U_T0_800,U_T0_900,U_T1_000,U_T1_200,U_T1_400,U_T1_600,U_T1_800,U_T2_000,U_T2_500,U_T3_000,U_T3_500,U_T4_000,U_T4_500,U_T5_000,U_T6_000,U_T7_000,U_T8_000,U_T9_000,U_T10_000,V_T0_010,V_T0_025,V_T0_040,V_T0_050,V_T0_070,V_T0_100,V_T0_150,V_T0_200,V_T0_250,V_T0_300,V_T0_350,V_T0_400,V_T0_450,V_T0_500,V_T0_600,V_T0_700,V_T0_750,V_T0_800,V_T0_900,V_T1_000,V_T1_200,V_T1_400,V_T1_600,V_T1_800,V_T2_000,V_T2_500,V_T3_000,V_T3_500,V_T4_000,V_T4_500,V_T5_000,V_T6_000,V_T7_000,V_T8_000,V_T9_000,V_T10_000,W_T0_010,W_T0_025,W_T0_040,W_T0_050,W_T0_070,W_T0_100,W_T0_150,W_T0_200,W_T0_250,W_T0_300,W_T0_350,W_T0_400,W_T0_450,W_T0_500,W_T0_600,W_T0_700,W_T0_750,W_T0_800,W_T0_900,W_T1_000,W_T1_200,W_T1_400,W_T1_600,W_T1_800,W_T2_000,W_T2_500,W_T3_000,W_T3_500,W_T4_000,W_T4_500,W_T5_000,W_T6_000,W_T7_000,W_T8_000,W_T9_000,W_T10_000,rotD50_T0_010,rotD50_T0_025,rotD50_T0_040,rotD50_T0_050,rotD50_T0_070,rotD50_T0_100,rotD50_T0_150,rotD50_T0_200,rotD50_T0_250,rotD50_T0_300,rotD50_T0_350,rotD50_T0_400,rotD50_T0_450,rotD50_T0_500,rotD50_T0_600,rotD50_T0_700,rotD50_T0_750,rotD50_T0_800,rotD50_T0_900,rotD50_T1_000,rotD50_T1_200,rotD50_T1_400,rotD50_T1_600,rotD50_T1_800,rotD50_T2_000,rotD50_T2_500,rotD50_T3_000,rotD50_T3_500,rotD50_T4_000,rotD50_T4_500,rotD50_T5_000,rotD50_T6_000,rotD50_T7_000,rotD50_T8_000,rotD50_T9_000,rotD50_T10_000
TR-2019-0001,26/09/2019 10:59:25,,,,,MR,40.882,28.214,7.97,,U,,,5.8,,,,5.8,,,,276,55,145,AFAD,4.711,GW,8.7,7.25,,TR,1021,0,,,,,,TR,39.747,27.576,248,B,VS30,Vs30_ref,621.8896484,WA2007,0,TOPO,5.064576186,621.89,137.2889,203.4113,132.6763,132.7163,-32.9659,128.4929,,,,,,,,,,,,,,1.17450000E+00,1.08030000E+00,7.62820000E-01,1.19698623E+00,,,1.36346021E-01,1.02786478E-01,7.22856408E-02,1.11741161E-01,,,4.66609878E-02,3.52590763E-02,3.46818573E-02,4.01072992E-02,,,28.9800,41.9100,50.9700,,,,0.50355945,0.37110859,0.26270877,,,,8.57429166,8.75445590,6.52663595,,,,0.00362041,0.00310035,0.00160038,,,,1.17152862E+00,1.18546492E+00,1.30519720E+00,1.60242127E+00,2.02105083E+00,2.43517685E+00,3.24914302E+00,4.18896525E+00,3.54210454E+00,2.70700534E+00,2.33931706E+00,3.40987718E+00,2.68676085E+00,2.67514577E+00,2.10154784E+00,1.93640147E+00,1.52472100E+00,1.57110697E+00,1.40926252E+00,9.44939573E-01,9.90813470E-01,9.13586246E-01,7.76958196E-01,8.15132709E-01,9.08367531E-01,6.68033751E-01,4.05419918E-01,2.97103157E-01,2.12063868E-01,2.25241329E-01,2.05925560E-01,1.82177984E-01,1.03521490E-01,5.17503394E-02,3.28773095E-02,2.44138957E-02,1.07867338E+00,1.09855037E+00,1.21105929E+00,1.29709020E+00,1.86855706E+00,1.96813616E+00,2.89100144E+00,3.27911700E+00,3.45259251E+00,3.65335726E+00,2.34032396E+00,2.91136429E+00,2.00638765E+00,1.91255699E+00,1.68526479E+00,1.47852891E+00,1.03575470E+00,9.51277427E-01,1.00516617E+00,5.95228921E-01,7.37487876E-01,6.44013226E-01,6.98468508E-01,4.94441880E-01,6.03874127E-01,5.15836141E-01,3.24142232E-01,2.62635615E-01,1.96501276E-01,1.72411250E-01,1.41762902E-01,1.63648069E-01,6.52694102E-02,4.45030840E-02,2.97430370E-02,1.81469759E-02,7.61143856E-01,7.75083565E-01,8.57964699E-01,9.74237735E-01,1.16422463E+00,1.43493299E+00,1.95538781E+00,2.04828185E+00,2.42742843E+00,1.77136221E+00,1.34423136E+00,1.19697195E+00,1.09642662E+00,8.53585537E-01,7.06225439E-01,8.14861519E-01,9.28247142E-01,7.36363964E-01,6.86571263E-01,5.44624660E-01,3.80533153E-01,3.90168866E-01,4.85886462E-01,5.22820349E-01,5.63390668E-01,3.27326128E-01,2.07056236E-01,2.82571717E-01,2.64844786E-01,1.89114597E-01,2.44316599E-01,1.53195606E-01,8.69490872E-02,4.01311596E-02,2.48728632E-02,1.71096008E-02,1.19375562E+00,1.20957791E+00,1.30489683E+00,1.53009418E+00,1.96768725E+00,2.38308014E+00,2.86482893E+00,3.58982787E+00,3.36782281E+00,3.31941880E+00,2.48371317E+00,3.32688114E+00,2.48604892E+00,2.23346746E+00,1.91484757E+00,1.76706223E+00,1.29888642E+00,1.18821332E+00,1.17686727E+00,7.95247790E-01,9.34919825E-01,7.71226842E-01,8.01926272E-01,6.67130982E-01,7.98034372E-01,5.88186095E-01,3.70785325E-01,2.65164151E-01,2.27973994E-01,2.09062441E-01,1.90240173E-01,1.71567955E-01,9.43630182E-02,4.96336472E-02,3.20174564E-02,2.17355238E-02
TR-2019-0001,26/09/2019 10:59:25,,,,,MR,40.882,28.214,7.97,,U,,,5.8,,,,5.8,,,,276,55,145,AFAD,4.711,GW,8.7,7.25,,TR,1022,0,,,,,,TR,39.581,27.493,262,B,VS30,Vs30_ref,426.2816467,WA2007,0,TOPO,1.878375197,426.28,157.0576,203.1695,152.4418,152.4637,-38.5819,147.4524,,,,,,,,,,,,,,2.09970000E+00,2.93170000E+00,1.49130000E+00,2.68024305E+00,,,3.00137985E-01,3.31492502E-01,1.71527791E-01,3.02661039E-01,,,1.23861659E-01,1.01426980E-01,4.90019762E-01,1.16137925E-01,,,47.4700,46.7300,45.9300,,,,1.37436892,1.95227542,1.02545976,,,,19.95396423,21.33642519,13.28180282,,,,0.01661781,0.01995470,0.00811996,,,,2.09634701E+00,2.11186671E+00,2.13277758E+00,2.40945469E+00,3.35427910E+00,4.44053883E+00,3.50458256E+00,4.82818568E+00,5.80780213E+00,7.61862362E+00,5.45311592E+00,6.45969069E+00,5.84834367E+00,4.19104245E+00,7.65274799E+00,3.92538893E+00,4.33645818E+00,4.71042491E+00,5.55429941E+00,3.26371333E+00,4.15788411E+00,2.49002196E+00,2.99647661E+00,2.09408614E+00,1.94220351E+00,1.57148199E+00,9.15055469E-01,5.71282965E-01,5.07393378E-01,4.32006879E-01,3.30482563E-01,2.52742748E-01,1.52597897E-01,7.62024014E-02,4.83572115E-02,3.61833659E-02,2.92767072E+00,2.94719331E+00,3.95656544E+00,3.00567788E+00,3.90563352E+00,3.72791804E+00,4.32981833E+00,5.35769772E+00,5.29819039E+00,7.74691555E+00,6.85365066E+00,7.80728011E+00,6.43051791E+00,5.76296477E+00,9.22435865E+00,6.65962333E+00,5.57110931E+00,3.58696671E+00,3.66201648E+00,3.79026025E+00,3.50625809E+00,3.78036155E+00,3.26036953E+00,4.86025403E+00,3.85472638E+00,2.77624986E+00,1.04004367E+00,7.27793080E-01,3.96088129E-01,3.88828368E-01,2.55121611E-01,1.77778519E-01,1.21051091E-01,7.15117158E-02,5.73872930E-02,4.56110122E-02,1.49017002E+00,1.50542602E+00,3.50137038E+00,3.15770667E+00,1.97345110E+00,2.13925882E+00,2.16671777E+00,3.08117473E+00,2.43218136E+00,2.66574387E+00,3.06375810E+00,4.73274712E+00,3.24979232E+00,3.00542735E+00,4.43672468E+00,3.00925464E+00,3.80160547E+00,4.15309886E+00,4.93813184E+00,3.92182591E+00,2.19457022E+00,1.97499301E+00,1.72299720E+00,2.39270492E+00,1.56218050E+00,8.82664076E-01,5.12039789E-01,4.41601154E-01,2.52999381E-01,2.30749096E-01,2.01658854E-01,1.68600617E-01,1.01701157E-01,5.93915595E-02,4.05109819E-02,3.03723826E-02,2.67793962E+00,2.69473011E+00,2.83908012E+00,2.89041100E+00,3.95493781E+00,4.50301651E+00,3.68945065E+00,5.00819623E+00,5.34184716E+00,7.58459335E+00,6.08638003E+00,6.75863551E+00,5.80062625E+00,5.31307207E+00,8.48671584E+00,5.46625210E+00,4.98132145E+00,4.09766371E+00,4.85910567E+00,3.49139523E+00,3.56568651E+00,3.25968727E+00,3.00901378E+00,3.76250672E+00,3.22766346E+00,2.24188747E+00,9.77549170E-01,6.52212511E-01,4.73588099E-01,3.87037733E-01,3.17848770E-01,2.15429072E-01,1.34955315E-01,7.15778371E-02,4.97396690E-02,3.81428946E-02
TR-2019-0001,26/09/2019 10:59:25,,,,,MR,40.882,28.214,7.97,,U,,,5.8,,,,5.8,,,,276,55,145,AFAD,4.711,GW,8.7,7.25,,TR,1023,0,,,,,,TR,39.682,28.166,117,B,VS30,Vs30_ref,317.0524292,WA2007,0,TOPO,0.590525889,317.05,133.4738,181.7637,129.0289,129.0717,-77.2874,103.2618,,,,,,,,,,,,,,3.47330000E+00,3.67680000E+00,2.06240000E+00,3.72457458E+00,,,2.97057362E-01,3.28814557E-01,2.31456539E-01,2.98096101E-01,,,9.43214161E-02,6.79894206E-02,6.72195934E-02,9.04736807E-02,,,34.2900,35.2300,38.6600,,,,1.53569698,1.22976668,1.12249884,,,,25.24697727,25.30791466,15.26195379,,,,0.02856469,0.02916840,0.01036958,,,,3.46888540E+00,3.49972127E+00,3.63430871E+00,3.79550972E+00,4.76925236E+00,6.62611398E+00,6.30977725E+00,8.32194055E+00,8.65360201E+00,7.72089245E+00,9.62173535E+00,7.50603974E+00,9.80721342E+00,8.31109105E+00,5.98611269E+00,4.43100406E+00,3.85297914E+00,4.16384736E+00,3.97040441E+00,3.68257732E+00,4.39301506E+00,4.60334498E+00,2.63655785E+00,3.22943697E+00,1.67251858E+00,1.61759011E+00,1.00406800E+00,7.30572252E-01,7.14515009E-01,5.28894458E-01,4.00936097E-01,2.69124779E-01,1.27937386E-01,8.01690577E-02,5.81802570E-02,4.37296056E-02,3.67053912E+00,3.70203476E+00,3.84860887E+00,4.28285992E+00,5.51025937E+00,6.84035972E+00,6.57847217E+00,1.27917079E+01,1.11452285E+01,9.69689599E+00,7.12942487E+00,8.47180787E+00,8.33099454E+00,1.21968506E+01,7.85851437E+00,5.43690728E+00,5.58725427E+00,5.97169610E+00,4.47125604E+00,3.51912316E+00,3.34623328E+00,2.10458925E+00,2.39100789E+00,2.00626635E+00,1.09199056E+00,6.55183472E-01,5.65385880E-01,3.19027353E-01,2.82519435E-01,2.61363645E-01,3.81443812E-01,2.30937688E-01,1.32129941E-01,6.99593521E-02,4.41246351E-02,2.96286782E-02,2.05800481E+00,2.07555224E+00,2.22048823E+00,2.35591234E+00,2.83591693E+00,3.70630717E+00,3.09578372E+00,3.53567202E+00,4.69030290E+00,5.42999369E+00,5.73806279E+00,3.85491180E+00,4.20942293E+00,5.29818212E+00,4.01366701E+00,3.78680482E+00,2.90257829E+00,1.96742771E+00,1.59332767E+00,1.49162189E+00,2.43550986E+00,2.80364148E+00,3.06975486E+00,2.60772684E+00,1.93604750E+00,1.11119946E+00,6.06154367E-01,5.74912916E-01,2.74817861E-01,2.23378972E-01,2.20204950E-01,1.43998187E-01,8.52186533E-02,5.59042563E-02,4.06966266E-02,3.11123719E-02,3.72005355E+00,3.75416320E+00,3.85452720E+00,4.04218725E+00,5.13309724E+00,6.76227857E+00,6.68507530E+00,1.19232900E+01,1.03791272E+01,8.69170346E+00,8.31104611E+00,7.47431182E+00,9.63143935E+00,9.87408712E+00,7.07220631E+00,5.06891301E+00,4.30513791E+00,4.76996959E+00,4.22474960E+00,3.51806274E+00,3.75659164E+00,3.44649402E+00,2.39977868E+00,2.36914325E+00,1.53838129E+00,1.20176260E+00,7.98761258E-01,5.82517656E-01,5.42957260E-01,4.44556938E-01,3.92491811E-01,2.57081483E-01,1.30051365E-01,8.28134561E-02,5.89861976E-02,4.42420633E-02
TR-2019-0001,26/09/2019 10:59:25,,,,,MR,40.882,28.214,7.97,,U,,,5.8,,,,5.8,,,,276,55,145,AFAD,4.711,GW,8.7,7.25,,TR,1024,0,,,,,,TR,40.046,27.974,25,B,VS30,Vs30_ref,288.5822754,WA2007,0,TOPO,0.679896129,288.58,95.1286,192.4017,90.5182,90.6124,-39.4962,81.4180,,,,,,,,,,,,,,1.55200000E+01,1.25190000E+01,6.20290000E+00,1.44062276E+01,,,8.10448967E-01,7.08446072E-01,2.24618488E-01,7.43098894E-01,,,1.34120685E-01,8.51640070E-02,5.52134344E-02,1.12441554E-01,,,17.7000,28.0500,99.9200,,,,2.63627729,1.75845175,0.62398193,,,,54.08994401,52.31357441,71.18207426,,,,0.21922545,0.15210251,0.10531404,,,,1.55005753E+01,1.56411506E+01,1.73097583E+01,1.68888845E+01,2.14716003E+01,2.87765817E+01,3.23607226E+01,3.35259221E+01,6.54765934E+01,3.58688214E+01,3.07956118E+01,3.32311300E+01,2.09953021E+01,1.84429832E+01,2.75796957E+01,2.06128408E+01,1.51429720E+01,1.00213191E+01,8.61796608E+00,6.41905157E+00,4.74734110E+00,3.34825279E+00,2.41283217E+00,2.52104519E+00,2.48204668E+00,1.68273898E+00,9.66184945E-01,6.31161056E-01,4.68956937E-01,4.12476463E-01,3.63541225E-01,2.67963133E-01,1.29066697E-01,9.87898758E-02,7.62424153E-02,6.00722346E-02,1.24979584E+01,1.26542952E+01,1.35117352E+01,1.35273878E+01,1.85398465E+01,2.00728634E+01,1.95238260E+01,2.44397904E+01,4.78650800E+01,4.26907237E+01,2.24508407E+01,2.88359787E+01,2.24652414E+01,1.57404815E+01,1.04503414E+01,7.47171614E+00,5.30686881E+00,5.07561585E+00,5.36611025E+00,3.48194168E+00,2.16871026E+00,2.00676317E+00,2.38732788E+00,2.51137872E+00,1.86274027E+00,1.15397583E+00,6.11899268E-01,4.57573848E-01,5.06406039E-01,5.16939833E-01,6.55849159E-01,4.44522243E-01,1.51452266E-01,1.03402082E-01,6.10535191E-02,4.42120035E-02,6.18552982E+00,6.40978168E+00,1.05451195E+01,7.84681704E+00,8.81900763E+00,1.30966620E+01,1.15850245E+01,1.35709051E+01,1.46117637E+01,1.83215272E+01,9.67193573E+00,9.34683935E+00,6.58257097E+00,5.13184004E+00,3.84310849E+00,2.09683215E+00,1.89352099E+00,1.48838005E+00,1.08692124E+00,9.93275704E-01,8.93480082E-01,1.06507754E+00,9.95999960E-01,7.54138234E-01,6.81545773E-01,2.93272306E-01,2.07062160E-01,2.53626953E-01,1.54443683E-01,1.77117068E-01,1.90935404E-01,2.08926150E-01,1.25112762E-01,5.97191703E-02,3.18863835E-02,2.29557345E-02,1.43802335E+01,1.45513789E+01,1.58538312E+01,1.62036704E+01,2.00293444E+01,2.54407288E+01,2.88090261E+01,2.59603770E+01,5.35004501E+01,4.26689254E+01,2.68369036E+01,3.14175518E+01,2.15109914E+01,1.77380288E+01,2.00866400E+01,1.49283174E+01,1.14642925E+01,8.24364874E+00,6.32745493E+00,4.72272987E+00,3.81281925E+00,2.46782413E+00,2.39241270E+00,2.51621196E+00,2.20210196E+00,1.39582563E+00,8.11013515E-01,5.39095633E-01,5.03524660E-01,4.61708341E-01,4.96522778E-01,3.58996093E-01,1.42414594E-01,1.01173329E-01,6.62523833E-02,5.12341575E-02
TR-2019-0001,26/09/2019 10:59:25,,,,,MR,40.882,28.214,7.97,,U,,,5.8,,,,5.8,,,,276,55,145,AFAD,4.711,GW,8.7,7.25,,TR,1025,0,,,,,,TR,39.874,27.968,437,B,VS30,Vs30_ref,495.6647644,WA2007,0,TOPO,1.882095562,495.66,113.9830,190.6136,109.3887,109.4547,-50.8223,96.8283,,,,,,,,,,,,,,5.14900000E+00,5.27640000E+00,4.86740000E+00,4.98805185E+00,,,1.06896625E+00,4.78360536E-01,5.61951389E-01,8.29168123E-01,,,3.53190044E-01,1.89246699E-01,1.70363479E-01,2.70918037E-01,,,36.2500,40.4000,38.0900,,,,3.71400883,2.43668912,2.51742582,,,,34.05921907,31.38981042,32.52684137,,,,0.05804335,0.04432316,0.05309415,,,,5.13882174E+00,5.17572606E+00,5.36938249E+00,5.55725994E+00,6.87088195E+00,1.13891233E+01,8.39157181E+00,1.13618431E+01,1.37033670E+01,1.97999283E+01,1.10520753E+01,1.02637752E+01,1.23219068E+01,9.45928542E+00,1.06076394E+01,1.20400366E+01,1.06686310E+01,1.07224642E+01,9.75637179E+00,6.86039445E+00,4.41543425E+00,6.55648311E+00,9.37082003E+00,8.00770547E+00,7.69028634E+00,5.20410086E+00,3.34851159E+00,2.45820589E+00,1.83637052E+00,1.48724427E+00,1.15642392E+00,6.35610989E-01,4.00174624E-01,3.00047950E-01,2.22415387E-01,1.69891897E-01,5.26459955E+00,5.33205597E+00,5.41821804E+00,5.57530078E+00,7.57566777E+00,7.60107994E+00,9.41486407E+00,7.84366865E+00,1.23435861E+01,1.00814494E+01,1.12411135E+01,1.22339299E+01,7.21493946E+00,8.06577905E+00,1.08423767E+01,6.26739856E+00,5.27316326E+00,5.20376503E+00,5.20778282E+00,5.03986680E+00,5.13894897E+00,6.21955477E+00,4.26802963E+00,6.16123220E+00,4.97861867E+00,1.87600099E+00,1.35619374E+00,1.47043851E+00,8.18505787E-01,7.56685009E-01,6.40994595E-01,7.39529483E-01,4.10036561E-01,2.48683828E-01,1.43349443E-01,9.96532124E-02,4.86038124E+00,4.90733576E+00,5.04581069E+00,5.62310396E+00,5.92272092E+00,6.30442448E+00,7.99256966E+00,1.24441645E+01,1.70737016E+01,1.33057089E+01,1.05594535E+01,1.00797808E+01,8.87376471E+00,8.65045686E+00,9.73760945E+00,7.88539467E+00,8.78002927E+00,7.56047344E+00,6.36039382E+00,4.62642950E+00,3.99216998E+00,4.17675386E+00,5.21822042E+00,6.46389340E+00,5.33104904E+00,2.22426176E+00,1.22861299E+00,9.33316723E-01,7.63069247E-01,7.69547098E-01,1.06931900E+00,5.64639010E-01,3.88671302E-01,2.37831051E-01,1.31602269E-01,8.78256890E-02,4.97776186E+00,5.03632566E+00,5.24587152E+00,5.44829747E+00,6.66124732E+00,1.02259366E+01,9.18174368E+00,9.32202046E+00,1.29003521E+01,1.45258408E+01,1.08543089E+01,1.12664895E+01,1.02510167E+01,8.86157978E+00,1.05108740E+01,8.63360734E+00,8.57309621E+00,8.80710052E+00,7.62446290E+00,5.66518338E+00,4.91497104E+00,6.29306220E+00,7.29421550E+00,6.75115305E+00,6.21659375E+00,4.31696495E+00,2.60973216E+00,1.93181721E+00,1.42646888E+00,1.07724974E+00,8.63059386E-01,6.78327377E-01,4.10244363E-01,2.63637691E-01,1.65336019E-01,1.27787886E-01
TR-2019-0001,26/09/2019 10:59:25,,,,,MR,40.882,28.214,7.97,,U,,,5.8,,,,5.8,,,,276,55,145,AFAD,4.711,GW,8.7,7.25,,TR,1027,0,,,,,,TR,39.573,26.742,61,B,VS30,Vs30_ref,823.4058838,WA2007,0,TOPO,10.89752837,823.41,191.8169,221.1299,187.3847,187.5215,12.0928,187.1867,,,,,,,,,,,,,,2.09470000E+00,2.07850000E+00,1.46690000E+00,2.00662980E+00,,,1.35037216E-01,1.12052305E-01,9.59377315E-02,1.13260093E-01,,,2.09488053E-02,1.97645923E-02,1.68400643E-02,2.26271082E-02,,,47.1600,43.1900,46.3800,,,,0.41965651,0.43142529,0.38605401,,,,12.51792613,12.95159708,12.77237330,,,,0.00655817,0.00738195,0.00647105,,,,2.09049950E+00,2.09272740E+00,2.12007920E+00,2.21459885E+00,2.29076152E+00,3.27922715E+00,4.25881860E+00,5.22586594E+00,6.48431569E+00,7.10733874E+00,3.87407217E+00,4.03236994E+00,3.24743006E+00,3.27299275E+00,2.96473230E+00,2.10223328E+00,1.83660311E+00,1.49546445E+00,1.46582834E+00,1.23161276E+00,1.09051417E+00,8.44284845E-01,4.48980703E-01,3.62209505E-01,3.31938610E-01,3.91043311E-01,2.80030700E-01,1.64716913E-01,1.22067359E-01,8.70095473E-02,8.12436215E-02,4.75734743E-02,3.09704453E-02,1.68910050E-02,1.19762945E-02,9.64110789E-03,2.07456604E+00,2.09410248E+00,2.08460093E+00,2.13182736E+00,2.21106628E+00,2.36376168E+00,4.40462649E+00,4.05469483E+00,7.47815817E+00,9.36793194E+00,5.74809251E+00,6.29402777E+00,4.49179610E+00,3.55798530E+00,1.52175749E+00,1.97810910E+00,1.88444271E+00,1.70814225E+00,1.57011475E+00,1.32773459E+00,7.86872600E-01,6.57790615E-01,4.75739987E-01,4.09306463E-01,4.19199001E-01,4.18299138E-01,2.98635260E-01,1.91750622E-01,1.19290469E-01,1.07948840E-01,9.57730815E-02,4.00520338E-02,3.12318250E-02,2.11431770E-02,1.25662617E-02,9.02299372E-03,1.46354779E+00,1.47538419E+00,1.48380107E+00,1.63361783E+00,2.49012607E+00,2.56295036E+00,3.16619717E+00,2.76981876E+00,3.69046267E+00,5.32923780E+00,3.90390215E+00,3.19280586E+00,3.28183466E+00,4.68222635E+00,2.27186003E+00,2.37944088E+00,2.41931420E+00,1.79940015E+00,1.30161275E+00,1.24992612E+00,9.72850886E-01,7.56487773E-01,4.92786559E-01,2.94017548E-01,3.21638166E-01,2.58541108E-01,1.39238475E-01,1.02437217E-01,9.10292599E-02,1.19517550E-01,1.08815451E-01,4.30997799E-02,2.69073826E-02,1.54700619E-02,1.11256539E-02,9.46441953E-03,2.00268289E+00,2.02863650E+00,2.06698621E+00,2.12656613E+00,2.25303232E+00,2.66721870E+00,4.32272677E+00,4.76047295E+00,6.51203021E+00,7.85584111E+00,5.25367183E+00,4.80244636E+00,4.08881723E+00,3.61381841E+00,2.34818552E+00,2.04315283E+00,1.88133516E+00,1.68291521E+00,1.48713483E+00,1.25744941E+00,9.49499293E-01,7.54654888E-01,5.46255614E-01,4.11924568E-01,4.25429979E-01,3.98645715E-01,2.99643388E-01,1.90448379E-01,1.20312727E-01,1.08009989E-01,9.04739633E-02,4.69252981E-02,3.11682166E-02,1.94960743E-02,1.38127834E-02,1.06305230E-02
