event_id,event_time,ISC_ev_id,USGS_ev_id,INGV_ev_id,EMSC_ev_id,ev_nation_code,ev_latitude,ev_longitude,ev_depth_km,ev_hyp_ref,fm_type_code,ML,ML_ref,Mw,Mw_ref,Ms,Ms_ref,EMEC_Mw,EMEC_Mw_type,EMEC_Mw_ref,event_source_id,es_strike,es_dip,es_rake,es_strike_dip_rake_ref,es_z_top,es_z_top_ref,es_length,es_width,es_geometry_ref,network_code,station_code,location_code,instrument_code,sensor_depth_m,proximity_code,housing_code,installation_code,st_nation_code,st_latitude,st_longitude,st_elevation,ec8_code,ec8_code_method,ec8_code_ref,vs30_m_sec,vs_ref,vs30_calc_method,vs30_meas_type,slope_deg,vs30_m_sec_WA,epi_dist,epi_az,JB_dist,rup_dist,Rx_dist,Ry0_dist,instrument_type_code,late_triggered_flag_01,U_channel_code,U_azimuth_deg,V_channel_code,V_azimuth_deg,W_channel_code,U_hp,V_hp,W_hp,U_lp,V_lp,W_lp,U_pga,V_pga,W_pga,rotD50_pga,rotD100_pga,rotD00_pga,U_pgv,V_pgv,W_pgv,rotD50_pgv,rotD100_pgv,rotD00_pgv,U_pgd,V_pgd,w_pgd,rotD50_pgd,rotD100_pgd,rotD00_pgd,U_T90,V_T90,W_T90,rotD50_T90,rotD100_T90,rotD00_T90,U_housner,V_housner,W_housner,rotD50_housner,rotD100_housner,rotD00_housner,U_CAV,V_CAV,W_CAV,rotD50_CAV,rotD100_CAV,rotD00_CAV,U_ia,V_ia,W_ia,rotD50_ia,rotD100_ia,rotD00_ia,U_T0_010,U_T0_025,U_T0_040,U_T0_050,U_T0_070,U_T0_100,U_T0_150,U_T0_200,U_T0_250,U_T0_300,U_T0_350,U_T0_400,U_T0_450,U_T0_500,U_T0_600,U_T0_700,U_T0_750,U_T0_800,U_T0_900,U_T1_000,U_T1_200,U_T1_400,U_T1_600,U_T1_800,U_T2_000,U_T2_500,U_T3_000,U_T3_500,U_T4_000,U_T4_500,U_T5_000,U_T6_000,U_T7_000,U_T8_000,U_T9_000,U_T10_000,V_T0_010,V_T0_025,V_T0_040,V_T0_050,V_T0_070,V_T0_100,V_T0_150,V_T0_200,V_T0_250,V_T0_300,V_T0_350,V_T0_400,V_T0_450,V_T0_500,V_T0_600,V_T0_700,V_T0_750,V_T0_800,V_T0_900,V_T1_000,V_T1_200,V_T1_400,V_T1_600,V_T1_800,V_T2_000,V_T2_500,V_T3_000,V_T3_500,V_T4_000,V_T4_500,V_T5_000,V_T6_000,V_T7_000,V_T8_000,V_T9_000,V_T10_000,W_T0_010,W_T0_025,W_T0_040,W_T0_050,W_T0_070,W_T0_100,W_T0_150,W_T0_200,W_T0_250,W_T0_300,W_T0_350,W_T0_400,W_T0_450,W_T0_500,W_T0_600,W_T0_700,W_T0_750,W_T0_800,W_T0_900,W_T1_000,W_T1_200,W_T1_400,W_T1_600,W_T1_800,W_T2_000,W_T2_500,W_T3_000,W_T3_500,W_T4_000,W_T4_500,W_T5_000,W_T6_000,W_T7_000,W_T8_000,W_T9_000,W_T10_000,rotD50_T0_010,rotD50_T0_025,rotD50_T0_040,rotD50_T0_050,rotD50_T0_070,rotD50_T0_100,rotD50_T0_150,rotD50_T0_200,rotD50_T0_250,rotD50_T0_300,rotD50_T0_350,rotD50_T0_400,rotD50_T0_450,rotD50_T0_500,rotD50_T0_600,rotD50_T0_700,rotD50_T0_750,rotD50_T0_800,rotD50_T0_900,rotD50_T1_000,rotD50_T1_200,rotD50_T1_400,rotD50_T1_600,rotD50_T1_800,rotD50_T2_000,rotD50_T2_500,rotD50_T3_000,rotD50_T3_500,rotD50_T4_000,rotD50_T4_500,rotD50_T5_000,rotD50_T6_000,rotD50_T7_000,rotD50_T8_000,rotD50_T9_000,rotD50_T10_000
TR-2019-0001,26/09/2019 10:59:25,,,,,MR,40.882,28.214,7.97,,U,,,5.8,,,,5.8,,,,276,55,145,AFAD,4.711,GW,8.7,7.25,,TR,640,0,,,,,,TR,40.097,33.408,850,B,VS30,Vs30_ref,506.0856934,WA2007,0,TOPO,2.074144648,506.09,447.7511,99.5424,444.2018,444.0625,-392.0233,208.8124,,,,,,,,,,,,,,2.74420000E-01,1.80800000E-01,9.50410000E-02,2.45400490E-01,,,7.39564322E-02,6.17906884E-02,3.15263058E-02,6.99335429E-02,,,2.38371328E-02,2.73595562E-02,1.70215814E-02,2.57975504E-02,,,77.6000,104.6100,142.0700,,,,0.37561697,0.27682824,0.14474322,,,,5.56275677,5.03221665,3.21891028,,,,0.00056217,0.00039254,0.00013784,,,,2.74371283E-01,2.75316931E-01,2.77631077E-01,2.74983209E-01,2.78610045E-01,2.74494391E-01,2.78452859E-01,2.81098922E-01,2.83839875E-01,2.84588071E-01,2.87526870E-01,3.05975766E-01,3.13553500E-01,3.25887159E-01,4.26732397E-01,4.21994070E-01,4.02230153E-01,4.62183323E-01,5.16022483E-01,5.38743221E-01,9.41927827E-01,1.49546136E+00,1.05502082E+00,7.87309993E-01,5.90108836E-01,6.71213637E-01,2.46209823E-01,2.19008009E-01,1.25655098E-01,9.27955394E-02,1.18017203E-01,9.08190227E-02,4.69692674E-02,2.85961741E-02,2.03888898E-02,1.36451477E-02,1.80780854E-01,1.81429003E-01,1.82390563E-01,1.82859965E-01,1.81842666E-01,1.82449293E-01,1.81556813E-01,1.82650046E-01,1.83790629E-01,1.91159914E-01,1.94917576E-01,2.09389967E-01,2.30515250E-01,2.23157272E-01,2.30064228E-01,2.77415395E-01,3.01128621E-01,2.94272306E-01,3.61784049E-01,4.86359470E-01,7.73551635E-01,7.46083974E-01,6.70858966E-01,6.18822132E-01,5.71584646E-01,5.03124638E-01,4.60598775E-01,2.76462055E-01,1.80209225E-01,1.22584066E-01,1.01910488E-01,7.62668271E-02,4.25071591E-02,3.26871020E-02,2.08076586E-02,1.31484708E-02,9.50279360E-02,9.48605042E-02,9.61647060E-02,9.63974931E-02,9.69248302E-02,9.50107761E-02,9.55894709E-02,9.76408066E-02,9.77828353E-02,1.05502207E-01,1.07238772E-01,1.08338841E-01,1.03333766E-01,1.18339070E-01,1.47518565E-01,1.50522241E-01,1.76241119E-01,1.76301888E-01,2.71781615E-01,2.96540811E-01,3.32160838E-01,4.01566710E-01,4.15129221E-01,3.55978924E-01,2.82701257E-01,2.23972055E-01,2.71404051E-01,2.21307851E-01,9.78199488E-02,1.14708412E-01,8.67866462E-02,6.13725146E-02,3.15873508E-02,1.61141532E-02,1.08469152E-02,7.88743091E-03,2.45365045E-01,2.45749876E-01,2.45715742E-01,2.46525513E-01,2.46334305E-01,2.46586940E-01,2.48887460E-01,2.49121420E-01,2.51882560E-01,2.55774630E-01,2.64783120E-01,2.79655340E-01,2.97105120E-01,2.96916550E-01,3.38874440E-01,3.71360010E-01,3.83345870E-01,3.93514660E-01,4.35343350E-01,5.21188820E-01,8.86991819E-01,1.17766540E+00,8.54971094E-01,7.11215028E-01,5.90540524E-01,5.71739093E-01,3.55332276E-01,2.31981361E-01,1.44012790E-01,1.26417862E-01,1.15934430E-01,8.08181535E-02,4.47231299E-02,2.84197960E-02,2.08628702E-02,1.32361197E-02
TR-2019-0001,26/09/2019 10:59:25,,,,,MR,40.882,28.214,7.97,,U,,,5.8,,,,5.8,,,,276,55,145,AFAD,4.711,GW,8.7,7.25,,TR,641,0,,,,,,TR,40.223,32.673,925,B,VS30,Vs30_ref,396.1002808,WA2007,0,TOPO,1.452180667,396.10,383.7387,99.5485,380.2251,380.1137,-335.7870,178.3316,,,,,,,,,,,,,,6.97120000E-01,6.82410000E-01,3.45300000E-01,6.86799897E-01,,,1.79861414E-01,2.29627377E-01,7.96226966E-02,2.06928684E-01,,,7.23687426E-02,1.04715686E-01,2.54458181E-02,8.44018517E-02,,,116.7900,101.9400,116.1100,,,,0.95372631,1.07799865,0.54804562,,,,18.84351411,20.45991603,10.36855727,,,,0.00511083,0.00630867,0.00165473,,,,6.96953089E-01,7.00367854E-01,7.21820416E-01,7.03388772E-01,7.12123268E-01,7.12123202E-01,7.23810855E-01,7.09143833E-01,7.36705131E-01,6.95970861E-01,8.23510226E-01,9.03885433E-01,7.20733141E-01,9.73261865E-01,1.16752881E+00,1.46292450E+00,1.34598494E+00,1.48517383E+00,1.94093063E+00,1.88138011E+00,1.68720942E+00,1.93141061E+00,2.08508436E+00,2.32970960E+00,2.50020942E+00,1.48505969E+00,1.24104133E+00,1.05958710E+00,5.46634499E-01,4.03140033E-01,3.02552476E-01,1.88147236E-01,8.36896495E-02,4.94155197E-02,3.68073294E-02,2.93451993E-02,6.82317067E-01,6.84188063E-01,6.89616120E-01,6.91944303E-01,6.93057244E-01,6.87255905E-01,6.90855422E-01,6.93860064E-01,6.79085566E-01,7.33036050E-01,7.03137988E-01,8.73086195E-01,7.93643832E-01,9.06980316E-01,8.77487804E-01,1.31720472E+00,1.20796147E+00,1.11764099E+00,1.07580278E+00,1.24840263E+00,1.68613645E+00,1.66442670E+00,2.43284950E+00,2.95693219E+00,2.85358455E+00,2.28613855E+00,1.25091508E+00,8.06584946E-01,3.69592465E-01,4.17509655E-01,3.98767169E-01,1.60638919E-01,1.15078085E-01,8.04851676E-02,6.62883538E-02,4.84870385E-02,3.45246175E-01,3.49292318E-01,3.50286469E-01,3.59701458E-01,4.12477873E-01,3.57363151E-01,3.56521151E-01,3.54398573E-01,3.60921221E-01,3.64207924E-01,3.84121885E-01,4.35053160E-01,5.03714435E-01,4.74811162E-01,5.97434706E-01,7.54664677E-01,8.48878864E-01,8.10030683E-01,8.48211979E-01,1.11341502E+00,1.21323836E+00,1.46573373E+00,1.29078663E+00,1.50980780E+00,1.38409599E+00,5.68863321E-01,2.62568282E-01,2.08018826E-01,1.42947796E-01,1.36756660E-01,8.97547647E-02,7.88112812E-02,3.44810404E-02,1.94653702E-02,1.45386109E-02,1.04290808E-02,6.86678080E-01,6.88339201E-01,6.98126938E-01,6.95777119E-01,7.03110695E-01,6.92720340E-01,6.94420960E-01,6.98800110E-01,7.15458460E-01,7.11764330E-01,7.52031950E-01,8.31078290E-01,7.83717010E-01,1.03392193E+00,1.13863908E+00,1.32986795E+00,1.28712894E+00,1.40181408E+00,1.55877246E+00,1.69236361E+00,1.68667294E+00,1.76147176E+00,2.07899971E+00,2.33072697E+00,2.58023355E+00,1.91062980E+00,1.24620393E+00,9.75360561E-01,4.87639831E-01,4.23628945E-01,3.22332935E-01,1.63843601E-01,9.88537344E-02,6.92387251E-02,5.18930051E-02,3.83719612E-02
TR-2019-0001,26/09/2019 10:59:25,,,,,MR,40.882,28.214,7.97,,U,,,5.8,,,,5.8,,,,276,55,145,AFAD,4.711,GW,8.7,7.25,,TR,912,0,,,,,,TR,37.973,28.746,212,B,VS30,Vs30_ref,390,AFAD,0,MASW,4.692855215,585.09,326.6534,171.7890,322.4668,322.3858,-234.1325,221.5156,,,,,,,,,,,,,,4.74140000E-01,3.03440000E-01,1.51280000E-01,3.78191910E-01,,,1.54504633E-01,7.36769058E-02,3.70253205E-02,1.10025687E-01,,,1.06668928E-01,2.96199257E-02,1.82436748E-01,7.73571482E-02,,,123.5900,129.5400,166.4500,,,,0.52683971,0.35283369,0.18818130,,,,9.31913128,8.40400111,5.02850065,,,,0.00140428,0.00093270,0.00032623,,,,4.74061827E-01,4.73468801E-01,4.90812627E-01,5.20884808E-01,5.13141370E-01,4.70624721E-01,4.87465820E-01,4.92105641E-01,5.97829442E-01,6.03170572E-01,6.63868347E-01,6.75485653E-01,6.71985282E-01,5.94337821E-01,7.31804549E-01,8.14907408E-01,8.05714142E-01,7.38321713E-01,8.82277075E-01,1.01418864E+00,1.12266289E+00,1.36330053E+00,1.23087931E+00,9.50928835E-01,1.37129645E+00,7.70237629E-01,5.10378913E-01,4.29084996E-01,2.19443715E-01,2.15295959E-01,1.92455059E-01,1.12682511E-01,7.64828091E-02,5.55738851E-02,3.91963071E-02,2.94887707E-02,3.03307250E-01,3.12857067E-01,3.35249787E-01,6.51474285E-01,3.16835647E-01,2.92005583E-01,3.41075037E-01,3.72766316E-01,3.51661318E-01,3.74240685E-01,4.72517184E-01,4.35504673E-01,4.12949067E-01,5.60498256E-01,4.94089201E-01,5.78428790E-01,5.46155278E-01,4.54131958E-01,7.27049520E-01,9.32838091E-01,8.33380177E-01,1.02638592E+00,9.30191507E-01,6.75958611E-01,6.70250589E-01,5.47075628E-01,3.03073409E-01,2.19774248E-01,1.64705502E-01,1.47855285E-01,1.36565903E-01,7.86087489E-02,4.07582775E-02,2.40953134E-02,1.44882094E-02,1.15716994E-02,1.50711755E-01,3.55678820E-01,2.98690430E-01,3.12994954E-01,3.08827913E-01,1.76085012E-01,1.72568313E-01,3.09979641E-01,2.31697137E-01,2.09736809E-01,2.42463321E-01,3.47770873E-01,4.47031777E-01,3.13581209E-01,2.57828414E-01,4.29613691E-01,3.54181095E-01,3.86892677E-01,4.10734826E-01,4.13484246E-01,4.83906920E-01,4.43318219E-01,4.56484103E-01,5.02348715E-01,3.42315183E-01,2.53070434E-01,2.13518047E-01,1.53845832E-01,1.10334302E-01,1.12483963E-01,1.24105656E-01,7.12681478E-02,3.82997867E-02,2.12223522E-02,1.55809812E-02,1.15624648E-02,3.78094667E-01,3.77423468E-01,3.94949348E-01,5.44886820E-01,4.08222047E-01,3.94390870E-01,3.91598770E-01,3.99861380E-01,4.58500370E-01,4.96548650E-01,5.01455500E-01,4.87389660E-01,5.02292420E-01,5.92287480E-01,5.84035180E-01,6.27642570E-01,6.03933400E-01,6.44017590E-01,7.71917360E-01,9.62361240E-01,1.00338706E+00,1.15439518E+00,1.02241002E+00,7.63501987E-01,1.00625673E+00,5.79314619E-01,3.82004978E-01,3.07795718E-01,1.82937987E-01,1.59967463E-01,1.58770613E-01,1.02076292E-01,5.56438354E-02,3.96667284E-02,2.80017585E-02,2.11051819E-02
TR-2019-0001,26/09/2019 10:59:25,,,,,MR,40.882,28.214,7.97,,U,,,5.8,,,,5.8,,,,276,55,145,AFAD,4.711,GW,8.7,7.25,,TR,917,0,,,,,,TR,37.605,28.059,81,B,VS30,Vs30_ref,580,AFAD,0,MASW,0.624117627,293.99,364.6078,182.1474,360.1043,360.0065,-211.8371,291.0021,,,,,,,,,,,,,,1.31570000E-01,1.48740000E-01,9.49690000E-02,1.43696841E-01,,,4.36813998E-02,4.63336539E-02,3.27083760E-02,4.53074700E-02,,,1.14418691E-01,3.67569303E-02,8.27291912E-01,8.52912208E-02,,,190.8200,134.0400,156.9200,,,,0.13668669,0.18911265,0.08480318,,,,3.69192366,4.06084736,2.30259295,,,,0.00016206,0.00021361,0.00006358,,,,1.31426997E-01,1.41025609E-01,3.29860925E-01,3.93493909E-01,1.73523461E-01,1.31388842E-01,1.17663908E-01,1.33902828E-01,1.34459629E-01,1.45144932E-01,1.62122227E-01,2.05592395E-01,2.07515471E-01,1.87425275E-01,2.15224684E-01,2.38469601E-01,3.00841421E-01,3.37026141E-01,3.32200310E-01,3.82797915E-01,3.74595752E-01,3.48227013E-01,2.15157511E-01,3.33194684E-01,2.73273187E-01,1.95233843E-01,2.31053396E-01,1.61315483E-01,1.03508884E-01,1.28992821E-01,1.10020918E-01,5.35437888E-02,2.84038656E-02,1.67578579E-02,1.22383309E-02,9.08847585E-03,1.48677417E-01,1.51593603E-01,2.87138461E-01,2.13336242E-01,1.92480815E-01,1.53514143E-01,1.48367500E-01,1.55095195E-01,1.66203208E-01,1.96810453E-01,2.11627355E-01,2.12592677E-01,2.28531341E-01,2.81485616E-01,2.49360416E-01,2.81564768E-01,2.97791644E-01,3.00888905E-01,3.62474117E-01,4.14019072E-01,5.45295216E-01,4.79560285E-01,4.70231263E-01,5.16186295E-01,3.90578949E-01,2.04729163E-01,2.01577433E-01,1.40038404E-01,6.42263610E-02,6.09127007E-02,7.19845858E-02,5.28561027E-02,2.21246905E-02,1.32506146E-02,1.00069440E-02,7.67015277E-03,9.49160818E-02,9.30997798E-02,1.08559893E-01,1.16885166E-01,1.18511382E-01,1.07787174E-01,9.32168456E-02,1.08437739E-01,1.10436911E-01,1.20645755E-01,1.30067759E-01,1.29928480E-01,1.65921924E-01,1.60845362E-01,1.95388665E-01,1.87320523E-01,1.69456673E-01,1.97203535E-01,1.65373111E-01,1.18155604E-01,1.40349724E-01,1.57387947E-01,2.17452341E-01,2.29401957E-01,1.92610671E-01,1.21360624E-01,1.54640088E-01,9.44049811E-02,7.50300940E-02,5.01877534E-02,7.06132865E-02,5.75826833E-02,2.84024953E-02,1.49549115E-02,9.84290222E-03,7.15116938E-03,1.43630339E-01,1.48822700E-01,2.82203194E-01,2.86667882E-01,1.76748443E-01,1.50617180E-01,1.39936380E-01,1.44967730E-01,1.51544080E-01,1.63499510E-01,1.66421200E-01,1.95427520E-01,2.30218450E-01,2.52255990E-01,2.40226140E-01,2.66775440E-01,2.97446080E-01,3.17119080E-01,3.37778080E-01,4.10964410E-01,4.81536928E-01,3.95586033E-01,3.64041418E-01,4.17106348E-01,3.63295678E-01,1.97699394E-01,2.16838991E-01,1.40819805E-01,8.54083981E-02,9.76102235E-02,8.97640188E-02,5.31838771E-02,2.39398891E-02,1.48770358E-02,1.05881525E-02,8.04951230E-03
TR-2019-0001,26/09/2019 10:59:25,,,,,MR,40.882,28.214,7.97,,U,,,5.8,,,,5.8,,,,276,55,145,AFAD,4.711,GW,8.7,7.25,,TR,918,0,,,,,,TR,37.369,27.264,47,B,VS30,Vs30_ref,630,AFAD,0,MASW,0.956321442,343.86,399.1013,192.1506,394.4299,394.3172,-172.2707,354.6785,,,,,,,,,,,,,,1.64950000E-01,1.67190000E-01,1.16690000E-01,1.66687557E-01,,,4.32972645E-02,4.32460914E-02,3.52232077E-02,4.32716779E-02,,,2.73505813E-02,1.25955717E-01,9.60067341E-02,9.17839571E-02,,,163.3700,182.6100,123.9900,,,,0.15455579,0.19287817,0.16677062,,,,5.16493118,5.49202317,3.57637577,,,,0.00029276,0.00032047,0.00017890,,,,1.64825345E-01,1.82959412E-01,1.82518501E-01,1.53238825E-01,1.50136795E-01,1.49194992E-01,1.45627809E-01,1.44677596E-01,1.52809296E-01,1.68346275E-01,1.76792993E-01,2.15426893E-01,1.96761686E-01,1.84441333E-01,2.32415274E-01,2.17199333E-01,2.26790845E-01,2.05400256E-01,2.60091629E-01,3.23506154E-01,2.40254561E-01,3.14082894E-01,3.44836084E-01,2.70212122E-01,3.18809586E-01,4.00805772E-01,4.63235810E-01,3.98339124E-01,2.05589762E-01,1.12666828E-01,1.35708806E-01,8.91840820E-02,3.51450271E-02,2.24545392E-02,1.40015052E-02,1.06342480E-02,1.67121179E-01,1.79381924E-01,1.97419785E-01,1.75819769E-01,1.68237978E-01,1.55740578E-01,1.56088205E-01,1.62628858E-01,1.62260290E-01,1.69001347E-01,1.60437472E-01,2.14798616E-01,2.55137816E-01,2.49841177E-01,1.98544099E-01,2.40773525E-01,2.27927569E-01,2.44561545E-01,3.04878535E-01,3.51070867E-01,3.94061719E-01,2.99681808E-01,3.62980735E-01,4.84867983E-01,3.70801733E-01,5.20478813E-01,4.33615143E-01,3.02050008E-01,1.60201575E-01,9.56698358E-02,9.78910163E-02,7.25563971E-02,4.58616834E-02,2.80671981E-02,1.60737151E-02,1.11018808E-02,1.16647863E-01,1.20703550E-01,1.24223975E-01,1.18589965E-01,1.18323141E-01,1.20105179E-01,1.21283773E-01,1.17026923E-01,1.22530111E-01,1.37167069E-01,1.45268236E-01,1.57972111E-01,1.86632281E-01,2.02229961E-01,2.12130276E-01,1.98209803E-01,2.70960200E-01,2.78019128E-01,2.31085968E-01,2.62350648E-01,2.65331980E-01,4.35518777E-01,4.76723525E-01,4.50475964E-01,4.31895647E-01,1.78553380E-01,1.50549117E-01,1.02093777E-01,8.98630927E-02,7.01761350E-02,8.65527332E-02,6.08734791E-02,3.35777028E-02,1.71049868E-02,1.14388669E-02,8.15497029E-03,1.66590460E-01,1.80096665E-01,1.98651413E-01,1.68007408E-01,1.61396657E-01,1.53765800E-01,1.52475550E-01,1.57331430E-01,1.59453400E-01,1.65232820E-01,1.76078620E-01,2.11107050E-01,2.05317280E-01,2.31136760E-01,2.15472670E-01,2.17851260E-01,2.27032480E-01,2.27928240E-01,2.94252690E-01,3.23349260E-01,3.14308858E-01,3.11917234E-01,3.46782958E-01,3.70388147E-01,3.34389150E-01,4.52273638E-01,4.48517951E-01,3.10978485E-01,1.91772430E-01,1.05414850E-01,1.26383498E-01,8.12894766E-02,4.74356736E-02,2.57313566E-02,1.57383312E-02,1.12742817E-02
TR-2019-0001,26/09/2019 10:59:25,,,,,MR,40.882,28.214,7.97,,U,,,5.8,,,,5.8,,,,276,55,145,AFAD,4.711,GW,8.7,7.25,,TR,1003,0,,,,,,TR,39.654,27.862,158,B,VS30,Vs30_ref,459.511,AFAD,0,MASW,2.934652707,507.19,139.7532,192.4534,135.1403,135.1775,-58.6535,121.7050,,,,,,,,,,,,,,3.40940000E+00,2.60100000E+00,1.01280000E+00,3.26778679E+00,,,2.78463703E-01,2.35260816E-01,1.13674917E-01,2.73442790E-01,,,7.72842347E-02,5.16598032E-02,4.31099033E-02,7.14056644E-02,,,24.8500,41.0900,55.0700,,,,1.27695853,0.95120982,0.58262478,,,,19.90264594,16.75782702,9.48088316,,,,0.02310051,0.01223552,0.00331233,,,,3.40392060E+00,3.41094343E+00,3.43884210E+00,3.76991979E+00,3.89467361E+00,4.53701443E+00,7.63763875E+00,9.39365868E+00,1.19444745E+01,1.63131269E+01,7.13677282E+00,6.89536719E+00,7.13510257E+00,5.72427103E+00,4.52697571E+00,3.56801122E+00,2.75712340E+00,2.37979604E+00,1.57000266E+00,1.30585466E+00,1.67627366E+00,1.69801416E+00,2.37582729E+00,2.60635391E+00,3.18835805E+00,1.56536342E+00,1.12394511E+00,5.49202214E-01,4.21144543E-01,3.13429229E-01,2.56283227E-01,2.78552912E-01,1.17966091E-01,7.34124430E-02,4.70090215E-02,3.64085958E-02,2.59542201E+00,2.62130722E+00,2.69226557E+00,2.95248547E+00,2.82632803E+00,3.91221883E+00,5.28847693E+00,6.68078580E+00,6.10208903E+00,8.37179312E+00,4.08427308E+00,3.87085327E+00,4.59493521E+00,4.82618577E+00,3.99060767E+00,2.12161657E+00,1.93151646E+00,1.85943227E+00,1.84091951E+00,1.41153423E+00,1.21625936E+00,1.52897544E+00,2.38855434E+00,2.64916359E+00,1.96689728E+00,7.97041502E-01,4.98376166E-01,2.92245640E-01,2.91694322E-01,2.85024351E-01,3.08703551E-01,1.61036253E-01,8.39608084E-02,5.38321401E-02,3.14360818E-02,2.38845665E-02,1.01082544E+00,1.04297047E+00,1.12026610E+00,1.28199889E+00,1.56341427E+00,2.51352315E+00,3.17348152E+00,1.80407816E+00,2.74005212E+00,3.95916353E+00,1.57935689E+00,1.49129454E+00,1.89171304E+00,1.62540997E+00,1.50967572E+00,1.38042315E+00,1.27002043E+00,9.88693458E-01,8.39818779E-01,8.41164419E-01,9.13310651E-01,1.00092714E+00,1.35712659E+00,1.51503202E+00,1.35607935E+00,7.32534961E-01,3.63568130E-01,3.66382760E-01,2.85154367E-01,2.94571760E-01,2.31150877E-01,1.04735426E-01,8.67906521E-02,4.84112244E-02,3.06650174E-02,2.34554675E-02,3.26248593E+00,3.29320870E+00,3.33595625E+00,3.59980031E+00,3.69768847E+00,4.47599920E+00,6.24761235E+00,8.90713855E+00,1.15765435E+01,1.27615994E+01,6.48494679E+00,5.48942395E+00,5.29069637E+00,5.06407241E+00,4.32512674E+00,2.86549194E+00,2.12680282E+00,1.85982724E+00,1.57221024E+00,1.34243588E+00,1.35565815E+00,1.68120346E+00,2.38219082E+00,2.62894232E+00,2.41811145E+00,1.29952842E+00,8.28067844E-01,4.28177125E-01,3.95453237E-01,3.07381101E-01,2.78951080E-01,2.32117704E-01,1.17452282E-01,6.60389089E-02,4.54044641E-02,3.40166402E-02
