event_id,event_time,ISC_ev_id,USGS_ev_id,INGV_ev_id,EMSC_ev_id,ev_nation_code,ev_latitude,ev_longitude,ev_depth_km,ev_hyp_ref,fm_type_code,ML,ML_ref,Mw,Mw_ref,Ms,Ms_ref,EMEC_Mw,EMEC_Mw_type,EMEC_Mw_ref,event_source_id,es_strike,es_dip,es_rake,es_strike_dip_rake_ref,es_z_top,es_z_top_ref,es_length,es_width,es_geometry_ref,network_code,station_code,location_code,instrument_code,sensor_depth_m,proximity_code,housing_code,installation_code,st_nation_code,st_latitude,st_longitude,st_elevation,ec8_code,ec8_code_method,ec8_code_ref,vs30_m_sec,vs_ref,vs30_calc_method,vs30_meas_type,slope_deg,vs30_m_sec_WA,epi_dist,epi_az,JB_dist,rup_dist,Rx_dist,Ry0_dist,instrument_type_code,late_triggered_flag_01,U_channel_code,U_azimuth_deg,V_channel_code,V_azimuth_deg,W_channel_code,U_hp,V_hp,W_hp,U_lp,V_lp,W_lp,U_pga,V_pga,W_pga,rotD50_pga,rotD100_pga,rotD00_pga,U_pgv,V_pgv,W_pgv,rotD50_pgv,rotD100_pgv,rotD00_pgv,U_pgd,V_pgd,w_pgd,rotD50_pgd,rotD100_pgd,rotD00_pgd,U_T90,V_T90,W_T90,rotD50_T90,rotD100_T90,rotD00_T90,U_housner,V_housner,W_housner,rotD50_housner,rotD100_housner,rotD00_housner,U_CAV,V_CAV,W_CAV,rotD50_CAV,rotD100_CAV,rotD00_CAV,U_ia,V_ia,W_ia,rotD50_ia,rotD100_ia,rotD00_ia,U_T0_010,U_T0_025,U_T0_040,U_T0_050,U_T0_070,U_T0_100,U_T0_150,U_T0_200,U_T0_250,U_T0_300,U_T0_350,U_T0_400,U_T0_450,U_T0_500,U_T0_600,U_T0_700,U_T0_750,U_T0_800,U_T0_900,U_T1_000,U_T1_200,U_T1_400,U_T1_600,U_T1_800,U_T2_000,U_T2_500,U_T3_000,U_T3_500,U_T4_000,U_T4_500,U_T5_000,U_T6_000,U_T7_000,U_T8_000,U_T9_000,U_T10_000,V_T0_010,V_T0_025,V_T0_040,V_T0_050,V_T0_070,V_T0_100,V_T0_150,V_T0_200,V_T0_250,V_T0_300,V_T0_350,V_T0_400,V_T0_450,V_T0_500,V_T0_600,V_T0_700,V_T0_750,V_T0_800,V_T0_900,V_T1_000,V_T1_200,V_T1_400,V_T1_600,V_T1_800,V_T2_000,V_T2_500,V_T3_000,V_T3_500,V_T4_000,V_T4_500,V_T5_000,V_T6_000,V_T7_000,V_T8_000,V_T9_000,V_T10_000,W_T0_010,W_T0_025,W_T0_040,W_T0_050,W_T0_070,W_T0_100,W_T0_150,W_T0_200,W_T0_250,W_T0_300,W_T0_350,W_T0_400,W_T0_450,W_T0_500,W_T0_600,W_T0_700,W_T0_750,W_T0_800,W_T0_900,W_T1_000,W_T1_200,W_T1_400,W_T1_600,W_T1_800,W_T2_000,W_T2_500,W_T3_000,W_T3_500,W_T4_000,W_T4_500,W_T5_000,W_T6_000,W_T7_000,W_T8_000,W_T9_000,W_T10_000,rotD50_T0_010,rotD50_T0_025,rotD50_T0_040,rotD50_T0_050,rotD50_T0_070,rotD50_T0_100,rotD50_T0_150,rotD50_T0_200,rotD50_T0_250,rotD50_T0_300,rotD50_T0_350,rotD50_T0_400,rotD50_T0_450,rotD50_T0_500,rotD50_T0_600,rotD50_T0_700,rotD50_T0_750,rotD50_T0_800,rotD50_T0_900,rotD50_T1_000,rotD50_T1_200,rotD50_T1_400,rotD50_T1_600,rotD50_T1_800,rotD50_T2_000,rotD50_T2_500,rotD50_T3_000,rotD50_T3_500,rotD50_T4_000,rotD50_T4_500,rotD50_T5_000,rotD50_T6_000,rotD50_T7_000,rotD50_T8_000,rotD50_T9_000,rotD50_T10_000
TR-2019-0001,26/09/2019 10:59:25,,,,,MR,40.882,28.214,7.97,,U,,,5.8,,,,5.8,,,,276,55,145,AFAD,4.711,GW,8.7,7.25,,TR,630,0,,,,,,TR,39.924,32.846,966,B,VS30,Vs30_ref,195,AFAD,0,MASW,1.378408653,362.91,406.3625,103.6820,403.0695,402.9480,-368.7047,162.8397,,,,,,,,,,,,,,3.29100000E-01,3.72780000E-01,1.45760000E-01,3.58032557E-01,,,6.58356311E-02,8.95459668E-02,3.96512940E-02,7.48221750E-02,,,3.80924751E-02,2.46583022E-02,2.41963887E-02,3.03650896E-02,,,59.3700,70.0400,92.6700,,,,0.35029924,0.33714636,0.14628485,,,,4.84478826,4.14127707,2.59886042,,,,0.00074381,0.00057167,0.00016019,,,,3.28924553E-01,3.54591242E-01,3.35151103E-01,3.34533823E-01,3.42523222E-01,3.46305489E-01,3.37751171E-01,3.63597760E-01,3.80642834E-01,3.75436558E-01,3.93318628E-01,4.90426419E-01,5.73079830E-01,6.70822857E-01,9.18541999E-01,9.41653654E-01,9.95138638E-01,9.90098284E-01,1.09236102E+00,1.21205493E+00,1.08945831E+00,1.21584805E+00,5.97675921E-01,5.72684484E-01,5.84337204E-01,3.82510320E-01,2.98040215E-01,1.88842820E-01,1.46242641E-01,1.32248996E-01,1.38335237E-01,5.09084039E-02,3.93957591E-02,2.21492888E-02,1.51704538E-02,1.26923827E-02,3.72702460E-01,3.83414994E-01,4.02701215E-01,3.87517142E-01,3.88538812E-01,3.88989810E-01,3.86739403E-01,3.94176794E-01,4.21979607E-01,4.77214576E-01,5.43118633E-01,5.93216944E-01,6.64450218E-01,8.20997355E-01,1.03821074E+00,1.20621411E+00,9.76835050E-01,8.78054223E-01,8.06237125E-01,7.83241007E-01,1.11332663E+00,1.03573396E+00,6.68052737E-01,4.19679648E-01,4.40571927E-01,6.32883372E-01,2.38141295E-01,1.27217724E-01,1.03094103E-01,9.58777332E-02,8.24840939E-02,5.69438543E-02,3.21661244E-02,1.84114180E-02,1.38861331E-02,1.09166053E-02,1.45626095E-01,2.08001128E-01,2.29033295E-01,1.96204262E-01,3.38334377E-01,3.60151098E-01,1.68897526E-01,1.66235242E-01,1.67362674E-01,1.87544555E-01,2.72340908E-01,2.17223050E-01,2.27316920E-01,2.61237244E-01,2.59004599E-01,2.68374083E-01,2.53988927E-01,2.68320261E-01,2.75223570E-01,4.50389995E-01,4.40301505E-01,4.29552963E-01,2.88053652E-01,2.22232718E-01,2.00450845E-01,3.20564264E-01,2.19325737E-01,1.42357972E-01,8.60264513E-02,8.27918801E-02,8.56799468E-02,6.52718959E-02,2.58946560E-02,2.00544172E-02,1.45997921E-02,9.97805494E-03,3.57868810E-01,3.60220131E-01,3.75668667E-01,3.67286527E-01,3.62013328E-01,3.68399990E-01,3.65990060E-01,3.88238580E-01,3.98801010E-01,4.43412190E-01,5.11503440E-01,5.72257970E-01,5.82263290E-01,7.39995980E-01,9.08074780E-01,9.61645800E-01,9.88475780E-01,9.23257260E-01,9.25951850E-01,9.33424920E-01,1.05992974E+00,1.16114727E+00,6.37230273E-01,5.66619309E-01,5.16475587E-01,5.63665519E-01,2.69962353E-01,1.69555736E-01,1.15074127E-01,1.10452910E-01,1.20420121E-01,5.42826793E-02,3.39435705E-02,2.08473957E-02,1.45261215E-02,1.18106592E-02
TR-2019-0001,26/09/2019 10:59:25,,,,,MR,40.882,28.214,7.97,,U,,,5.8,,,,5.8,,,,276,55,145,AFAD,4.711,GW,8.7,7.25,,TR,631,0,,,,,,TR,40.24,33.031,995,B,VS30,Vs30_ref,218,AFAD,0,MASW,0.68898656,342.51,413.0771,98.3747,409.4859,409.3615,-357.4630,199.6818,,,,,,,,,,,,,,6.28210000E-01,5.82270000E-01,4.85000000E-01,6.30061761E-01,,,1.68459830E-01,1.99839567E-01,1.12026121E-01,1.80435649E-01,,,8.71961456E-02,7.95191919E-02,7.76998694E-02,8.11471219E-02,,,79.2100,66.5700,76.1700,,,,1.03728317,0.80152333,0.57060109,,,,11.71617858,10.87860466,7.21601691,,,,0.00431429,0.00360627,0.00158071,,,,6.28103911E-01,6.29378231E-01,6.32478673E-01,6.31382822E-01,6.34779125E-01,6.33263016E-01,6.33581449E-01,6.51431384E-01,6.54169460E-01,6.87812537E-01,6.75708659E-01,7.50710595E-01,8.26464324E-01,9.90836869E-01,1.08979322E+00,1.16892491E+00,1.29815625E+00,1.16800224E+00,1.55990104E+00,1.69176798E+00,1.78732107E+00,2.47859071E+00,2.53277331E+00,2.53137019E+00,2.35579614E+00,2.03205423E+00,1.11034331E+00,6.53784816E-01,3.51696589E-01,2.83305946E-01,2.14699856E-01,1.16313084E-01,8.82269468E-02,6.61479095E-02,5.00941213E-02,3.71585472E-02,5.82211295E-01,5.82832264E-01,5.82232365E-01,5.85825799E-01,5.92838098E-01,5.83362281E-01,5.90494072E-01,5.90778962E-01,6.34830830E-01,6.57553799E-01,6.73295400E-01,6.98211367E-01,7.96794471E-01,8.56738410E-01,1.09902018E+00,1.05041797E+00,1.02467860E+00,1.03412995E+00,1.19957526E+00,1.31928451E+00,1.97817997E+00,2.06388216E+00,1.82120504E+00,1.93876712E+00,1.61478510E+00,1.50330582E+00,1.29835594E+00,8.49855171E-01,4.44835761E-01,4.56947339E-01,3.32721245E-01,1.52237776E-01,1.06602307E-01,7.78142865E-02,5.55337981E-02,3.89054668E-02,4.84913979E-01,4.89108995E-01,5.52123138E-01,7.20620864E-01,1.21456951E+00,8.65839653E-01,4.78528838E-01,4.86522792E-01,5.17775936E-01,5.13251968E-01,5.72200992E-01,5.78821058E-01,5.76567179E-01,5.71048138E-01,5.97450055E-01,8.24522471E-01,7.96411085E-01,8.02273347E-01,9.39669615E-01,1.05143009E+00,1.25676969E+00,2.16856029E+00,2.30879769E+00,1.49359367E+00,9.74151893E-01,3.80428223E-01,3.33910201E-01,1.88147286E-01,1.33689512E-01,1.32886244E-01,9.63539871E-02,6.58512469E-02,3.05268970E-02,2.20157928E-02,1.78651598E-02,1.42833385E-02,6.29983654E-01,6.30420408E-01,6.33153228E-01,6.35391572E-01,6.35026169E-01,6.39017620E-01,6.38833970E-01,6.50853880E-01,6.63462570E-01,6.76343270E-01,6.79614300E-01,7.51038450E-01,8.07646450E-01,8.87275230E-01,1.05201754E+00,1.16595345E+00,1.18389454E+00,1.13045513E+00,1.29084469E+00,1.50477090E+00,1.78370839E+00,2.14089697E+00,2.21713442E+00,2.40101287E+00,1.95043436E+00,1.78426433E+00,1.25311789E+00,7.48903356E-01,3.98352514E-01,3.60695249E-01,3.05727391E-01,1.29810491E-01,9.73011271E-02,6.56216247E-02,4.97814541E-02,3.59666366E-02
TR-2019-0001,26/09/2019 10:59:25,,,,,MR,40.882,28.214,7.97,,U,,,5.8,,,,5.8,,,,276,55,145,AFAD,4.711,GW,8.7,7.25,,TR,632,0,,,,,,TR,40.183,31.362,989,B,VS30,Vs30_ref,545.2702026,WA2007,0,TOPO,2.662258298,545.27,277.1416,105.2543,273.9943,273.9335,-254.0053,102.7353,,,,,,,,,,,,,,1.29010000E+00,1.15920000E+00,9.34060000E-01,1.27741780E+00,,,3.52055036E-01,2.83083344E-01,2.77224893E-01,3.08113818E-01,,,1.03524768E-01,8.04603672E-02,9.04798377E-02,9.86127306E-02,,,50.4200,53.7000,61.6100,,,,1.66199399,1.27364491,1.22728599,,,,15.70149383,16.29702527,11.45722287,,,,0.00725607,0.00633878,0.00362521,,,,1.28969632E+00,1.29540274E+00,1.30311972E+00,1.30170480E+00,1.29978007E+00,1.30580256E+00,1.48274391E+00,1.55075826E+00,1.39547483E+00,1.90446651E+00,2.59090952E+00,2.96134513E+00,2.66860542E+00,2.38756068E+00,2.12568469E+00,2.20755703E+00,2.44108051E+00,2.65319946E+00,2.74850682E+00,2.81825246E+00,3.03345308E+00,3.80769023E+00,4.30493447E+00,4.15099724E+00,4.24534928E+00,2.09668775E+00,9.13570562E-01,5.64901236E-01,3.81758486E-01,2.47056919E-01,1.92194621E-01,1.25630773E-01,8.97715838E-02,6.95923142E-02,5.33503591E-02,4.28668902E-02,1.15891655E+00,1.16267125E+00,1.16562776E+00,1.16289249E+00,1.16652565E+00,1.20857114E+00,1.29769364E+00,1.26527673E+00,1.45522118E+00,1.56492786E+00,1.57517547E+00,1.92438469E+00,1.83232277E+00,2.00319915E+00,2.87950691E+00,2.56684557E+00,2.17747064E+00,2.52851929E+00,1.97212329E+00,2.20492504E+00,2.82194930E+00,3.41556215E+00,3.70465531E+00,3.15942351E+00,2.34172950E+00,1.77317023E+00,7.84696482E-01,7.19106788E-01,4.18719701E-01,4.90159886E-01,3.95546188E-01,1.62618245E-01,9.66049459E-02,5.86936651E-02,4.03582173E-02,3.41146166E-02,9.33775030E-01,9.38530788E-01,9.44041450E-01,9.48882761E-01,9.55421990E-01,9.64197127E-01,9.48593037E-01,1.08009895E+00,9.78962348E-01,1.22976707E+00,1.24504418E+00,1.22708444E+00,1.02269735E+00,1.23282063E+00,1.25447596E+00,1.60995880E+00,1.54082467E+00,1.56806984E+00,1.57055928E+00,1.70159481E+00,1.48609618E+00,2.64405217E+00,3.09790266E+00,3.00612683E+00,3.15068577E+00,2.33668175E+00,1.06609322E+00,6.37216645E-01,4.64815278E-01,3.38983371E-01,2.44212171E-01,1.52706103E-01,1.04496792E-01,7.11278641E-02,5.29634401E-02,4.16136352E-02,1.27714788E+00,1.28564266E+00,1.29210295E+00,1.28474423E+00,1.28585501E+00,1.30058305E+00,1.33296928E+00,1.52277648E+00,1.45911804E+00,1.70008436E+00,2.26111273E+00,2.52068872E+00,2.24057542E+00,2.09874549E+00,2.57974429E+00,2.39647890E+00,2.17535375E+00,2.55574381E+00,2.20091644E+00,2.57762277E+00,2.90968658E+00,3.62829969E+00,4.00083982E+00,3.59327279E+00,3.42974323E+00,2.07357021E+00,8.75516034E-01,6.47601332E-01,3.96418039E-01,3.56572258E-01,3.12198700E-01,1.46638156E-01,9.19775343E-02,6.42240418E-02,4.92260583E-02,3.94402135E-02
TR-2019-0001,26/09/2019 10:59:25,,,,,MR,40.882,28.214,7.97,,U,,,5.8,,,,5.8,,,,276,55,145,AFAD,4.711,GW,8.7,7.25,,TR,635,0,,,,,,TR,40.212,32.244,742,B,VS30,Vs30_ref,402.8376465,WA2007,0,TOPO,1.427261735,402.84,348.5264,101.0225,345.1092,345.0137,-309.0075,153.6449,,,,,,,,,,,,,,5.94100000E-01,7.32670000E-01,3.10250000E-01,6.70664779E-01,,,1.09292062E-01,1.58928357E-01,6.32311529E-02,1.28243915E-01,,,2.62134292E-02,4.79496812E-02,2.73107514E-02,3.66581667E-02,,,85.1800,83.4400,105.7600,,,,0.53372524,0.59755378,0.33526834,,,,11.78982586,10.22313271,6.13123862,,,,0.00255361,0.00213005,0.00065107,,,,5.93867921E-01,6.03723837E-01,7.12748089E-01,7.85004095E-01,6.74967125E-01,5.64994961E-01,5.89653228E-01,5.97335315E-01,6.09649616E-01,6.80511709E-01,9.04161969E-01,1.09701553E+00,1.56361363E+00,1.57712039E+00,1.27444753E+00,2.12180567E+00,2.16675534E+00,2.00866772E+00,2.05400860E+00,2.00519369E+00,1.27111882E+00,1.23914008E+00,1.00547251E+00,1.06953168E+00,8.21808094E-01,6.11873085E-01,4.02467858E-01,1.57614943E-01,1.33966765E-01,1.22813246E-01,1.28633933E-01,9.33980090E-02,3.82805793E-02,2.64993257E-02,1.99881719E-02,1.36611738E-02,7.32555062E-01,7.33638306E-01,7.51984633E-01,7.91823884E-01,7.50109184E-01,7.51277345E-01,7.39175618E-01,8.63986738E-01,8.82248277E-01,8.46418376E-01,1.17405187E+00,1.06237757E+00,1.15365703E+00,1.20261362E+00,1.95308902E+00,1.52160351E+00,1.59345296E+00,1.33850908E+00,1.82879442E+00,2.36611652E+00,1.67255382E+00,1.78449005E+00,1.53503205E+00,9.22829015E-01,8.26680291E-01,7.07340093E-01,3.58705785E-01,3.49998796E-01,1.91123138E-01,1.23665054E-01,9.08588244E-02,7.71486680E-02,5.75659386E-02,3.89198369E-02,2.78735958E-02,2.12216025E-02,3.10184500E-01,3.10221898E-01,5.45375015E-01,3.18619199E-01,4.17853672E-01,3.16848285E-01,3.29842875E-01,3.48623103E-01,3.96870267E-01,3.73656897E-01,4.97968838E-01,4.63878611E-01,5.66794351E-01,5.63639202E-01,7.24976336E-01,6.70806834E-01,7.22548144E-01,8.14538014E-01,6.56896011E-01,7.16765622E-01,6.76252902E-01,5.37554204E-01,7.45889194E-01,8.35814407E-01,7.30090153E-01,5.64124605E-01,2.99568516E-01,1.84497799E-01,1.40044858E-01,1.30917970E-01,1.31771010E-01,1.02487642E-01,4.11676532E-02,2.77270240E-02,1.80281268E-02,1.18124543E-02,6.70427863E-01,6.79675772E-01,7.15313753E-01,7.97670493E-01,6.99459675E-01,6.58630620E-01,6.63499920E-01,7.54247310E-01,7.20693920E-01,8.21338210E-01,1.06345732E+00,1.08185374E+00,1.17065432E+00,1.26352439E+00,1.49713421E+00,1.76293326E+00,1.96996330E+00,1.72258554E+00,1.94318636E+00,2.20361541E+00,1.48569711E+00,1.60674151E+00,1.20381917E+00,9.57661874E-01,8.24244193E-01,6.71244162E-01,3.75668777E-01,2.63769972E-01,1.68655222E-01,1.29825840E-01,1.11637428E-01,7.82756667E-02,4.78185674E-02,2.87684755E-02,2.07880855E-02,1.60548419E-02
TR-2019-0001,26/09/2019 10:59:25,,,,,MR,40.882,28.214,7.97,,U,,,5.8,,,,5.8,,,,276,55,145,AFAD,4.711,GW,8.7,7.25,,TR,636,0,,,,,,TR,38.937,33.54,1132,B,VS30,Vs30_ref,403.0275879,WA2007,0,TOPO,1.591023513,403.03,502.9958,113.7298,500.2698,500.1070,-485.8767,119.4443,,,,,,,,,,,,,,2.03400000E-01,2.16640000E-01,8.54320000E-02,2.10055042E-01,,,7.43738352E-02,6.75782318E-02,2.48003070E-02,7.04711340E-02,,,3.44606230E-02,2.19938615E-02,1.45451771E-02,2.92292207E-02,,,84.2900,88.5900,121.9300,,,,0.28986795,0.30060183,0.10028092,,,,4.54195353,4.14677030,1.76681017,,,,0.00039824,0.00034398,0.00005219,,,,2.03378919E-01,2.07770840E-01,2.07810899E-01,2.01990221E-01,2.05592594E-01,2.00741702E-01,2.02063539E-01,2.02724881E-01,2.03661079E-01,2.13427622E-01,2.15298761E-01,2.04425405E-01,2.04809341E-01,2.41986192E-01,2.66673933E-01,2.78086227E-01,2.71206701E-01,2.42982699E-01,2.73326843E-01,2.97372866E-01,4.29298301E-01,4.91437241E-01,5.49936545E-01,7.69037647E-01,7.99410042E-01,6.59767237E-01,4.38580037E-01,2.95261419E-01,1.67612884E-01,1.20961130E-01,1.18666482E-01,7.36381767E-02,4.89471220E-02,3.20586228E-02,2.24228593E-02,1.71181596E-02,2.16602019E-01,2.18715825E-01,2.20958113E-01,2.17864190E-01,2.17439399E-01,2.16984773E-01,2.19194602E-01,2.20811837E-01,2.26082965E-01,2.35692319E-01,2.37094886E-01,2.29177399E-01,2.36639325E-01,2.39853996E-01,2.77772291E-01,2.45676233E-01,2.51083212E-01,2.46290467E-01,3.57197611E-01,4.59017086E-01,4.12956746E-01,3.75366942E-01,5.94261468E-01,7.65971029E-01,1.01282740E+00,5.13707075E-01,3.59478968E-01,1.95975234E-01,1.25897817E-01,1.06723835E-01,8.63888373E-02,5.21066751E-02,2.97643128E-02,1.68333387E-02,1.32498991E-02,9.93419635E-03,8.54035619E-02,8.77708197E-02,9.22104413E-02,8.90724299E-02,8.52705932E-02,8.31557147E-02,8.38918070E-02,8.16182723E-02,8.26926659E-02,8.15717460E-02,8.16620666E-02,8.15812090E-02,8.74160235E-02,1.06281023E-01,1.09422597E-01,1.11086488E-01,1.05740420E-01,1.17731681E-01,1.32175014E-01,1.33926179E-01,2.06768208E-01,2.30737940E-01,2.46717070E-01,1.93315048E-01,2.15873846E-01,2.36581116E-01,1.66150132E-01,1.27193968E-01,6.61499396E-02,3.43709126E-02,4.98357790E-02,4.48567690E-02,3.82160569E-02,1.90034021E-02,1.24389813E-02,8.42126647E-03,2.10027416E-01,2.13328646E-01,2.14753977E-01,2.09872898E-01,2.11771549E-01,2.09185650E-01,2.10768530E-01,2.11694640E-01,2.15059290E-01,2.24757440E-01,2.25897660E-01,2.16905480E-01,2.21296830E-01,2.40920090E-01,2.72268420E-01,2.62161020E-01,2.61008700E-01,2.47599540E-01,3.19779300E-01,3.94864700E-01,4.11823418E-01,4.57530565E-01,5.39709746E-01,7.54876567E-01,8.77902552E-01,6.40525073E-01,4.10089243E-01,2.77819339E-01,1.50538876E-01,1.15944308E-01,1.07198671E-01,6.43362756E-02,4.53941275E-02,2.59963544E-02,1.84345774E-02,1.41575616E-02
TR-2019-0001,26/09/2019 10:59:25,,,,,MR,40.882,28.214,7.97,,U,,,5.8,,,,5.8,,,,276,55,145,AFAD,4.711,GW,8.7,7.25,,TR,638,0,,,,,,TR,39.553,33.122,987,B,VS30,Vs30_ref,566.8326416,WA2007,0,TOPO,5.225011836,566.83,442.0718,107.9258,439.0137,438.8766,-413.6131,147.2159,,,,,,,,,,,,,,2.55290000E-01,1.37340000E-01,1.09710000E-01,1.86836984E-01,,,6.27715715E-02,4.90908679E-02,4.25232474E-02,6.06441513E-02,,,2.73276584E-02,1.15620211E-01,1.85091512E-02,8.21862359E-02,,,87.3800,124.3400,115.9700,,,,0.27378980,0.19450002,0.16755529,,,,3.61360891,3.64536362,3.04191975,,,,0.00025533,0.00021532,0.00015122,,,,2.55224285E-01,2.55751420E-01,3.04636387E-01,2.83892519E-01,2.61442384E-01,2.55896590E-01,2.54363815E-01,2.60487721E-01,2.59247083E-01,2.52637823E-01,2.99716698E-01,3.26741538E-01,3.09197293E-01,2.96785299E-01,3.16349907E-01,3.80251969E-01,3.06296788E-01,3.48982110E-01,5.39739258E-01,5.41268283E-01,6.08184599E-01,8.19744345E-01,7.55434963E-01,5.59185789E-01,4.89227507E-01,5.05742696E-01,2.67685365E-01,2.16225531E-01,1.41575736E-01,1.06420536E-01,1.09163383E-01,6.29518684E-02,3.15296649E-02,1.87845671E-02,1.48800466E-02,1.18172372E-02,1.37299625E-01,1.37994516E-01,1.63025827E-01,2.37434730E-01,1.42295000E-01,2.02396165E-01,1.36681453E-01,1.43417235E-01,1.42538799E-01,1.54108500E-01,1.57014036E-01,1.61148579E-01,1.84449656E-01,1.81228464E-01,2.35947180E-01,2.38939248E-01,2.45288254E-01,2.80557456E-01,3.40248020E-01,3.97899712E-01,3.93209450E-01,4.47517882E-01,5.13548053E-01,4.05229820E-01,4.44390857E-01,3.42555126E-01,3.41848145E-01,2.13603948E-01,1.44305578E-01,2.08559105E-01,1.76366589E-01,7.53378859E-02,4.63621421E-02,2.60454876E-02,1.76964543E-02,1.30920496E-02,1.09700032E-01,1.11595221E-01,1.10031128E-01,1.12836425E-01,1.10499588E-01,1.09101562E-01,1.11742339E-01,1.12235149E-01,1.12502495E-01,1.14348687E-01,1.19716453E-01,1.21996454E-01,1.15978712E-01,1.25314674E-01,1.27197012E-01,1.46848502E-01,1.53425506E-01,1.52953212E-01,1.84652250E-01,2.39823335E-01,2.22744785E-01,2.63971747E-01,3.39862905E-01,3.66822770E-01,4.53772634E-01,4.27030734E-01,3.09897126E-01,2.66963315E-01,1.65863650E-01,1.01333121E-01,8.77151548E-02,8.78717970E-02,4.84719447E-02,2.21785108E-02,1.39705372E-02,9.99683257E-03,1.86808512E-01,1.89844978E-01,2.61192612E-01,2.48127045E-01,1.92700546E-01,2.10635490E-01,1.85150820E-01,1.87611750E-01,1.92584600E-01,1.91814280E-01,2.17825400E-01,2.35776400E-01,2.25824620E-01,2.18565860E-01,2.76785150E-01,2.90482670E-01,3.04309180E-01,3.44827670E-01,3.92084960E-01,4.06134100E-01,4.78854920E-01,6.02189611E-01,5.97851829E-01,4.51217389E-01,4.47998880E-01,3.81361853E-01,3.28658519E-01,2.11205184E-01,1.45481499E-01,1.61801186E-01,1.57008504E-01,7.82244880E-02,4.78380672E-02,2.16376768E-02,1.59229002E-02,1.23499715E-02
