event_id,event_time,ISC_ev_id,USGS_ev_id,INGV_ev_id,EMSC_ev_id,ev_nation_code,ev_latitude,ev_longitude,ev_depth_km,ev_hyp_ref,fm_type_code,ML,ML_ref,Mw,Mw_ref,Ms,Ms_ref,EMEC_Mw,EMEC_Mw_type,EMEC_Mw_ref,event_source_id,es_strike,es_dip,es_rake,es_strike_dip_rake_ref,es_z_top,es_z_top_ref,es_length,es_width,es_geometry_ref,network_code,station_code,location_code,instrument_code,sensor_depth_m,proximity_code,housing_code,installation_code,st_nation_code,st_latitude,st_longitude,st_elevation,ec8_code,ec8_code_method,ec8_code_ref,vs30_m_sec,vs_ref,vs30_calc_method,vs30_meas_type,slope_deg,vs30_m_sec_WA,epi_dist,epi_az,JB_dist,rup_dist,Rx_dist,Ry0_dist,instrument_type_code,late_triggered_flag_01,U_channel_code,U_azimuth_deg,V_channel_code,V_azimuth_deg,W_channel_code,U_hp,V_hp,W_hp,U_lp,V_lp,W_lp,U_pga,V_pga,W_pga,rotD50_pga,rotD100_pga,rotD00_pga,U_pgv,V_pgv,W_pgv,rotD50_pgv,rotD100_pgv,rotD00_pgv,U_pgd,V_pgd,w_pgd,rotD50_pgd,rotD100_pgd,rotD00_pgd,U_T90,V_T90,W_T90,rotD50_T90,rotD100_T90,rotD00_T90,U_housner,V_housner,W_housner,rotD50_housner,rotD100_housner,rotD00_housner,U_CAV,V_CAV,W_CAV,rotD50_CAV,rotD100_CAV,rotD00_CAV,U_ia,V_ia,W_ia,rotD50_ia,rotD100_ia,rotD00_ia,U_T0_010,U_T0_025,U_T0_040,U_T0_050,U_T0_070,U_T0_100,U_T0_150,U_T0_200,U_T0_250,U_T0_300,U_T0_350,U_T0_400,U_T0_450,U_T0_500,U_T0_600,U_T0_700,U_T0_750,U_T0_800,U_T0_900,U_T1_000,U_T1_200,U_T1_400,U_T1_600,U_T1_800,U_T2_000,U_T2_500,U_T3_000,U_T3_500,U_T4_000,U_T4_500,U_T5_000,U_T6_000,U_T7_000,U_T8_000,U_T9_000,U_T10_000,V_T0_010,V_T0_025,V_T0_040,V_T0_050,V_T0_070,V_T0_100,V_T0_150,V_T0_200,V_T0_250,V_T0_300,V_T0_350,V_T0_400,V_T0_450,V_T0_500,V_T0_600,V_T0_700,V_T0_750,V_T0_800,V_T0_900,V_T1_000,V_T1_200,V_T1_400,V_T1_600,V_T1_800,V_T2_000,V_T2_500,V_T3_000,V_T3_500,V_T4_000,V_T4_500,V_T5_000,V_T6_000,V_T7_000,V_T8_000,V_T9_000,V_T10_000,W_T0_010,W_T0_025,W_T0_040,W_T0_050,W_T0_070,W_T0_100,W_T0_150,W_T0_200,W_T0_250,W_T0_300,W_T0_350,W_T0_400,W_T0_450,W_T0_500,W_T0_600,W_T0_700,W_T0_750,W_T0_800,W_T0_900,W_T1_000,W_T1_200,W_T1_400,W_T1_600,W_T1_800,W_T2_000,W_T2_500,W_T3_000,W_T3_500,W_T4_000,W_T4_500,W_T5_000,W_T6_000,W_T7_000,W_T8_000,W_T9_000,W_T10_000,rotD50_T0_010,rotD50_T0_025,rotD50_T0_040,rotD50_T0_050,rotD50_T0_070,rotD50_T0_100,rotD50_T0_150,rotD50_T0_200,rotD50_T0_250,rotD50_T0_300,rotD50_T0_350,rotD50_T0_400,rotD50_T0_450,rotD50_T0_500,rotD50_T0_600,rotD50_T0_700,rotD50_T0_750,rotD50_T0_800,rotD50_T0_900,rotD50_T1_000,rotD50_T1_200,rotD50_T1_400,rotD50_T1_600,rotD50_T1_800,rotD50_T2_000,rotD50_T2_500,rotD50_T3_000,rotD50_T3_500,rotD50_T4_000,rotD50_T4_500,rotD50_T5_000,rotD50_T6_000,rotD50_T7_000,rotD50_T8_000,rotD50_T9_000,rotD50_T10_000
TR-2019-0001,26/09/2019 10:59:25,,,,,MR,40.882,28.214,7.97,,U,,,5.8,,,,5.8,,,,276,55,145,AFAD,4.711,GW,8.7,7.25,,TR,1008,0,,,,,,TR,39.397,28.127,148,B,VS30,Vs30_ref,299.878,AFAD,0,MASW,0.244997019,272.02,165.2678,182.5929,160.8008,160.8149,-94.1342,130.2946,,,,,,,,,,,,,,2.33830000E+00,4.18760000E+00,8.41810000E-01,3.23080144E+00,,,1.98027412E-01,2.50037420E-01,1.12409006E-01,2.31966236E-01,,,4.90459858E-02,6.70952732E-02,5.55632331E-02,6.66941639E-02,,,41.9300,36.2600,66.5600,,,,0.87082867,0.93170381,0.54302431,,,,21.06132192,25.86111615,9.90566721,,,,0.01649972,0.02922989,0.00267977,,,,2.33407095E+00,2.37201882E+00,2.45626596E+00,2.51369951E+00,3.11126705E+00,3.05389353E+00,6.75816474E+00,7.84385068E+00,4.86565294E+00,6.54283351E+00,9.35702229E+00,9.78739348E+00,8.61136050E+00,5.50891565E+00,4.11019890E+00,2.73645778E+00,2.25804014E+00,1.85065487E+00,2.12099166E+00,1.84298986E+00,1.52323113E+00,1.82915695E+00,2.14612295E+00,1.17139698E+00,1.24319836E+00,8.09999312E-01,5.38831680E-01,5.84388350E-01,4.39424125E-01,4.01097080E-01,2.13791198E-01,1.27004275E-01,7.88063676E-02,5.29576134E-02,3.69318531E-02,2.80246846E-02,4.18199535E+00,4.20192267E+00,4.26683620E+00,4.28936083E+00,4.43441737E+00,5.17553106E+00,5.80832516E+00,6.73845178E+00,6.94524753E+00,1.04291622E+01,1.90665974E+01,1.71675549E+01,9.63649523E+00,5.99165585E+00,4.85631145E+00,4.36491670E+00,3.55838973E+00,3.11221873E+00,2.03759648E+00,1.77347239E+00,1.85482890E+00,1.83234058E+00,2.36530893E+00,1.07769840E+00,8.55032349E-01,6.02692391E-01,2.73849317E-01,2.52884768E-01,3.15593551E-01,2.06612916E-01,2.18932310E-01,1.55095189E-01,9.12942530E-02,4.89421255E-02,3.00423071E-02,2.18188713E-02,8.41058697E-01,8.59337661E-01,8.52997380E-01,8.69276195E-01,1.24725254E+00,1.20608647E+00,2.25302856E+00,2.00297601E+00,2.18056206E+00,1.63455669E+00,3.11795652E+00,2.36386261E+00,1.50913792E+00,1.20348925E+00,1.30459989E+00,8.36489139E-01,9.38414685E-01,9.52622355E-01,1.00150269E+00,9.43069899E-01,8.33193145E-01,1.06788470E+00,9.67645354E-01,1.71332868E+00,1.30954145E+00,5.61668991E-01,3.54415351E-01,2.86925694E-01,2.57477685E-01,2.20634744E-01,1.99597608E-01,1.50791800E-01,8.73645080E-02,4.62310391E-02,3.32507151E-02,2.57125056E-02,3.22339849E+00,3.25024662E+00,3.28227572E+00,3.30738019E+00,3.66243682E+00,4.10938358E+00,6.53137867E+00,6.74852349E+00,6.42691090E+00,8.58870679E+00,1.55937676E+01,1.34224811E+01,8.51401746E+00,5.60381358E+00,4.76612156E+00,3.60544212E+00,2.93903258E+00,2.64249155E+00,2.09714764E+00,1.81077072E+00,1.53389596E+00,1.80370422E+00,2.25757503E+00,1.24392862E+00,9.99971721E-01,7.23381307E-01,4.40837232E-01,4.96269392E-01,4.13151322E-01,3.37363994E-01,2.20215878E-01,1.41129903E-01,8.55890986E-02,5.12031906E-02,3.48682751E-02,2.69262910E-02
TR-2019-0001,26/09/2019 10:59:25,,,,,MR,40.882,28.214,7.97,,U,,,5.8,,,,5.8,,,,276,55,145,AFAD,4.711,GW,8.7,7.25,,TR,1009,0,,,,,,TR,39.577,28.632,649,B,VS30,Vs30_ref,560.738,AFAD,0,MASW,2.289753745,477.04,149.3631,166.1211,145.4436,145.4695,-115.8962,87.7857,,,,,,,,,,,,,,2.24630000E+00,1.40860000E+00,1.51400000E+00,1.81210366E+00,,,4.01091837E-01,2.78160692E-01,2.61989085E-01,3.57970030E-01,,,1.15610767E-01,6.77351940E-02,7.36250317E-02,1.02337654E-01,,,27.0300,45.5000,45.9000,,,,1.77226898,1.06042730,1.05478804,,,,13.78528864,11.98312330,11.77318538,,,,0.01012625,0.00580173,0.00624840,,,,2.24489866E+00,2.24504478E+00,2.25826205E+00,2.26737772E+00,2.39072978E+00,2.39214243E+00,2.91472061E+00,3.11823264E+00,2.95138931E+00,2.99284067E+00,3.53606218E+00,4.09583202E+00,3.30701278E+00,4.29186281E+00,3.88494861E+00,3.85618880E+00,3.58769486E+00,3.52074601E+00,3.69691898E+00,4.52589904E+00,6.77432715E+00,5.26384641E+00,4.48813864E+00,3.34925837E+00,2.37485439E+00,2.26967568E+00,9.59338402E-01,6.74940520E-01,5.90690836E-01,4.10559371E-01,3.15191656E-01,1.98606946E-01,1.27379175E-01,8.57885296E-02,6.32408256E-02,4.98157726E-02,1.40681286E+00,1.41629021E+00,1.51576259E+00,1.59889433E+00,1.64020366E+00,1.89165224E+00,3.18871903E+00,3.42324689E+00,3.25941397E+00,2.96402633E+00,2.90055402E+00,2.86622509E+00,2.61673659E+00,2.15741700E+00,2.68180545E+00,2.17851089E+00,2.06429388E+00,2.58965338E+00,2.63788077E+00,2.98659794E+00,2.84005687E+00,2.08008103E+00,1.95187319E+00,1.54180092E+00,2.13081547E+00,1.82110886E+00,8.57672643E-01,5.47512703E-01,3.36824995E-01,2.76231371E-01,2.19366623E-01,1.98614240E-01,1.04493927E-01,6.18261187E-02,4.50529010E-02,3.39262505E-02,1.51298611E+00,1.51420712E+00,1.52817675E+00,1.55784053E+00,1.69533305E+00,2.26220571E+00,3.37155781E+00,3.67078828E+00,2.71533292E+00,2.33044396E+00,2.20883105E+00,1.84173304E+00,2.17100069E+00,2.19636890E+00,2.46387524E+00,2.91587159E+00,2.45328774E+00,2.56539578E+00,2.86085812E+00,3.39233933E+00,5.24374767E+00,4.25100102E+00,2.43781288E+00,1.40089444E+00,1.09060361E+00,7.59023078E-01,6.25801230E-01,3.64844751E-01,4.05667665E-01,2.66192894E-01,2.45716456E-01,1.05322354E-01,7.24837896E-02,5.60523705E-02,4.40228658E-02,3.42847081E-02,1.80994418E+00,1.81248937E+00,1.84789211E+00,1.96604935E+00,1.99340507E+00,2.04058760E+00,2.97625905E+00,3.11794801E+00,2.97266227E+00,2.97843350E+00,3.20131469E+00,3.51469792E+00,2.90936047E+00,3.25830359E+00,3.10110025E+00,2.91777104E+00,2.71559383E+00,3.08367358E+00,2.96299306E+00,3.55625208E+00,5.33361479E+00,3.87135180E+00,3.41779895E+00,2.45393990E+00,2.28825545E+00,2.07987459E+00,9.08915058E-01,6.12989186E-01,4.49028795E-01,3.51296057E-01,2.66096794E-01,1.97729120E-01,1.19999236E-01,7.63285876E-02,5.80866195E-02,4.55659548E-02
TR-2019-0001,26/09/2019 10:59:25,,,,,MR,40.882,28.214,7.97,,U,,,5.8,,,,5.8,,,,276,55,145,AFAD,4.711,GW,8.7,7.25,,TR,1011,0,,,,,,TR,40.336,27.861,174,B,VS30,Vs30_ref,329.988,AFAD,0,MASW,4.166716614,533.60,67.6110,206.2660,63.0311,63.1892,-12.1491,61.8405,,,,,,,,,,,,,,3.39940000E+00,4.46040000E+00,2.13390000E+00,3.75563608E+00,,,2.13130119E-01,2.11478997E-01,1.07946742E-01,2.19316767E-01,,,6.45476235E-02,6.29222693E-02,5.43394500E-02,6.32421475E-02,,,32.0100,31.3800,31.5700,,,,0.79678013,0.77701859,0.30908749,,,,24.11121184,24.69671705,14.06389182,,,,0.03212449,0.03604640,0.01106664,,,,3.38963697E+00,3.41310833E+00,4.24210783E+00,5.03227871E+00,6.22170016E+00,9.76871527E+00,1.21037978E+01,9.95139795E+00,9.90413790E+00,6.99327407E+00,9.17679701E+00,9.35701363E+00,6.38651298E+00,5.77476687E+00,3.79585106E+00,3.22846593E+00,2.28733317E+00,2.60963032E+00,2.23880180E+00,1.84128885E+00,1.42710387E+00,1.19051481E+00,8.37199316E-01,1.15156681E+00,1.07428779E+00,1.00370463E+00,1.10949667E+00,6.61270207E-01,5.27043713E-01,3.48010097E-01,2.77279499E-01,1.66874975E-01,1.11037794E-01,6.07946269E-02,4.27785597E-02,3.17757271E-02,4.44870997E+00,4.52186756E+00,4.78400561E+00,5.39760603E+00,6.63157686E+00,9.12259798E+00,1.04817925E+01,9.07145477E+00,8.59710890E+00,7.45287986E+00,1.06313611E+01,1.09040616E+01,9.38384463E+00,1.05122318E+01,4.84721281E+00,5.57756584E+00,4.86331775E+00,3.89517685E+00,2.71184289E+00,2.58979450E+00,1.33065843E+00,1.11316343E+00,8.12915710E-01,4.53199935E-01,6.46784031E-01,5.15091800E-01,3.66650747E-01,3.46111613E-01,4.94917203E-01,3.81379762E-01,3.41112943E-01,1.90891402E-01,1.00307457E-01,8.10634393E-02,5.07063633E-02,3.34807265E-02,2.12680968E+00,2.20912750E+00,3.05174823E+00,3.24747523E+00,4.78740865E+00,8.77032276E+00,4.78487833E+00,4.29225077E+00,3.71109425E+00,3.42674848E+00,2.88160071E+00,4.28056341E+00,2.63553937E+00,2.21835306E+00,1.27566984E+00,1.05167684E+00,7.89583438E-01,9.02175760E-01,7.67390098E-01,9.31656734E-01,8.26288587E-01,4.43531064E-01,4.50386721E-01,4.10855589E-01,3.49338469E-01,2.90605733E-01,2.98783845E-01,1.86981284E-01,3.57989532E-01,2.65107605E-01,2.98318993E-01,1.43287703E-01,6.70751501E-02,4.20903134E-02,3.09975303E-02,2.17082407E-02,3.74653966E+00,3.82464647E+00,4.36137833E+00,5.15143464E+00,6.84727034E+00,9.39302051E+00,1.13082484E+01,9.65029347E+00,9.54870074E+00,7.69276370E+00,9.94680006E+00,1.00602957E+01,7.75703764E+00,8.71414900E+00,4.68391935E+00,4.22741540E+00,3.87114574E+00,3.44521961E+00,2.58272838E+00,2.02133231E+00,1.38383166E+00,1.15366697E+00,8.14599348E-01,8.82943275E-01,8.61960519E-01,8.23729841E-01,8.02322901E-01,4.91485580E-01,5.00428080E-01,3.49878321E-01,2.93615883E-01,1.67963034E-01,1.01778106E-01,6.70754236E-02,4.54567519E-02,3.19843832E-02
TR-2019-0001,26/09/2019 10:59:25,,,,,MR,40.882,28.214,7.97,,U,,,5.8,,,,5.8,,,,276,55,145,AFAD,4.711,GW,8.7,7.25,,TR,1013,0,,,,,,TR,39.589,27.019,22,B,VS30,Vs30_ref,223.259,AFAD,0,MASW,2.515679332,440.17,175.9350,215.5961,171.5220,171.5289,-5.7598,171.4262,,,,,,,,,,,,,,2.18810000E+00,2.52830000E+00,1.07420000E+00,2.20266388E+00,,,1.77971714E-01,1.85483795E-01,6.93348042E-02,1.82963530E-01,,,3.56263747E-02,4.44499803E-02,4.36151629E-02,3.90114663E-02,,,45.7100,36.4700,86.1600,,,,0.67211043,0.66760785,0.35756042,,,,17.95936349,17.47109789,11.57438949,,,,0.01237817,0.01323302,0.00385188,,,,2.18494882E+00,2.19071848E+00,2.18235783E+00,2.35949941E+00,2.43804892E+00,2.67019836E+00,3.26624221E+00,4.51468725E+00,3.72162654E+00,3.95902687E+00,4.83256173E+00,7.45378754E+00,8.27457081E+00,6.54240101E+00,4.12318487E+00,3.05940366E+00,3.63363705E+00,3.67498969E+00,2.33492042E+00,1.67208327E+00,1.25106683E+00,1.11324530E+00,1.18451750E+00,6.84087634E-01,6.98421938E-01,6.77924594E-01,4.76140855E-01,2.77432841E-01,2.02519189E-01,1.75676190E-01,1.28420147E-01,9.44422075E-02,6.74264542E-02,2.94759884E-02,2.13885225E-02,1.68089017E-02,2.52394490E+00,2.53531171E+00,2.60595536E+00,2.57611524E+00,2.76945227E+00,3.16660194E+00,3.45519479E+00,5.08643045E+00,3.50602465E+00,5.99538646E+00,5.68912478E+00,9.16418274E+00,8.89879038E+00,5.60101141E+00,3.17076573E+00,2.00379962E+00,1.96847783E+00,1.69118541E+00,1.84263299E+00,1.91878144E+00,1.89882463E+00,1.27240676E+00,8.45650297E-01,7.36932928E-01,9.56725473E-01,5.45850701E-01,3.14116473E-01,2.53171234E-01,2.20479087E-01,1.86825756E-01,1.56940140E-01,1.03775848E-01,6.45744758E-02,3.41421904E-02,2.36890720E-02,1.82276115E-02,1.07229164E+00,1.08841546E+00,1.36562888E+00,1.37702409E+00,1.55552683E+00,2.38090081E+00,1.92570658E+00,2.83303864E+00,3.45142966E+00,3.15364996E+00,2.08587454E+00,1.90031430E+00,1.65158398E+00,1.88995081E+00,1.34837293E+00,1.11584616E+00,1.33758718E+00,1.51608997E+00,1.20359335E+00,8.72635157E-01,6.01116394E-01,6.06790565E-01,6.49648796E-01,5.24880327E-01,5.18536677E-01,5.29736025E-01,2.68593371E-01,2.72583440E-01,1.78658710E-01,1.20434552E-01,1.23970613E-01,7.36415641E-02,4.53468263E-02,2.81733761E-02,1.87949303E-02,1.49685715E-02,2.19925412E+00,2.20647475E+00,2.30377997E+00,2.36957500E+00,2.47322335E+00,3.14733271E+00,3.43572571E+00,4.87069872E+00,4.36737786E+00,4.89714526E+00,5.36292722E+00,8.35413804E+00,8.57455259E+00,6.08939165E+00,3.68478805E+00,2.40090529E+00,2.72443670E+00,2.84150644E+00,2.16042139E+00,1.86346107E+00,1.49684502E+00,1.17474820E+00,9.98112617E-01,7.25512018E-01,8.35448849E-01,6.85038025E-01,3.82261233E-01,2.58757067E-01,2.14209446E-01,1.79979650E-01,1.48179167E-01,1.02263382E-01,6.58769935E-02,3.19881406E-02,2.25731849E-02,1.76021861E-02
TR-2019-0001,26/09/2019 10:59:25,,,,,MR,40.882,28.214,7.97,,U,,,5.8,,,,5.8,,,,276,55,145,AFAD,4.711,GW,8.7,7.25,,TR,1018,0,,,,,,TR,40.409,27.787,21,B,VS30,Vs30_ref,555,AFAD,0,MASW,1.279732902,446.32,63.7319,214.5604,59.3082,59.4788,-2.2236,59.2651,,,,,,,,,,,,,,3.17520000E+00,2.35480000E+00,3.18230000E+00,2.88184867E+00,,,1.36277441E-01,1.11330153E-01,1.39883306E-01,1.15567799E-01,,,3.58301729E-02,5.04752188E-02,1.74120472E-01,4.55523250E-02,,,30.6100,32.1500,31.8500,,,,0.47200978,0.46011581,0.45429800,,,,16.30715152,15.44218740,13.35074636,,,,0.01615149,0.01349620,0.01095274,,,,3.16761325E+00,3.26451550E+00,3.74266658E+00,4.97285660E+00,4.73370785E+00,9.58206342E+00,7.90738740E+00,9.24323855E+00,7.41552725E+00,1.05166247E+01,4.89994648E+00,4.15105934E+00,2.99287587E+00,2.12755485E+00,1.92865904E+00,2.18841228E+00,2.28525913E+00,2.03160673E+00,1.26006819E+00,1.04854442E+00,1.31075667E+00,8.99721550E-01,6.81845777E-01,5.22166746E-01,4.89573824E-01,3.19082639E-01,3.06121724E-01,2.56158722E-01,2.35387609E-01,2.35506175E-01,1.67907097E-01,1.14474187E-01,6.99860816E-02,3.97008008E-02,2.19143901E-02,1.39308512E-02,2.34845166E+00,2.41484421E+00,2.63575743E+00,3.43214255E+00,4.62067644E+00,6.18158267E+00,6.36186127E+00,8.20958944E+00,4.65085432E+00,7.88051159E+00,5.19047750E+00,5.94407770E+00,4.74942241E+00,3.42107759E+00,1.82844362E+00,1.60221304E+00,1.11630354E+00,8.55130303E-01,8.67149358E-01,9.28847999E-01,8.85199533E-01,9.12755336E-01,7.60638716E-01,5.76666257E-01,6.25680496E-01,4.21049262E-01,5.14563773E-01,3.69212709E-01,2.62138126E-01,1.88297448E-01,2.24215632E-01,1.51800251E-01,1.38157978E-01,6.55519120E-02,3.61257878E-02,2.64927682E-02,3.17823224E+00,3.22781433E+00,3.39891132E+00,4.33450363E+00,5.27990250E+00,4.48538694E+00,5.61263922E+00,7.34051154E+00,7.67226655E+00,8.31154538E+00,8.58718162E+00,7.81545966E+00,5.81458722E+00,3.99715215E+00,2.05101094E+00,1.56057464E+00,1.53677725E+00,1.62336335E+00,1.13245354E+00,8.19317082E-01,7.22980386E-01,7.36882134E-01,5.96910977E-01,5.17036045E-01,5.45110332E-01,3.14301030E-01,2.82477643E-01,2.57272921E-01,2.46434510E-01,2.36274702E-01,2.53343052E-01,1.46253226E-01,8.28602474E-02,5.87106274E-02,3.30086963E-02,2.11660678E-02,2.87465393E+00,2.94143722E+00,3.27983360E+00,4.18012211E+00,4.68595870E+00,7.79887293E+00,7.03006523E+00,8.85845324E+00,6.57019805E+00,8.89954484E+00,5.16725300E+00,4.94787438E+00,4.42300730E+00,2.91145484E+00,1.86149657E+00,1.95336478E+00,1.71868558E+00,1.58219334E+00,1.08750535E+00,9.90871070E-01,1.14790437E+00,9.18593466E-01,7.12368750E-01,5.18064566E-01,5.64435004E-01,3.87370751E-01,4.22165269E-01,3.44673916E-01,2.54732841E-01,2.14773212E-01,1.98077595E-01,1.33211153E-01,1.06914301E-01,5.40182065E-02,3.10663477E-02,2.16786894E-02
TR-2019-0001,26/09/2019 10:59:25,,,,,MR,40.882,28.214,7.97,,U,,,5.8,,,,5.8,,,,276,55,145,AFAD,4.711,GW,8.7,7.25,,TR,1019,0,,,,,,TR,39.497,26.975,55,B,VS30,Vs30_ref,444,AFAD,0,MASW,0.303655575,271.39,186.5082,214.7536,182.0732,182.0724,-8.9403,181.8531,,,,,,,,,,,,,,1.96720000E+00,1.06610000E+00,6.69750000E-01,1.55146552E+00,,,1.26059688E-01,1.41561217E-01,6.12028069E-02,1.35691571E-01,,,6.46696467E-02,5.53102914E-02,7.42494821E-02,5.61333719E-02,,,49.6200,58.5300,68.8100,,,,0.54071043,0.63587297,0.25555817,,,,12.50415066,11.08862057,7.52308812,,,,0.00588824,0.00417187,0.00162154,,,,1.96142715E+00,2.15387436E+00,2.45380919E+00,3.03669213E+00,2.83783657E+00,3.38740292E+00,3.56302900E+00,5.61131133E+00,4.29463083E+00,5.36687872E+00,4.14958937E+00,3.69748250E+00,3.84999333E+00,2.51961288E+00,1.79299744E+00,1.84760296E+00,1.51374005E+00,1.60648376E+00,2.34085240E+00,1.49808997E+00,1.09506051E+00,8.01531496E-01,6.97902730E-01,7.65077617E-01,8.47700972E-01,7.54722088E-01,4.08071654E-01,1.74935077E-01,1.55595898E-01,1.69197195E-01,1.71305726E-01,1.08457971E-01,6.44644477E-02,4.38752732E-02,2.46358485E-02,1.60670705E-02,1.06428667E+00,1.07084391E+00,1.73142767E+00,1.33578693E+00,1.38468455E+00,1.87002815E+00,3.14925703E+00,3.03840459E+00,3.49327989E+00,2.47137815E+00,1.63901937E+00,2.43455396E+00,1.71176776E+00,1.87526440E+00,1.79309135E+00,2.27066929E+00,2.11276028E+00,1.80997136E+00,1.79775977E+00,1.71812902E+00,1.39487289E+00,1.04124955E+00,8.39977297E-01,1.00393549E+00,1.33304966E+00,1.03340415E+00,4.18161200E-01,2.19776485E-01,1.61728469E-01,1.42331550E-01,1.68708525E-01,8.10436436E-02,5.40759904E-02,3.24256005E-02,2.34153357E-02,1.80406711E-02,6.68089247E-01,7.04411824E-01,7.80084448E-01,7.96191761E-01,1.32040348E+00,1.31263448E+00,1.07099691E+00,1.22851714E+00,1.43129883E+00,1.78082478E+00,1.35406942E+00,1.66805729E+00,1.44458269E+00,9.97071726E-01,6.32786124E-01,8.13173232E-01,7.40129566E-01,6.15049538E-01,5.63383080E-01,5.43439393E-01,7.02137666E-01,7.49804185E-01,6.03915825E-01,4.12975555E-01,3.63021127E-01,2.53650549E-01,2.05683386E-01,1.67535951E-01,1.40285118E-01,1.45342881E-01,1.38209284E-01,8.34804379E-02,4.51435849E-02,2.23629223E-02,1.40569445E-02,1.08509442E-02,1.54691152E+00,1.67635198E+00,2.19847503E+00,2.26356219E+00,2.16074853E+00,2.86802652E+00,3.59564716E+00,4.00660239E+00,3.74947681E+00,3.80988424E+00,3.06399493E+00,3.17757670E+00,3.33238155E+00,2.36005683E+00,1.79304440E+00,2.18038064E+00,1.99966277E+00,1.81816750E+00,1.85779225E+00,1.54545657E+00,1.27767192E+00,9.33080165E-01,7.72878931E-01,8.99620026E-01,1.11734590E+00,9.13035107E-01,4.14322885E-01,2.00001568E-01,1.58433948E-01,1.56081832E-01,1.69704381E-01,9.55235526E-02,5.67861120E-02,3.60626587E-02,2.42011275E-02,1.62461592E-02
