id,event_id,event_time,event_country,event_latitude,event_longitude,hypocenter_depth,magnitude,strike,dip,rake,depth_top_of_rupture,rupture_length,rupture_width,network_code,station_code,location_code,sensor_depth_m,housing_code,station_country,station_latitude,station_longitude,station_elevation,ec8_code,vs30,slope_deg,repi,azimuth,rjb,rrup,rx,ry0,highpass_h1,highpass_h2,lowpass_h1,lowpass_h2,PGA,PGV,PGD,duration_5_95_components,CAV,IA,magnitude_type,vs30measured,z1,z2pt5,rhypo,digital_recording,SA(0.010),SA(0.025),SA(0.040),SA(0.050),SA(0.070),SA(0.100),SA(0.150),SA(0.200),SA(0.250),SA(0.300),SA(0.350),SA(0.400),SA(0.450),SA(0.500),SA(0.600),SA(0.700),SA(0.750),SA(0.800),SA(0.900),SA(1.000),SA(1.200),SA(1.400),SA(1.600),SA(1.800),SA(2.000),SA(2.500),SA(3.000),SA(3.500),SA(4.000),SA(4.500),SA(5.000),SA(6.000),SA(7.000),SA(8.000),SA(9.000),SA(10.000)
316,EMSC-20080722_0000062,2008-07-22 22:36:31,ES,41.933,2.5686,11.8909,3.6,0.0,90.0,0.0,,,,RA,PYBE,00,0.0,,FR,42.8189,1.95083,1080.0,A*,1296.998293,27.132158,110.8,152.5,,,,,0.3,0.3,40.0,40.0,0.317505,0.00710256,0.0003245025,19.745,1.02394300764,0.000114258977441,Mw,False,1.3880783781876225,0.32923871914537445,111.43623065596753,True,0.3511331643579114,0.3815624335885282,0.5178749903692975,0.759836567950635,0.9916261434784784,1.0777995894413765,0.9046291200160428,0.7640380012695703,0.47375588629799625,0.400838180950867,0.2818590634253225,0.2036311064105875,0.13979796618692278,0.12158629445788699,0.07768481173948998,0.06114064939138281,0.051082658427298006,0.04047602156833104,0.029616802106236927,0.024336895796300727,0.015508164688318215,0.008617443298333909,0.006419582385171173,0.00513197447382584,0.004375658807539729,0.00315365835181936,0.002239861156411263,0.0018606270448426787,0.0014719660322167765,0.0012923675947655142,0.0010967451846258546,0.0008372729542986564,0.0007393503905456466,0.0005914355417118589,0.0005218275577238136,0.00047591490836072786
327,EMSC-20080902_0000073,2008-09-02 20:00:51,IR,38.6656,45.8127,2.0617,5.07,0.0,90.0,0.0,,,,IU,GNI,20,100.0,,AM,40.148,44.741,1609.0,,861.645389,11.886995,188.7,150.4,,,,,0.08,0.08,30.0,30.0,0.479308,0.0593335,0.01415635,62.3525,5.45074122469,0.000930576603591,Mw,False,20.139971113775932,0.5256512483051314,188.7112625332415,True,0.40533459288716034,0.4066914396714049,0.4111675453571208,0.4109309574965118,0.41735742909405604,0.48181953870718025,0.7417792767555589,0.9739675748452821,0.859887726045674,0.8187886950392024,1.04693238546718,0.9856020246732451,1.1126178751035773,1.4375481906704901,1.3141772633857276,1.156670956668317,1.0627626498894285,1.0694999812996726,1.0250496542119314,1.044907001603492,0.8164724902285441,0.6266636099136442,0.445846200836118,0.3541883047899803,0.33937362642815955,0.2598214602568464,0.16970596041683392,0.1634734121134076,0.1311509036987546,0.09482040031027078,0.0596089506701804,0.040670033882454534,0.0316937043275159,0.023137210506022545,0.014270399608980822,0.010369976229480953
328,EMSC-20080906_0000060,2008-09-06 19:48:02,RO,45.8001,26.5621,16.7408,4.3,0.0,60.0,-90.0,,,,GE,TIRR,00,3.0,,RO,44.4581,28.4128,77.0,,302.057214,0.383942,208.4,316.3,,,,,0.1,0.1,30.0,30.0,0.07721,0.00618513,0.001075655,49.0475,0.867817235127,2.66758954448e-05,Mw,False,457.1740089475847,1.7437793212006778,209.07131411229042,True,0.0789397002274521,0.08002224745656672,0.08133945968593595,0.08400922897515486,0.09858804373756484,0.10954590956763287,0.18075990203028988,0.24533652711326945,0.2383887420747884,0.21194685706563332,0.22571383626618907,0.19825969377561342,0.21483460171024593,0.21630907312454556,0.18831896957555816,0.12468241183904007,0.11689844777412572,0.10953647096743623,0.08355651094319341,0.07511571901406523,0.05220159614417935,0.051699916489294256,0.04395200359483058,0.028947973607836526,0.025780949788555114,0.014264071929151228,0.00791584663823144,0.007385680875857012,0.004980527180931753,0.003071118851493703,0.002851339860486645,0.003975115092673419,0.0030006785899192867,0.001788082212875012,0.0014299423065284836,0.001111784601440405
343,EMSC-20080917_0000042,2008-09-17 01:09:21,,35.9124,31.6843,89.3929,4.4,0.0,90.0,0.0,,,,GE,CSS,00,0.0,,CY,34.9611,33.331,396.0,,684.436239,6.75297,183.0,305.7,,,,,0.25,0.25,30.0,30.0,0.0329345,0.0009624325,0.000101602,41.235,0.355844539928,4.29640642888e-06,Mw,False,70.6765331241942,0.6840575405419731,203.6666162394073,True,0.033738220492491894,0.03877637489503112,0.1002696342019856,0.12416055745686712,0.07646733961633555,0.08183163688329838,0.06876747047114647,0.06393734992944265,0.055640357205898675,0.044715634849569114,0.042096094735735286,0.03581334511044731,0.03247251508583836,0.024519702363609553,0.01785896346376239,0.015769370183999105,0.016030716453109637,0.015938812377338532,0.011379844594720967,0.008762036863652194,0.005470943245912902,0.0035980411337281845,0.0029570194453198985,0.0023096449943660175,0.0017650444753603235,0.000980961772955501,0.000749985999869331,0.0005299660366476327,0.0004405496566790173,0.0004148831160700565,0.00030108138434649194,0.0001883480820183736,0.00014896979559628857,0.00010246950765959599,7.241546796092669e-05,7.567694497005015e-05
344,EMSC-20081019_0000055,2008-10-19 14:08:00,,34.8157,34.0438,28.6092,4.5,0.0,90.0,0.0,,,,GE,CSS,00,0.0,,CY,34.9611,33.331,396.0,,684.436239,6.75297,67.1,103.7,,,,,0.2,0.2,30.0,30.0,0.2521465,0.01411,0.00170362,22.99,1.29777634046,9.87942728581e-05,Mw,False,70.6765331241942,0.6840575405419731,72.94447425706761,True,0.26287885439494746,0.2678033103902937,0.2987576112904908,0.34579896730904214,0.3793213719525964,0.40626532690595196,0.4489458829079514,0.6307559280165348,0.6672705088867633,0.5704326313334468,0.5444434138512467,0.5215868380432926,0.6123182970971879,0.5980014811678981,0.34405281483661776,0.23962794278005226,0.20702625143686487,0.2134996024726978,0.1552047215808849,0.13840317721786594,0.08827503197393927,0.05510945776361803,0.044357087043673186,0.03260130028081702,0.027988563271450717,0.015992714059846126,0.0097046086989636,0.006896528837030989,0.005499358962642828,0.004471593675637356,0.0035524842012315833,0.002593789505723238,0.001982083247494918,0.0016164999226724384,0.0013943930579287892,0.0012026857444902223
345,EMSC-20081024_0000091,2008-10-24 17:00:15,AL,41.1721,20.2062,2.5621,4.21,0.0,90.0,0.0,,,,MN,PDG,00,5.0,,ME,42.4297,19.2608,40.0,A*,361.436598,1.051467,160.3,150.3,,,,,0.15,0.15,30.0,30.0,0.054237,0.00281608,0.0003764505,43.5,0.381272852441,5.90200213085e-06,Mw,False,400.89440726249586,1.4201193018457858,160.3204739152489,True,0.055951439793806915,0.05708107847614654,0.06515695782493225,0.0742135564300755,0.10295479456538194,0.1248733001886312,0.13831510999887178,0.17755982354125044,0.13374739699149288,0.10211641520343338,0.10476110986430032,0.094080697914078,0.07136520175127371,0.06009003538025252,0.048987004623675445,0.042718520959883426,0.042847543453505006,0.0466821628997629,0.036232406185623386,0.04239553042479832,0.03125290284117621,0.015262085080355174,0.013864220713765344,0.012588311920190094,0.011143728280965937,0.006433729478304166,0.0037452289649632904,0.002106064338998218,0.0016464161077929236,0.0015931817222150147,0.0013415692304163808,0.0008806588442751256,0.0006322673485164326,0.0004620606020859169,0.0003404702630186666,0.0002712968853488739
346,EMSC-20081102_0000089,2008-11-02 21:25:33,,35.7623,31.2927,10.0,4.3,0.0,90.0,0.0,,,,GE,CSS,00,0.0,,CY,34.9611,33.331,396.0,,684.436239,6.75297,205.5,296.2,,,,,0.25,0.25,30.0,30.0,0.01082,0.0005840825,0.000112523,92.7525,0.193072647509,7.50372268148e-07,Mw,False,70.6765331241942,0.6840575405419731,205.7431651355641,True,0.011313462776709879,0.013258543698310157,0.02885087853081774,0.03679639760900515,0.029730256473834867,0.025382748078173097,0.025394687279035353,0.03057081176547329,0.027297276274383126,0.027859409756848762,0.02387351620520111,0.021999350513140156,0.023067055989007355,0.019632625906892843,0.017135387360663897,0.01366388985611345,0.01171309421118092,0.009580980847491555,0.009691877011188286,0.008351854883796772,0.0064434986614416235,0.004258966071712711,0.002801824940998277,0.002311150362914538,0.001861571647828791,0.0008794452797076121,0.000692514259780981,0.000511937496184837,0.0004571236156664847,0.0003008554470173342,0.0002396247065725903,0.00011728171212938529,0.00010836050941187015,6.835202996254025e-05,5.544366510251645e-05,4.6475800154489004e-05
347,EMSC-20081114_0000070,2008-11-14 13:26:05,ME,42.5543,18.5235,5.4279,4.3,0.0,35.0,90.0,,,,MN,PDG,00,5.0,,ME,42.4297,19.2608,40.0,A*,361.436598,1.051467,62.2,283.1,,,,,0.1,0.1,30.0,30.0,0.9462235,0.0193552,0.001175135,16.1125,3.26345304017,0.000932606229549,Mw,False,400.89440726249586,1.4201193018457858,62.43638441173544,True,0.9506552730743147,1.0379708795529863,1.4303318687982869,1.9571510970796302,2.965494959564086,3.8275071333571673,2.0107135921358865,2.154454495922344,1.0399986615376002,0.8192395014109122,0.5857038972586746,0.42201247331328967,0.3684283531258147,0.2553303082362139,0.2251204583417509,0.16433190842620918,0.14209145934925152,0.14608600616759979,0.09521843902312198,0.07782164086550733,0.05760562412646876,0.04717665151322209,0.03612124873256737,0.03064345951422587,0.023140317089443696,0.013805404376547613,0.010639518786110582,0.007753712530136773,0.006407454096597182,0.0058630423842916226,0.0049612369425376165,0.0034434671480936185,0.002843144913647562,0.0022782409881309746,0.0019239976611212393,0.001570128657148834
348,EMSC-20081217_0000052,2008-12-17 07:37:50,RO,45.6522,26.484,89.1475,4.2,0.0,90.0,0.0,,,,GE,TIRR,00,3.0,,RO,44.4581,28.4128,77.0,,302.057214,0.383942,201.7,311.8,,,,,0.2,0.2,30.0,30.0,1.2786115,0.01934,0.0006543115,42.8375,4.88787851872,0.00124851186489,Mw,False,457.1740089475847,1.7437793212006778,220.52248582910994,True,1.2982879453726743,1.863126935289166,4.562690797500966,4.20616276946102,3.0162936063984223,1.6359827936136737,1.6408248324851742,0.9457782802644603,0.6564555405509196,0.41734089286337617,0.3136229778890571,0.2225107632902283,0.20225150375707965,0.16194123236532443,0.10745617367559669,0.06390570442456604,0.05200332662436125,0.04513387569221149,0.03673808734814593,0.02760974900284318,0.020525476072432523,0.01467624492164123,0.011110650566010976,0.00870985671523935,0.0075850634143690586,0.005541476698498335,0.0039173012393738625,0.0030175735285159168,0.002563641160537098,0.002330398034671331,0.002121799707795248,0.0017983851089241147,0.0014983657764377828,0.0013370804014718038,0.0011814634992245846,0.0010682677566977298
363,EMSC-20090108_0000062,2009-01-08 12:04:04,MK,41.7785,20.8069,15.465,4.92,0.0,60.0,-90.0,,,,MN,PDG,00,5.0,,ME,42.4297,19.2608,40.0,A*,361.436598,1.051467,146.9,119.0,,,,,0.08,0.08,30.0,30.0,0.334632,0.03233155,0.005827905,33.78,2.16923746027,0.000239206807611,Mw,False,400.89440726249586,1.4201193018457858,147.7118012380866,True,0.34954738263932117,0.35342400142039027,0.36147080598023407,0.36622068979237093,0.4248202732026804,0.6010314481089987,0.7746741114668799,1.064615859754118,0.9858536738279164,0.8512035834745998,0.7776753810324717,0.6851156830265966,0.7677429696786549,0.6536193114665447,0.6134870250241646,0.6163229767792209,0.6543933939367054,0.6201921000786773,0.48001706530914084,0.38160800928701694,0.23509023254912145,0.16930718737253891,0.12115692638887798,0.11219329728642437,0.09136326723579888,0.04797637820844754,0.02816346866066039,0.02281244756706303,0.016361662354418636,0.0143034094536932,0.0119568591193507,0.0068735894552991745,0.005833777506898939,0.004709280199775757,0.004252379686716603,0.0036060668324366923
364,EMSC-20090112_0000036,2009-01-12 02:04:37,,34.163,33.1506,24.9138,3.8,0.0,90.0,0.0,,,,GE,CSS,00,0.0,,CY,34.9611,33.331,396.0,,684.436239,6.75297,90.1,190.6,,,,,0.25,0.25,30.0,30.0,0.1192845,0.006128905,0.0007060215,31.6975,0.848395524943,3.48594496379e-05,Mw,False,70.6765331241942,0.6840575405419731,93.48105385820166,True,0.1270473381854181,0.13579896840550743,0.22762300939052713,0.29719882133009884,0.22824614818217634,0.3411234297582035,0.3610740393617353,0.22881926030821795,0.21723816241167204,0.23561582550414562,0.22845823726449435,0.1795535210181076,0.1619883015035345,0.15745793138168684,0.09643863058961383,0.09489422466093497,0.10214498746389858,0.10175928437739723,0.08117664601349331,0.057784560931099925,0.056513629913499626,0.03611685066558268,0.023266417880713826,0.014313328334108737,0.009710506680910115,0.0055521966823951765,0.0034686054834760323,0.0026225697321520356,0.0020876666400553513,0.0016669691058924876,0.001268122233856027,0.0009585400356792615,0.0007671948904939345,0.000612800130548289,0.0005141838192708907,0.0004473142072413976
365,EMSC-20090209_0000047,2009-02-09 08:38:28,FR,43.1551,-0.2706,13.4629,3.69,0.0,90.0,0.0,,,,RA,PYAD,00,0.0,,FR,43.0967,-0.42805,450.0,A*,807.917371,9.827984,14.4,63.1,,,,,0.3,0.3,40.0,40.0,8.802406,0.0698644,0.00215923,7.3625,14.6285601743,0.0442906666706,Mw,False,29.37422514630336,0.5658297735884721,19.71318534407872,True,9.300950705825722,13.719560693768587,34.39308046424455,39.50785638148443,19.674334007279636,9.31877291711736,3.674375834723498,1.7305532626301914,1.3011578571026652,0.9129639689878237,0.666515427146289,0.5105808276482775,0.40734783190781804,0.28736088442931823,0.2090615142774968,0.17195120637843747,0.17211060555352187,0.1561784120805433,0.16418995188195895,0.1433654007632246,0.09861528585366469,0.07273155190837055,0.059107387896945675,0.04902697171965652,0.04295976222001235,0.030316247755947635,0.02219823779041931,0.01677313614086525,0.013318428285649926,0.012005971014457764,0.01042622453239906,0.00844183285785735,0.007043900340010497,0.006031549054761968,0.005267570597533554,0.004677832831557793
377,EMSC-20090310_0000100,2009-03-10 08:32:57,AL,41.2492,20.4881,10.0957,4.0,0.0,90.0,0.0,,,,MN,PDG,00,5.0,,ME,42.4297,19.2608,40.0,A*,361.436598,1.051467,166.1,141.7,,,,,0.1,0.1,30.0,30.0,0.0638345,0.003157685,0.000773645,40.07,0.377256840037,6.01533622833e-06,Ms,False,400.89440726249586,1.4201193018457858,166.4065297952277,True,0.06095865682575363,0.06255538401288893,0.0681203083595487,0.08615323051400917,0.12444516657548417,0.16321542525141428,0.16840492390069836,0.13274200396257396,0.14587422141009013,0.14191269479507462,0.10070505081672915,0.10556983734002814,0.07527411774972856,0.0629804354621338,0.04981363536221784,0.04240545014499905,0.043564812578501935,0.03611609056916321,0.02863488150839811,0.023018467086233174,0.017930371580087236,0.010789721729497938,0.01129834341839546,0.010303975931648909,0.011621797709476793,0.01107871409505634,0.009035947653677505,0.005934528119404272,0.0047485517792270095,0.0034992489194111353,0.0025321232197505713,0.0015659348645457767,0.0010726574476504604,0.0007063518953043165,0.0006979899712746595,0.0004386068854908687
378,EMSC-20090406_0000100,2009-04-06 07:17:10,IT,42.356,13.383,9.0,4.25,0.0,60.0,-90.0,,,,IV,GUMA,00,0.0,,IT,43.0627,13.3352,574.0,B*,600.159948,5.277391,78.6,177.1,,,,,0.1,0.1,30.0,30.0,0.5843445,0.0326572,0.003813985,22.81,3.71425628156,0.00079163256795,Mw,False,125.70232735148319,0.7950164661170562,79.11358922460792,True,0.6147746559350019,0.6261500939271669,0.6401276405030484,0.6890758256491081,0.8264772214985723,1.1298842227414276,2.093863256136847,1.544973302649596,1.3673493679378361,1.8734491973896703,1.687843618348572,1.7495417493732466,1.5470069075476036,1.187929070946578,0.8269951430280591,0.5440600953800968,0.5186237230266275,0.4090652753583467,0.31608200271448544,0.2870516130175896,0.1930027866897263,0.11747642441783798,0.08250038154457226,0.058799747984153806,0.05009269504628394,0.04083967570880063,0.030831727003202396,0.02244276163933485,0.015455629653948104,0.013717248557928809,0.011158665197952666,0.007436229420882602,0.004427402624564429,0.0038020941598019375,0.003273916309254102,0.003027731494039721
383,EMSC-20090420_0000050,2009-04-20 06:33:41,AT,47.5308,14.4628,6.5709,3.81,0.0,90.0,0.0,,,,SL,KOGS,00,0.0,,SI,46.4481,16.2504,245.0,,697.619371,6.965702,181.6,312.2,,,,,0.3,0.3,30.0,30.0,0.1514165,0.00695731,0.00090021,46.745,1.46296015539,7.36629920198e-05,Mw,False,64.39817759335466,0.6692894548635551,181.7188397685006,True,0.16065438810066782,0.1628951482641518,0.1743544006011893,0.19457278592341737,0.24152338818425018,0.32080707601765895,0.4074760049205352,0.4232265964917611,0.43357203652911014,0.3943276299094447,0.3687081213914334,0.34243692554834093,0.3366806717826255,0.24490658394171438,0.2860595477204003,0.1670529398005315,0.14961275372774877,0.16013456770166773,0.10969246663285497,0.07677249754957825,0.04881760657795505,0.04799565486583134,0.032110562903817176,0.02045874336316872,0.01687444719094525,0.01016474156090552,0.0067162697980352164,0.0044849909698905744,0.003425837415873672,0.0026751057923005586,0.001993903207279631,0.0014074800176201439,0.0011178103595869918,0.0008875156336651203,0.000759043477015645,0.0006688437784714753
385,EMSC-20090425_0000080,2009-04-25 17:18:48,RO,45.7039,26.5365,102.3815,5.25,0.0,35.0,90.0,,,,GE,TIRR,00,3.0,,RO,44.4581,28.4128,77.0,,302.057214,0.383942,202.5,313.8,,,,,0.1,0.1,30.0,30.0,9.4338255,0.408577,0.04867305,46.1975,37.5077413683,0.0706033949214,Mw,False,457.1740089475847,1.7437793212006778,226.91016183117495,True,9.607097340039811,11.176678633297103,19.067303856077817,23.59510531105975,15.854456255576851,17.628108775475603,17.728705680336624,10.962441342511257,13.211327649180456,18.83593862673161,13.22669797194296,10.621016807067015,10.424674308245798,9.613593210657502,7.2287708450468955,6.786733132811397,6.899535467515187,6.585954455657888,5.684899432619718,4.395062306725583,2.759585058808661,1.9838401353435715,1.5506464001183506,1.180552556644557,0.8786308068352714,0.4662167110475557,0.2926971706320374,0.21059581197640184,0.15810803769574777,0.12870404643211494,0.10475987646040825,0.07788318922591704,0.061274001460652136,0.04890478473523833,0.04120266088494771,0.03509944049411614
407,EMSC-20090501_0000088,2009-05-01 21:39:35,HR,42.8499,17.3971,10.5242,4.02,0.0,90.0,0.0,,,,MN,PDG,00,5.0,,ME,42.4297,19.2608,40.0,A*,361.436598,1.051467,159.8,287.6,,,,,0.25,0.25,30.0,30.0,0.0830335,0.002404165,0.000143806,29.3625,0.55907066254,1.67955212436e-05,Mw,False,400.89440726249586,1.4201193018457858,160.14617942879562,True,0.0896279749129701,0.09240685692631255,0.10534393824041324,0.10496181392296915,0.177860370307722,0.31361774664071546,0.2606904033906887,0.2590304521151905,0.17668437346862342,0.11812357488664149,0.11012575895765714,0.1053318074467537,0.06744547277616193,0.05091741909209461,0.049058282318075505,0.02376548894931472,0.01854952320141949,0.01562341748786097,0.012980358739264489,0.010449414194106768,0.006873136765698759,0.004718071851932736,0.003574616063299666,0.002659202888085074,0.002120511494899285,0.0017115387813309987,0.0013611994710548488,0.0009432984681425069,0.0007153320907103218,0.0005846460467667595,0.0004995487964153251,0.0003584578078379658,0.00029498474536829864,0.00024834854539537775,0.00022026574858565734,0.00019388140705080517
408,EMSC-20090505_0000053,2009-05-05 01:39:23,DE,47.6716,7.7164,17.7941,4.2,0.0,90.0,0.0,,,,CH,BNALP,00,0.0,,CH,46.87049,8.42502,1540.0,A,1601.0,22.179484,104.0,329.2,,,,,0.3,0.3,30.0,30.0,0.1505195,0.00493024,0.000296528,30.1775,0.591002192492,2.30025883457e-05,Mw,True,0.31966880765187233,0.2587556839549334,105.51127899333797,True,0.12968506912516953,0.13499724970531807,0.16924099095668282,0.19757079810032654,0.37644451093089404,0.3838039381363876,0.2628077425895211,0.3389144735416297,0.30864088995141264,0.30453300791047266,0.18857476654897387,0.15480593407553858,0.12712536740949856,0.10428723740707681,0.07567338026016811,0.051296651586628925,0.043821043974328136,0.03371446235668011,0.02733148067705078,0.018093818916967198,0.012419767147575674,0.009183679818025016,0.00816179980151437,0.006275917622148972,0.004817120509183884,0.0025469729091609906,0.0019722297026462205,0.0014677949448066647,0.001281465957409716,0.0010491129586464938,0.0008171205541411867,0.0006301983814641228,0.0005482809498788008,0.00046145422308177005,0.00039971865105346285,0.00035745768980398226
