id,event_id,event_time,event_country,event_latitude,event_longitude,hypocenter_depth,magnitude,strike,dip,rake,depth_top_of_rupture,rupture_length,rupture_width,network_code,station_code,location_code,sensor_depth_m,housing_code,station_country,station_latitude,station_longitude,station_elevation,ec8_code,vs30,slope_deg,repi,azimuth,rjb,rrup,rx,ry0,highpass_h1,highpass_h2,lowpass_h1,lowpass_h2,PGA,PGV,PGD,duration_5_95_components,CAV,IA,magnitude_type,vs30measured,z1,z2pt5,rhypo,digital_recording,SA(0.010),SA(0.025),SA(0.040),SA(0.050),SA(0.070),SA(0.100),SA(0.150),SA(0.200),SA(0.250),SA(0.300),SA(0.350),SA(0.400),SA(0.450),SA(0.500),SA(0.600),SA(0.700),SA(0.750),SA(0.800),SA(0.900),SA(1.000),SA(1.200),SA(1.400),SA(1.600),SA(1.800),SA(2.000),SA(2.500),SA(3.000),SA(3.500),SA(4.000),SA(4.500),SA(5.000),SA(6.000),SA(7.000),SA(8.000),SA(9.000),SA(10.000)
446,EMSC-20090507_0000075,2009-05-07 21:27:13,AT,47.608,15.6438,13.6594,4.36,0.0,60.0,-90.0,,,,SL,KOGS,00,0.0,,SI,46.4481,16.2504,245.0,,697.619371,6.965702,136.9,340.5,,,,,0.2,0.2,30.0,30.0,1.608171,0.1247015,0.01657045,20.96,8.99107802693,0.00483580739816,Mw,False,64.39817759335466,0.6692894548635551,137.5797558086218,True,1.616349576545866,1.655885852527281,1.7289940287924652,1.8137339370205323,2.349403941151883,3.899453846373874,6.221501306605987,4.3183569589602016,3.114968854483139,3.482093456270236,2.2727608038462823,2.0602351471130667,2.25390974326835,2.2961938918131457,2.777325348874345,2.801937758373658,2.826357904317852,2.5093097718695474,2.2256879021102667,2.117493266931444,1.3979651571122937,0.5924244197093836,0.48854743379123383,0.4359881331412588,0.3624028571700284,0.24235898365028682,0.16179341587345264,0.12842002101308034,0.08286974645188677,0.060692620136224146,0.04138249455989815,0.026576476628778316,0.01992936757651883,0.015291377308797269,0.011928873207474374,0.009747493216206923
447,EMSC-20090524_0000113,2009-05-24 16:17:51,MK,41.2951,22.7027,13.2479,5.32,0.0,60.0,-90.0,,,,MN,PDG,00,5.0,,ME,42.4297,19.2608,40.0,A*,361.436598,1.051467,312.3,112.6,,,,,0.1,0.1,30.0,30.0,0.04684,0.01248465,0.00619885,79.375,0.745408965102,1.25707738247e-05,Mw,False,400.89440726249586,1.4201193018457858,312.5808645045471,True,0.043088665145256014,0.04355482868752902,0.04410814985918135,0.04465839826953045,0.04466386421929926,0.048432780748166836,0.05514895212966426,0.06800618590246037,0.0887294255306547,0.07425791739605953,0.08015512179517913,0.08569364088425699,0.08713825969113682,0.09311280065597854,0.0977433764712474,0.11574478270315254,0.1288853970587824,0.11506064344509812,0.09879569533132504,0.10693231806614874,0.08761599379679488,0.0946843366666314,0.12698775277954957,0.14988254406367676,0.11470452977106005,0.06842652735598966,0.060953853659961484,0.04582916128405581,0.027748336742947317,0.027696802414719283,0.026381905162440412,0.019238065391301695,0.011317003136873295,0.007889806081267143,0.005370505842097186,0.0043094916173488495
448,EMSC-20090621_0000090,2009-06-21 11:20:04,HR,43.4662,17.2621,15.9991,4.7,0.0,35.0,90.0,,,,MN,BLY,00,1.0,,BA,44.7488,17.1839,256.0,,819.664963,10.280572,142.7,177.5,,,,,0.1,0.1,30.0,30.0,0.4087575,0.0321974,0.00422796,32.6975,2.92366168763,0.000430227052766,Mw,False,27.03252524661432,0.5565620287203097,143.59408483920916,True,0.38398831325705735,0.386796659284953,0.39021106557861734,0.3956898085596848,0.41897501467032616,0.4526186188282581,0.7013062148591013,1.0250039028364721,1.220800150311262,1.3922112465067935,1.0694901761540403,1.3216400941633089,1.1976313583068874,0.9827441317453898,1.2219737290547616,1.1799060049851429,1.0538422682735782,0.9654008202451456,0.6563136140900934,0.5351761563186462,0.31906235722034026,0.18805782029471682,0.13002000171127517,0.09282754032074748,0.06904853365568309,0.0363014295861747,0.0272015771050136,0.020406242280243563,0.0152289541334919,0.01283450910631178,0.009839009096448687,0.00794332008671437,0.005533835017417848,0.004324520088980973,0.0036181321147796693,0.0031454618102911376
450,EMSC-20090724_0000055,2009-07-24 20:27:10,RO,45.735,26.6014,140.3631,4.54,0.0,90.0,0.0,,,,GE,TIRR,00,3.0,,RO,44.4581,28.4128,77.0,,302.057214,0.383942,201.2,315.5,,,,,0.25,0.25,30.0,30.0,0.868337,0.02151985,0.001230155,47.32,5.01616530569,0.00106355267356,Mw,False,457.1740089475847,1.7437793212006778,245.32272589715367,True,0.8116315243323167,0.8863550961268288,1.6591825895904284,2.2073736987651182,2.0266462443159634,3.660724067394318,1.3310282848234294,0.6488869897724873,0.6057794320707827,0.7469085737284048,0.5743385829830693,0.6446506319301952,0.5626847648124125,0.425068915416077,0.2643581924245965,0.18783531904303832,0.15103288536606854,0.1251363068018231,0.10257277928378465,0.09164518042428636,0.05518838686716617,0.03679670168642837,0.02859642823850559,0.021857588796571317,0.016559384831569077,0.00982145814021523,0.00669325302076651,0.004986278672517211,0.0040005239656824955,0.0034796689497709407,0.0028476096993794637,0.002217974075592409,0.0018113964226529763,0.0015484114440290086,0.0013395316345648578,0.001199324810049388
454,EMSC-20090728_0000069,2009-07-28 23:34:55,,41.3728,18.8608,32.1047,4.21,0.0,90.0,0.0,,,,MN,PDG,00,5.0,,ME,42.4297,19.2608,40.0,A*,361.436598,1.051467,122.0,195.9,,,,,0.3,0.3,30.0,30.0,0.1464635,0.00439055,0.0003939935,36.6325,0.995303492892,4.2180133113e-05,Mw,False,400.89440726249586,1.4201193018457858,126.15352457260163,True,0.13762203840955126,0.14929735329201252,0.22778872480217277,0.2922970311737702,0.4340861871195627,0.46328523645805936,0.2278209509197958,0.18738760289837747,0.20610862318204934,0.20345266902894146,0.16251865401854643,0.17558501585272018,0.1633349915970243,0.1442055346510667,0.11587091592802742,0.06029557297181941,0.055156611362555626,0.047512536219402136,0.05035931924678887,0.04549115544806484,0.026777236713298107,0.015802575929259127,0.01287528900646506,0.009299836020059708,0.007420042857019089,0.003704597144090029,0.002682469011936578,0.001828499384741488,0.0012726224891930836,0.001076817533289647,0.00085163020143722,0.0006124328534623203,0.00046534180985593804,0.00038444505459168027,0.00032694953739071113,0.0002891228112757622
455,EMSC-20090805_0000072,2009-08-05 07:49:03,BG,43.4216,28.6636,14.4968,5.0,0.0,90.0,0.0,,,,GE,TIRR,00,3.0,,RO,44.4581,28.4128,77.0,,302.057214,0.383942,116.9,170.0,,,,,0.1,0.1,30.0,30.0,4.528418,0.1338745,0.00922128,33.78,26.6741678295,0.0354008598429,Mw,False,457.1740089475847,1.7437793212006778,117.79544647498052,True,4.631062850480438,5.166775290836636,11.28186935219514,10.119970593830795,10.72821104672163,9.127186226817111,10.376727326088895,10.037168446578946,8.022196559858154,7.224250848427123,6.149006435124296,4.334424611814121,2.805679249201519,2.153385108149492,1.7936421814843673,0.9558261125162881,0.8943639601012554,0.8006006272693021,0.5309604029963063,0.41571043947440145,0.3348994364701141,0.26780350709055323,0.22387354930853265,0.17842147621572915,0.15230088443603995,0.0901027143042872,0.06347288170549688,0.05663995211862383,0.045191566746462776,0.041535388887068335,0.03222264855656654,0.02416151594995645,0.015909508100503924,0.012171784914300777,0.010548860791573657,0.00927892709315037
466,EMSC-20090821_0000059,2009-08-21 13:39:57,ME,41.8715,19.1706,15.6792,5.03,0.0,35.0,90.0,,,,MN,PDG,00,5.0,,ME,42.4297,19.2608,40.0,A*,361.436598,1.051467,62.4,186.9,,,,,0.06,0.06,60.0,60.0,1.7060725,0.06055685,0.0145103,20.34,8.36726991613,0.00505348814543,Mw,False,400.89440726249586,1.4201193018457858,64.33970245998967,True,1.6455191799246827,2.011464211513593,2.976831347994038,4.05672105052837,5.156680711620607,5.95051823743109,4.639267867034625,4.368676636282434,2.9782237099821764,2.4305744613979634,1.7813354040157625,1.6092375418812475,1.6097566416076685,1.495718176261825,0.6997689509652454,0.6002887050961395,0.4749427073405802,0.3372741474305435,0.3090466697571744,0.3137749461158427,0.31669672723916803,0.23715866206402836,0.23162976978359237,0.16810663972609768,0.1505110005315226,0.11401357577060725,0.08989627457798237,0.06842136236585764,0.04938508187702031,0.04084421883204525,0.036029969192326546,0.025522821082317685,0.01887427516489044,0.015166946561519888,0.010891484288195067,0.008976631439465475
467,EMSC-20090825_0000055,2009-08-25 06:28:36,CY,34.709,32.9523,17.7355,4.63,0.0,35.0,90.0,,,,GE,CSS,00,0.0,,CY,34.9611,33.331,396.0,,684.436239,6.75297,44.5,231.2,,,,,0.1,0.1,30.0,30.0,1.7787775,0.0803431,0.0156516,12.8725,5.96292492794,0.00387647152016,Mw,False,70.6765331241942,0.6840575405419731,47.90404951828185,True,1.788329778536386,1.9385327441134443,3.196963811775166,5.014099390718138,4.045564435279705,3.9797537501458553,3.8362586749331697,4.264201101566389,2.9956100805345143,3.5378082881778656,2.969687732742283,3.191859305326599,2.8467847094573204,1.8235949583172246,1.2708698904687292,0.9459171915236555,0.855707484810084,0.7478796666917747,0.8309467821154373,0.8609539355273312,0.858064689799085,0.6939831792104186,0.49403766402775406,0.4328660774200261,0.3247797731294238,0.17178605962068053,0.105288319508861,0.07254149638655105,0.05093254680457281,0.041886915092902224,0.03059509408385599,0.021847016867297925,0.016907589775009328,0.01345532853556538,0.01100864678332446,0.00920498560563785
468,EMSC-20090906_0000102,2009-09-06 21:49:42,AL,41.4821,20.4136,7.8582,5.49,0.0,60.0,-90.0,,,,MN,PDG,00,5.0,,ME,42.4297,19.2608,40.0,A*,361.436598,1.051467,142.2,137.4,,,,,0.06,0.06,30.0,30.0,1.1439275,0.0756593,0.02999895,27.7525,6.65407596357,0.00250068256266,Mw,False,400.89440726249586,1.4201193018457858,142.41696284937407,True,1.1527547245619945,1.178200292904394,1.2454963089066142,1.3265437942638758,1.9112983677594664,2.6629517964093905,2.9049947766562334,3.1643884196476257,2.6860968360243453,2.831039167514289,3.0215646095193796,2.19188245136458,2.15904866827962,1.9644821326751738,1.386290023227463,1.3633363226291597,1.2909096873135626,1.2293144839706396,1.1437103666969186,0.9049800131936616,0.6120913363559397,0.5846239550215164,0.5442534805033405,0.4095221767804523,0.32809000227376633,0.2038075563810135,0.17877741828877605,0.15665671822810537,0.1604521860742321,0.16170700984805822,0.11750156675551182,0.07355792380158646,0.062277603430125665,0.047135648165693024,0.03504686088653305,0.02764210842175394
469,EMSC-20090907_0000308,2009-09-07 22:41:37,GE,42.5829,43.4523,14.624,6.01,0.0,35.0,90.0,,,,IU,GNI,20,100.0,,AM,40.148,44.741,1609.0,,861.645389,11.886995,291.1,338.7,,,,,0.04,0.04,30.0,30.0,0.6204685,0.1596105,0.108121,84.9475,11.9679010212,0.00319543340257,Mw,False,20.139971113775932,0.5256512483051314,291.4671017044634,True,0.6503672847883725,0.6511516435086377,0.6545180107682294,0.6606554974205543,0.6591546371899389,0.6780496656993498,0.7174228883538635,0.8314722131544745,0.8001041977786393,0.9812674836139227,0.9904664197992782,1.2792558554096987,1.4906858710003257,1.4974155060636978,1.5091099253533522,1.9202838632348083,2.323665162926879,2.0437643939064993,1.493221646139648,1.689721868326264,1.2745576310234075,1.5760397624742846,1.3657109869221964,1.3388401734337074,0.9756643887213472,1.084935869717653,0.7087312383802481,0.6289846224797551,0.5650518384042299,0.514887824589007,0.3657623320627754,0.25780390645605045,0.1922212416201706,0.15375177719298075,0.11609368437602452,0.10528726183161949
470,EMSC-20090908_0000288,2009-09-08 19:39:40,BA,43.3137,17.9825,15.1714,3.93,0.0,90.0,0.0,,,,MN,BLY,00,1.0,,BA,44.7488,17.1839,256.0,,819.664963,10.280572,171.8,157.8,,,,,0.25,0.25,20.0,20.0,0.06309,0.00391754,0.0003059265,27.7175,0.363290557446,7.88851738779e-06,Mw,False,27.03252524661432,0.5565620287203097,172.4685808428886,True,0.055962619810012465,0.05652044630043185,0.05748070683281478,0.057703060681388474,0.06284178287572688,0.07444486080314745,0.08848216457569288,0.10939963117853735,0.1490457514590738,0.19963731097918547,0.2044418926736886,0.1999052600658622,0.14434076240618932,0.09864481143983195,0.09125564092153426,0.08415887501624532,0.0714129639701364,0.06714347674942071,0.053144467077956475,0.0359890848035901,0.02149483984587929,0.014276434849079093,0.00907596275884823,0.006967794557821004,0.00575149893506032,0.0031541337955134367,0.0021360323031265234,0.0014666594696793117,0.0010250039024315956,0.0008987179757855075,0.0007065408693062278,0.0005490491781252385,0.000394153523389047,0.0003407785204498664,0.00029240383034426893,0.0002536828728944861
472,EMSC-20090915_0000081,2009-09-15 08:37:40,AL,41.1662,19.5044,19.0887,4.3,0.0,90.0,0.0,,,,MN,PDG,00,5.0,,ME,42.4297,19.2608,40.0,A*,361.436598,1.051467,141.8,171.7,,,,,0.1,0.1,30.0,30.0,0.148958,0.00799481,0.0009679965,28.4525,0.775361049897,3.36460998613e-05,Mw,False,400.89440726249586,1.4201193018457858,143.07906369448327,True,0.1512909592540149,0.15347533816219464,0.16280690407964893,0.16361991356800065,0.23311339219358462,0.2660705317317196,0.28179573786698764,0.321478126092585,0.35498165710216634,0.39012964125275074,0.43536129975917703,0.41733053517326046,0.3176705613367408,0.2436804235099734,0.17994772335875772,0.1487606873337173,0.13124877029519172,0.12035431708085921,0.1111925985306576,0.08847232401152351,0.05433914574227313,0.038889294928039,0.027734535510803134,0.023384275058252288,0.017766846315539514,0.00957714670452531,0.0073210298455886665,0.0051852854309092766,0.0036839424534050474,0.0031707869685615904,0.002236029964021055,0.0015733715390841413,0.0011619457818676394,0.001007285461028799,0.0008460029550775813,0.000700285656000464
473,EMSC-20090916_0000122,2009-09-16 14:09:43,CY,34.755,33.0895,15.6142,4.63,0.0,90.0,0.0,,,,GE,CSS,00,0.0,,CY,34.9611,33.331,396.0,,684.436239,6.75297,31.8,224.1,,,,,0.1,0.1,30.0,30.0,3.8022675,0.159004,0.01898505,10.11,9.763060573,0.0138878982816,Mw,False,70.6765331241942,0.6840575405419731,35.42658947231585,True,4.231342908817483,4.584278672157704,6.309821867913547,11.188247157620358,9.224759337446153,14.06802887685407,7.8177611413242865,9.715541783246058,7.830272540084413,5.999206759814167,4.507151664100066,3.51701154391054,3.230262674768106,2.994725124281025,2.885493721133352,2.7052280332349063,2.525089112288911,2.315935617088696,2.155737686083351,1.7608258108058275,1.2396500190376314,0.748634876076449,0.4570194414146952,0.32809326139072104,0.2599907963832566,0.15090691662412298,0.10582711452647663,0.08403469976146757,0.0707445866762963,0.061420277189214965,0.046299259734902884,0.02813445201172399,0.02094887171186076,0.017628749246614183,0.015557240275832987,0.013786311979641256
474,EMSC-20091107_0000005,2009-11-07 03:13:43,,36.0444,31.813,76.3084,4.46,0.0,90.0,0.0,,,,GE,CSS,00,0.0,,CY,34.9611,33.331,396.0,,684.436239,6.75297,182.8,311.6,,,,,0.2,0.2,30.0,30.0,0.06462,0.003406915,0.0005502305,38.0725,0.666663152406,1.64675832851e-05,Mw,False,70.6765331241942,0.6840575405419731,198.087889358638,True,0.06658496046405675,0.07398657069360627,0.14076792324602933,0.17949498299952565,0.17842189321380938,0.18509547417481606,0.18397114890656088,0.10052112661525436,0.0843511045570833,0.09241270713489569,0.10479084855081575,0.11651015561314816,0.11163806928194342,0.09425305292668243,0.08087635885102643,0.08802531312071546,0.07810681075296828,0.08334214375092591,0.0693253785059988,0.05127365779813256,0.03053465825909961,0.022574925027561,0.015239412094959569,0.01354799114260118,0.013587318940835974,0.00850703426582966,0.004048232947842799,0.002968502989723945,0.002020015098953471,0.001590566565724302,0.0013159692245641613,0.00086899769850098,0.0006139926709660304,0.0004769486345509336,0.0004052406692324945,0.0003669782009874701
475,EMSC-20091201_0000021,2009-12-01 17:54:03,GR,36.2274,26.9512,127.5831,4.7,0.0,35.0,90.0,,,,GE,KARP,00,0.0,,GR,35.5472,27.1612,528.0,,925.130666,14.280055,77.8,346.0,,,,,0.1,0.1,30.0,30.0,1.142213,0.03708995,0.00209161,17.6975,2.97431832073,0.000920475283846,Mw,False,13.031939719143024,0.48459314016727734,149.43322055557124,True,1.1312580901058784,1.2540645556349959,1.9745653792163986,3.6548098366262507,2.5771823890442835,2.112701927059281,1.9444545754015443,2.394741375639549,1.7326968142176518,1.5224436448026575,1.1501600201189397,0.9279099858014247,0.7682265602086406,0.5440545676538338,0.30459879179832605,0.25350662843405103,0.2127082237220743,0.16108295417268706,0.09544870101787661,0.08107480311416118,0.05721375446516336,0.04183922594886287,0.034580667113287444,0.025916186389976437,0.02144753706139705,0.014236250138291332,0.010091987316678515,0.007840974046634766,0.006233447681660607,0.005338543246991637,0.0044980002223210264,0.003533782392847641,0.002993479914748051,0.0024403061283371805,0.002088363474110769,0.0018065038056976244
476,EMSC-20091206_0000036,2009-12-06 20:15:43,RO,45.4418,27.0267,27.6137,4.21,0.0,90.0,0.0,,,,GE,TIRR,00,3.0,,RO,44.4581,28.4128,77.0,,302.057214,0.383942,154.6,315.5,,,,,0.1,0.1,30.0,30.0,0.3540455,0.01218825,0.00185278,35.1225,2.03504600022,0.000229568574404,Mw,False,457.1740089475847,1.7437793212006778,157.04673326016686,True,0.3213950957310954,0.40458953965099,0.9799284401730567,0.880471058938339,0.8596208772592718,0.9867339540372573,0.7460822648877267,0.6954110103816303,0.7974290354382638,0.5492901034608215,0.44462904154812016,0.3958504281670035,0.3743449516381916,0.3172714614836954,0.26817532830594243,0.1835988566168101,0.18459894027323126,0.19422585527163988,0.17565427321872928,0.12644045925256678,0.08889633440136888,0.056979682098095286,0.03573013324912181,0.03106040856138245,0.02758669320523937,0.02110830926436317,0.0159197155753487,0.01137752451107006,0.007191686867488044,0.00564282659666235,0.004614552849410222,0.0026768227434777973,0.0021099663504425847,0.001605160739614572,0.0013224329850695649,0.0011962014880445516
493,EMSC-20091222_0000010,2009-12-22 06:06:22,,35.7334,31.5347,51.6916,5.34,0.0,35.0,90.0,,,,GE,CSS,00,0.0,,CY,34.9611,33.331,396.0,,684.436239,6.75297,184.4,298.2,,,,,0.1,0.1,30.0,30.0,0.38832,0.02957005,0.006296905,41.295,4.06201157321,0.000543069710226,Mw,False,70.6765331241942,0.6840575405419731,191.5081760932415,True,0.37492633151593924,0.38511280093240213,0.4571172596128919,0.5368134429324586,0.5011469043045162,0.484214514850598,0.6980338378861013,0.9393358499173765,1.0387358110222251,0.8405528779083443,1.195791821346843,0.9825055643608336,0.9952542808548979,0.9912021490039254,0.8473387657247838,0.628849465835823,0.4855880883300166,0.4341574800864313,0.4105166820483669,0.3706679391369046,0.32744887288094304,0.22519741995635742,0.1633575185566921,0.15776978982048495,0.14170897659640339,0.1092620229906073,0.0726737088223795,0.046042110301331755,0.0319419871642326,0.022268152505315747,0.014714258221194843,0.01135082023467908,0.0076832326529918385,0.005570765836040858,0.004243320397990234,0.0038453982888642367
494,EMSC-20091226_0000040,2009-12-26 23:04:39,RO,45.7648,26.6859,115.446,4.21,0.0,90.0,0.0,,,,GE,TIRR,00,3.0,,RO,44.4581,28.4128,77.0,,302.057214,0.383942,198.9,317.5,,,,,0.2,0.2,30.0,30.0,0.3650605,0.005576225,0.000194647,54.06,4.36232898299,0.000624104247388,Mw,False,457.1740089475847,1.7437793212006778,229.9760616151168,True,0.35937043878983704,0.5278852421521177,1.6438163778232653,1.0091054750916775,0.7769367346830757,0.9017148690800213,0.5124841430659098,0.30096488436028546,0.20601916445806687,0.14957632676329502,0.12366498377471288,0.09921129333901459,0.08301031722623399,0.060657824688987984,0.04012954826558605,0.024483041130545856,0.022197344030311376,0.021223821993222616,0.016869925903808824,0.012597150471435992,0.00791676297485279,0.006223548184114911,0.004743096035291716,0.003992299086992356,0.0033433067463216714,0.002193720811771635,0.0015885616135359686,0.0011687296522292913,0.001052370657135593,0.0008612560594852148,0.0006287129710766273,0.0005588452379684379,0.00045171893916460935,0.00039566399886772614,0.0003474046631811381,0.0003106122985330748
