id,event_id,event_time,event_country,event_latitude,event_longitude,hypocenter_depth,magnitude,strike,dip,rake,depth_top_of_rupture,rupture_length,rupture_width,network_code,station_code,location_code,sensor_depth_m,housing_code,station_country,station_latitude,station_longitude,station_elevation,ec8_code,vs30,slope_deg,repi,azimuth,rjb,rrup,rx,ry0,highpass_h1,highpass_h2,lowpass_h1,lowpass_h2,PGA,PGV,PGD,duration_5_95_components,CAV,IA,magnitude_type,vs30measured,z1,z2pt5,rhypo,digital_recording,SA(0.010),SA(0.025),SA(0.040),SA(0.050),SA(0.070),SA(0.100),SA(0.150),SA(0.200),SA(0.250),SA(0.300),SA(0.350),SA(0.400),SA(0.450),SA(0.500),SA(0.600),SA(0.700),SA(0.750),SA(0.800),SA(0.900),SA(1.000),SA(1.200),SA(1.400),SA(1.600),SA(1.800),SA(2.000),SA(2.500),SA(3.000),SA(3.500),SA(4.000),SA(4.500),SA(5.000),SA(6.000),SA(7.000),SA(8.000),SA(9.000),SA(10.000)
510,EMSC-20100101_0000004,2010-01-01 05:37:28,,34.2752,25.3466,40.5127,4.03,0.0,90.0,0.0,,,,HL,IACM,00,0.0,,GR,35.3058,25.0709,45.0,,816.166285,10.145915,117.1,167.5,,,,,0.15,0.15,30.0,30.0,0.1579815,0.0129242,0.00196208,163.11,3.14614299573,0.000143540804011,Mw,False,27.70893659493046,0.5592922558608642,123.91000307194733,True,0.15737735915944198,0.1654394016913746,0.21405095367692245,0.29917192042034957,0.2186600920241277,0.19925448230842888,0.2037662020699213,0.34162326846981605,0.34164976527139607,0.356260145588866,0.32213121669282535,0.30334832220403,0.33345739698798105,0.34734699789115786,0.3780444640039052,0.3671650718927387,0.3196906562131587,0.31507728360038906,0.2970355602869798,0.2620041151413466,0.2311917189001371,0.1979416972267339,0.10544558175665777,0.06294796384316176,0.039842932622988485,0.01983305543782904,0.013770258058584088,0.008888241895898197,0.006761863352656574,0.005271450274829499,0.004292880734425311,0.002918607887332589,0.0022845428426711547,0.0019460087358488401,0.0015102698434385823,0.001196581798290447
511,EMSC-20100105_0000004,2010-01-05 02:47:16,GR,36.1489,25.4242,116.6182,4.8,0.0,60.0,-90.0,,,,GE,KARP,00,0.0,,GR,35.5472,27.1612,528.0,,925.130666,14.280055,170.5,293.6,,,,,0.2,0.2,30.0,30.0,0.683678,0.01105875,0.000317533,28.76,1.93442715966,0.000268549269123,Mw,False,13.031939719143024,0.48459314016727734,206.56731244618544,True,0.6898539769509197,0.7785214479486098,1.5805806762705914,1.467653114737948,2.0040622894511038,1.7449476031101907,0.6913662011466861,0.6454238081508924,0.4171597744845493,0.3356063528764019,0.2991945258356175,0.19128047974113827,0.1393845659067029,0.09627811765401316,0.08082847639291489,0.05487335328736526,0.04708984180266483,0.041654730823761185,0.04048386194522455,0.02660357729704785,0.0170419798145638,0.011374433172690409,0.008971105617481047,0.006972144576814224,0.006138510812892651,0.0038417263046708573,0.0026659491743092176,0.0019330967383967106,0.0016523801015504878,0.0014705641774502738,0.0011469459446721976,0.0009228250104976566,0.0008137014194408168,0.0007307420885647685,0.0006522192882765734,0.0005856210378734698
514,EMSC-20100123_0000007,2010-01-23 08:37:03,GR,35.5959,26.3274,50.7279,2.3,0.0,90.0,0.0,,,,GE,KARP,00,0.0,,GR,35.5472,27.1612,528.0,,925.130666,14.280055,75.8,274.3,,,,,0.1,0.1,30.0,30.0,1.057359,0.01587335,0.0006424995,15.2175,3.25546865573,0.00105699997772,Ms,False,13.031939719143024,0.48459314016727734,91.20833206681284,True,0.8639169707211451,0.9815473856111074,1.8271752718335479,2.310497655484636,2.839488714575214,3.464635416880108,1.3524800952324585,1.2905083528749437,0.5714967830618122,0.5604910978784587,0.41424939598748967,0.3234629453337739,0.2893533280679522,0.22788839933177818,0.1599691901336004,0.11637671438049796,0.10642650843657327,0.10096777680032377,0.06822056063240758,0.05546721013355548,0.03354683105749334,0.02359357967753092,0.015511883347936833,0.012280449828894705,0.009709137448815935,0.006340726141381601,0.004930355768096253,0.004662310049750017,0.0033560989258363647,0.0030144749128164926,0.002628894444438574,0.0018516603360227814,0.001574382736185836,0.0013090286475092895,0.0011728665738267078,0.0010205998236331418
515,EMSC-20100211_0000007,2010-02-11 02:25:52,AL,42.2896,19.413,20.4471,4.48,0.0,35.0,90.0,,,,MN,PDG,00,5.0,,ME,42.4297,19.2608,40.0,A*,361.436598,1.051467,20.0,141.1,,,,,0.1,0.1,30.0,30.0,9.774632,0.3213145,0.02175965,7.0475,14.9679633329,0.0411897476906,Mw,False,400.89440726249586,1.4201193018457858,28.602165974100632,True,8.928942286631715,10.587210363452689,24.573280733349385,21.74560909770062,26.99665107230895,28.895899955703058,18.576836640289432,14.523973096573817,9.613182021578496,8.136359325828721,7.56088173429528,6.139291799548218,5.849972426088861,5.064077597944171,4.26866920739942,3.322181935671194,3.013953265231563,2.5732023950517378,2.0840318124251365,1.5899299714138355,0.9125691666142354,0.5958258439678494,0.44157367227904337,0.3471423992340895,0.2701399731361503,0.16435165875037586,0.11585859249101899,0.08555551394270272,0.06603064648328077,0.05575227894893625,0.04482167303883245,0.03356554075238473,0.026281927497807306,0.02146718493421995,0.01866901912259988,0.016464351490417105
516,EMSC-20100211_0000053,2010-02-11 21:56:32,,34.1091,25.4225,26.6329,5.48,0.0,35.0,90.0,,,,HL,IACM,00,0.0,,GR,35.3058,25.0709,45.0,,816.166285,10.145915,136.6,166.3,,,,,0.06,0.06,30.0,30.0,0.8818455,0.10597,0.03068995,68.1875,15.2969787059,0.0058630567854,Mw,False,27.70893659493046,0.5592922558608642,139.17209261346184,True,0.7998166509256981,0.8046182539540101,0.8247813120488363,0.8746788680172856,0.8367416518693209,0.9045582337423058,1.1592266401355689,1.5756090175865332,1.9326758916072813,2.473505953419154,2.44626004341321,3.001672153183955,2.6399646669226464,2.3980172699336424,2.469583473705637,2.3531661123686107,2.602184038168707,2.6584813517871435,2.548919859077566,2.6273040411798556,2.353029755910452,1.4325443333802972,0.9464231512595198,0.8324134418136219,0.6663489785630349,0.36403338228794346,0.25452264678020303,0.24034691404717473,0.14943105136148913,0.09217246042067011,0.07187807852189707,0.05776073848212123,0.0534399430576044,0.041753928689405986,0.03337453064838515,0.02724727402879048
517,EMSC-20100312_0000003,2010-03-12 01:53:59,GR,36.3923,23.4691,65.4558,4.5,0.0,90.0,0.0,,,,HL,IACM,00,0.0,,GR,35.3058,25.0709,45.0,,816.166285,10.145915,188.3,310.3,,,,,0.15,0.15,30.0,30.0,1.1717085,0.04792785,0.0037036,39.2675,9.4857264383,0.00312543487433,Mw,False,27.70893659493046,0.5592922558608642,199.3523306952793,True,1.1685161241934148,1.192365628697842,1.2329040684092172,1.380373940278503,1.7556294012119984,1.9318971156870646,3.0323895462819412,3.659279291964471,3.365912514772183,2.8409510896880996,2.312787128098909,1.8192825573560585,1.56652727681327,1.7263617776120972,1.155160650645615,0.6558983153660329,0.6230252852653735,0.6166884390857347,0.541464204744875,0.3754053378682834,0.26230669399006956,0.14653211099277866,0.08748134165637836,0.06177328127920679,0.04814332531099197,0.027543245070252704,0.019042609616331477,0.014505153015394219,0.012054003484320053,0.010380031791858828,0.00852572348836156,0.006478809458534801,0.005121961538317132,0.004347475129313565,0.003821395818284204,0.0032996249786907605
518,EMSC-20100312_0000039,2010-03-12 11:42:49,GR,35.3822,27.3886,32.1494,4.13,0.0,90.0,0.0,,,,GE,KARP,00,0.0,,GR,35.5472,27.1612,528.0,,925.130666,14.280055,27.6,131.5,,,,,0.25,0.25,30.0,30.0,3.1217055,0.06862695,0.00444498,8.4725,5.42638363323,0.00487414391963,Mw,False,13.031939719143024,0.48459314016727734,42.371498915662634,True,2.762917970280696,3.126340118397229,4.755422846624683,7.481621876906103,8.381123037636424,7.627002748000029,4.860847020633338,3.6261320942982755,2.8699565655598347,2.0988418026140034,2.2494239952707895,1.431505063071731,1.023696062872179,1.0091127287127044,1.0058695789514662,1.0178825657216062,0.8301027294136551,0.710010119047609,0.4954803380882031,0.4141010178350205,0.24550203394269468,0.1528422719963296,0.1115659978443253,0.088041634889409,0.06125637612526552,0.03698374440210185,0.027221522551099157,0.018165126589154285,0.015374332375748874,0.013899047089638916,0.010785205144085114,0.008439287292182913,0.006814516417178845,0.005727516913986374,0.004925346688305301,0.004319024658415369
520,EMSC-20100411_0000035,2010-04-11 22:08:11,ES,37.0075,-3.4764,619.5529,6.3,0.0,60.0,-90.0,,,,IU,PAB,20,0.0,,ES,39.5446,-4.3499,950.0,,780.226277,8.756335,291.8,164.5,,,,,0.04,0.04,30.0,30.0,0.0279735,0.0117803,0.01449565,142.1525,0.434783704976,3.46086725778e-06,Mw,False,35.75997097572954,0.5888616168130195,684.8306622066582,True,0.025602930379157774,0.025816820350306503,0.026031564589935812,0.026082059255357885,0.02670208935645299,0.02812297761617713,0.033734826589149676,0.03769985527823681,0.04859966206672635,0.04698538532352374,0.05033900326784391,0.04838228196354529,0.05625643906256421,0.08397402342391366,0.06565756130104133,0.04878215399098322,0.05056158696085399,0.04019231640500458,0.04066351931399938,0.05267339157487393,0.07202765781281521,0.062192617246744006,0.04619027951853074,0.037260258828945354,0.03416994849279115,0.03177407150492363,0.03369803561040317,0.03793575345238315,0.03834147454128492,0.035654356255582574,0.030274765779440806,0.02278140320524616,0.017392422257983504,0.01346419685684965,0.010084891323162586,0.007653464705608826
521,EMSC-20100424_0000037,2010-04-24 15:01:10,,34.2407,26.0835,20.2761,5.39,0.0,35.0,90.0,,,,GE,KARP,00,0.0,,GR,35.5472,27.1612,528.0,,925.130666,14.280055,175.2,214.5,,,,,0.03,0.03,30.0,30.0,0.1160885,0.01872465,0.009923765,87.33,2.21614386945,0.000100743050967,Mw,False,13.031939719143024,0.48459314016727734,176.3693857539057,True,0.12897493584413988,0.1318967256796013,0.14065532350394705,0.14544572855879956,0.164106281479412,0.24865137191658523,0.24135951734911967,0.21296023666637864,0.19449288490584946,0.2639231078875058,0.27139803123825346,0.25613891109318004,0.32531443529606857,0.30310294643074653,0.278840808019558,0.32741933056097955,0.32505118908873415,0.28671252493918015,0.2317464739925939,0.22891333612526815,0.1831776517209455,0.1420468419641915,0.134691154275253,0.11629527854990503,0.08460138925573267,0.0974505085055999,0.05205540940190558,0.04450385691150824,0.03778696164022717,0.04920485931287681,0.04462014437448629,0.025140689071702072,0.022036206955826133,0.021478250673646587,0.014549845738013855,0.010200604540908348
524,EMSC-20100604_0000032,2010-06-04 18:44:53,,42.3054,16.6116,10.8823,4.28,0.0,35.0,90.0,,,,IV,CAFE,00,0.0,,IT,41.028,15.2366,1070.0,A*,738.045544,7.61682,182.3,38.5,,,,,0.1,0.1,30.0,30.0,0.02002,0.00264719,0.00120908,71.9275,0.272281975071,1.8835540426e-06,Mw,False,48.31148791125824,0.6275183706077132,182.62451766750814,True,0.019363511664984737,0.021704210904799095,0.02204009001796499,0.02165898381734471,0.0229454145745942,0.027722711988548306,0.05181933422960971,0.07053558716704639,0.0749542756285457,0.04962865813217198,0.047878401894800124,0.03829405015142692,0.043298407130055026,0.04262753375460513,0.03534348764624114,0.026717129449100627,0.024254107342881123,0.02413351611348831,0.02077842669693738,0.019389816657204368,0.026515433543504434,0.02243382557657075,0.01619293747286143,0.016898035566301782,0.017187364254009397,0.01690653403273421,0.012109727494869568,0.010185512161889553,0.005876019060554518,0.004498766164183242,0.003866225808201068,0.004101486559773176,0.003317904911235402,0.00188105555473516,0.0013019435471632401,0.000853850103940967
527,EMSC-20100606_0000027,2010-06-06 12:20:59,GR,35.5293,24.796,58.4622,4.9,0.0,35.0,90.0,,,,GE,KARP,00,0.0,,GR,35.5472,27.1612,528.0,,925.130666,14.280055,214.5,270.2,,,,,0.1,0.1,20.0,20.0,0.2012035,0.0071535,0.0006605075,46.7925,2.26876772217,0.000146187418876,Mw,False,13.031939719143024,0.48459314016727734,222.32426504734025,True,0.18976936974390782,0.196712610589662,0.26888144658194624,0.32907033869979835,0.5128522721174198,0.6795954883546536,0.540316729091373,0.5497865514752066,0.3799797136308727,0.3141275103839204,0.4227705607300489,0.3491155935073654,0.25094013278867927,0.22209164916313265,0.2005146597134484,0.18720679523991646,0.12910701917788978,0.11069224649450385,0.0935462678304164,0.07752102672178691,0.035568885279131254,0.02659902520770263,0.016727181830780702,0.01255703129724538,0.009654053656366323,0.007042496006388644,0.0036961402841342484,0.0028533737925480426,0.0022173876521709053,0.0019264142856613164,0.0016047336227548795,0.001018207248059058,0.000807700439519504,0.0007344194986518264,0.0006284377455245666,0.0005476833026485287
530,EMSC-20100608_0000054,2010-06-08 15:16:10,RO,45.6196,26.3787,114.8787,4.46,0.0,35.0,90.0,,,,GE,TIRR,00,3.0,,RO,44.4581,28.4128,77.0,,302.057214,0.383942,205.8,309.6,,,,,0.2,0.2,30.0,30.0,1.4720305,0.03372605,0.001925965,40.365,6.98992445287,0.00232808512407,Mw,False,457.1740089475847,1.7437793212006778,235.69207817338707,True,1.416801603754033,1.5540155567110645,3.8486608362390156,2.995695531575263,3.6428975870864115,4.965590298443882,2.7282094088247697,2.0197264875225063,1.9061284369107974,1.1968579274458602,0.9578734510883992,0.6395473650324892,0.6152797805909114,0.5691454681362227,0.311482864408301,0.25822885207118124,0.21614726150937005,0.17498257576113113,0.1271411541633943,0.10024578229531654,0.06891610287879024,0.047882132701039956,0.03406070046255655,0.025681669104635704,0.020758850064490564,0.013405106862684832,0.010810201755749057,0.008686875617850184,0.007273939166641415,0.006362166297732243,0.0053310070343228775,0.004295617301389871,0.0035915790399210206,0.00302940588234723,0.0026273027994504175,0.0023362409978424743
550,EMSC-20100620_0000045,2010-06-20 23:13:53,BA,43.7762,16.9472,27.9788,4.38,0.0,90.0,0.0,,,,MN,BLY,00,1.0,,BA,44.7488,17.1839,256.0,,819.664963,10.280572,109.7,190.0,,,,,0.1,0.1,30.0,30.0,0.463451,0.0378846,0.003691615,22.7475,1.69199352327,0.000240171973551,Mw,False,27.03252524661432,0.5565620287203097,113.21176285810587,True,0.4390608558901602,0.4440040166665162,0.46205161297413516,0.4423729374464491,0.4556250195039776,0.5954424554866742,0.633958714286664,0.9503793111700192,1.1081619218597976,1.4573728644722326,1.3252487742307102,1.2270152904181757,1.2075010492749063,1.2246917546060314,0.9306385821574346,0.6771508211174229,0.692516649924029,0.6306347487048267,0.5330431119984574,0.3391411800062033,0.1835007640910522,0.11544957297019336,0.06649882365876858,0.05394789419430567,0.046433511088436984,0.02566370016190183,0.016371315005215676,0.012673097411446028,0.009277424211493187,0.008287276874824443,0.006683249134964221,0.004667412130935086,0.003717087569589934,0.0031830355009016156,0.002617653911425267,0.002307729403547998
551,EMSC-20100626_0000059,2010-06-26 21:43:26,,34.4494,24.6221,51.3108,4.9,0.0,90.0,0.0,,,,HL,IACM,00,0.0,,GR,35.3058,25.0709,45.0,,816.166285,10.145915,103.5,203.5,,,,,0.15,0.15,30.0,30.0,0.209035,0.0102634,0.00102966,145.7175,3.70235334593,0.000218213472412,Mw,False,27.70893659493046,0.5592922558608642,115.52076954660578,True,0.2012532050005664,0.205915941966619,0.2599943242130489,0.2808017688245571,0.29840600755346736,0.3739336825628309,0.4784044036712037,0.6243680524450301,0.8331268936878704,0.6462340437875429,0.4753354078858423,0.4446270842177746,0.4939489529779368,0.46552014662203395,0.27963970945486266,0.19041846286534297,0.144877629335933,0.1269981772467621,0.13695566198591425,0.12732098391467137,0.09799304346738089,0.05867164339781186,0.03736998613861129,0.025446450047108733,0.01895281509433361,0.008854332272961073,0.006337251533590883,0.00431734733372241,0.00341496998522681,0.0028763431645059323,0.002352247010838785,0.0019021566707293068,0.0014523264095925544,0.0011261407549680456,0.0010097158015996382,0.0008613605516855296
552,EMSC-20100709_0000044,2010-07-09 22:15:10,AL,41.2045,19.9356,23.364,4.79,0.0,35.0,90.0,,,,MN,PDG,00,5.0,,ME,42.4297,19.2608,40.0,A*,361.436598,1.051467,147.2,157.4,,,,,0.1,0.1,30.0,30.0,0.393771,0.02564735,0.004622065,24.575,1.9711460502,0.000230693534256,Mw,False,400.89440726249586,1.4201193018457858,149.0426666964866,True,0.36634917989262644,0.3722617621835474,0.3831040695946729,0.4020290549885667,0.4737526984092017,0.7922055630939485,0.8123064494973556,1.0567885845333493,1.0437925901250689,0.8442352396376261,0.9753721772154463,1.164636942141198,1.0268604666165702,0.8140435374831004,0.49463378381182177,0.5073634174139874,0.46482689383038067,0.37416915902837317,0.3195551879472464,0.29844288252193246,0.18280647257687568,0.17173291122554232,0.16205170041687314,0.11424518037974293,0.10341232779509414,0.08088643825759669,0.05582424652424787,0.037518988006075005,0.020847242623426247,0.017050644210703594,0.013243386198401071,0.008970591953711861,0.005641691501668627,0.004176096981632491,0.0032647842195158935,0.002757727143863221
553,EMSC-20100716_0000025,2010-07-16 08:11:02,GR,36.8323,26.9143,167.1351,5.18,0.0,90.0,0.0,,,,GE,KARP,00,0.0,,GR,35.5472,27.1612,528.0,,925.130666,14.280055,144.3,351.2,,,,,0.1,0.1,30.0,30.0,5.2480765,0.153309,0.008537175,23.8425,19.2979371934,0.0286929788348,Mw,False,13.031939719143024,0.48459314016727734,220.80903888203943,True,4.587013098368043,4.934620851737244,6.817426910103254,9.680328624845336,12.000641117415352,17.146563724431786,15.542509482705809,9.265324003131246,6.001898083648206,8.187030156045598,5.875387278409824,3.6823424720957174,3.1414792065681416,2.9032115986610414,3.205844105442434,1.661752611582121,1.331294242682661,1.0066429996379054,0.7718728708161727,0.6272062312150606,0.382243536717104,0.2781711210837674,0.17696850604556733,0.13634349786476802,0.10409000846382903,0.07679855446556269,0.054367216767092275,0.0399292315227829,0.030220607240755436,0.023899381079852258,0.020065094692026747,0.01572758102824462,0.012776443284419963,0.010997884114683151,0.009561743774019466,0.008492622209894891
555,EMSC-20100806_0000005,2010-08-06 02:37:47,,34.3181,25.0738,34.1572,5.2,0.0,60.0,-90.0,,,,GE,KARP,00,0.0,,GR,35.5472,27.1612,528.0,,925.130666,14.280055,234.4,235.0,,,,,0.1,0.1,30.0,30.0,0.089148,0.00383099,0.001698375,71.6025,0.895110117559,2.22199951051e-05,Mw,False,13.031939719143024,0.48459314016727734,236.87565158082415,True,0.09660076161190448,0.09965408375475639,0.139139594867888,0.13422115719960098,0.18931837599662638,0.2440080470394368,0.2949711935765932,0.29806694165237446,0.1987744381151661,0.1151578084456282,0.09909758651955153,0.08135845507382745,0.08862931986650918,0.09802103876209434,0.09569507836351879,0.0981889000549451,0.09438993062821902,0.08041520299047936,0.06453024381636878,0.06303253954902975,0.03341209960478389,0.026865755154099055,0.022505728337469996,0.02730406312254643,0.024631153241373004,0.018023582856912773,0.013874476855002498,0.015356615252066453,0.009623672687700886,0.008364732213286926,0.0066717119242365374,0.0052038370458729775,0.0030095787080586544,0.002130724290000938,0.001572688780401259,0.0011222611104373171
558,EMSC-20100808_0000001,2010-08-08 00:24:12,TR,36.573,27.9742,22.3289,4.78,0.0,90.0,0.0,,,,GE,KARP,00,0.0,,GR,35.5472,27.1612,528.0,,925.130666,14.280055,135.4,32.5,,,,,0.1,0.1,30.0,30.0,0.410874,0.01346095,0.001201355,26.2475,2.14208688763,0.000251652471518,Mw,False,13.031939719143024,0.48459314016727734,137.22878624840345,True,0.40306663761715633,0.4213693891338098,0.4724354839668587,0.562496283536167,0.70122003850432,0.845089287827032,1.4134191066346882,1.294780298931058,1.0833528306142926,0.7485954139854185,0.5855031448318617,0.4079063049034668,0.28917388947828604,0.225683014241214,0.20046544063254393,0.20218714398299414,0.22292604455289652,0.1936134478748829,0.12174248901677671,0.0751687277862277,0.05737100933398331,0.04221665019870714,0.02909191073133561,0.019838553072237905,0.016972856536246337,0.014158827281946765,0.009295284073120089,0.007306417453170877,0.005364373215949837,0.004507424985510019,0.003404143798372801,0.0024352166228079177,0.0017351953780482474,0.001370090507959237,0.0012494858942781225,0.0011214829468164018
