id,event_id,event_time,event_country,event_latitude,event_longitude,hypocenter_depth,magnitude,strike,dip,rake,depth_top_of_rupture,rupture_length,rupture_width,network_code,station_code,location_code,sensor_depth_m,housing_code,station_country,station_latitude,station_longitude,station_elevation,ec8_code,vs30,slope_deg,repi,azimuth,rjb,rrup,rx,ry0,highpass_h1,highpass_h2,lowpass_h1,lowpass_h2,PGA,PGV,PGD,duration_5_95_components,CAV,IA,magnitude_type,vs30measured,z1,z2pt5,rhypo,digital_recording,SA(0.010),SA(0.025),SA(0.040),SA(0.050),SA(0.070),SA(0.100),SA(0.150),SA(0.200),SA(0.250),SA(0.300),SA(0.350),SA(0.400),SA(0.450),SA(0.500),SA(0.600),SA(0.700),SA(0.750),SA(0.800),SA(0.900),SA(1.000),SA(1.200),SA(1.400),SA(1.600),SA(1.800),SA(2.000),SA(2.500),SA(3.000),SA(3.500),SA(4.000),SA(4.500),SA(5.000),SA(6.000),SA(7.000),SA(8.000),SA(9.000),SA(10.000)
245,EMSC-20070328_0000047,2007-03-28 00:59:05,RO,45.6221,26.523,146.7023,4.1,0.0,90.0,0.0,,,,RO,MLR,00,0.0,,RO,45.4909,25.945,1392.0,,1305.613413,27.402644,47.4,71.9,,,,,0.35,0.35,30.0,30.0,0.0474195,0.001791225,0.0001709945,16.3375,0.149734362465,1.48379039461e-06,Mw,False,1.3261455547474237,0.3267545744632781,154.16979219448277,True,0.04698452229192077,0.04793408122620063,0.049148603896753774,0.05163935223257549,0.06384074816290924,0.07780548073882713,0.17287095150718643,0.11014023431062783,0.09499443224736911,0.08320677548132724,0.07027828562223185,0.06230881900662217,0.045440528518053136,0.048591837092252434,0.04758301049744541,0.03887588952036982,0.031320378158636586,0.02387747507589527,0.01658568132456427,0.012452550341195173,0.008138475410050706,0.0065864694639844795,0.005316087377009524,0.004135244853693672,0.0033191172019077604,0.0019474213719685835,0.0012901073598735882,0.0008704688391895485,0.0006407433183420643,0.0005618478441713557,0.0004441114724931118,0.00032109811584623166,0.0002516604855753084,0.00021014280858501917,0.00017718634258881243,0.00015336231610144652
246,EMSC-20070405_0000059,2007-04-05 01:22:29,RO,45.6885,26.6317,110.5413,4.1,0.0,90.0,0.0,,,,GE,TIRR,00,3.0,,RO,44.4581,28.4128,77.0,,302.057214,0.383942,195.9,314.9,,,,,0.35,0.35,30.0,30.0,1.1378395,0.01714565,0.000782214,36.4825,3.91434629273,0.000852445934723,Mw,False,457.1740089475847,1.7437793212006778,224.93596645643402,True,1.1645601476952576,1.5557238884197928,3.9467434817834315,2.8631156788540695,1.8267196817793363,2.421103262295931,1.4169790993518572,0.7590888855068292,0.6390123854824725,0.4929105687038978,0.3181222766563197,0.3423499940353439,0.33370493121319017,0.2779604518811984,0.1914039432561409,0.14192794182260235,0.12324929681340985,0.10705200625396985,0.09338878628614894,0.07551704554602226,0.04358370264215742,0.028288701384121543,0.01988355159421978,0.015036439372404625,0.012049762445791203,0.007466883955171662,0.005545813826662413,0.004490830658129963,0.0037288081205661414,0.0033081608183400035,0.0028379725157231524,0.0022813419296545618,0.0018775981998287068,0.001610250912125188,0.001409354462156345,0.0012544500787197552
249,EMSC-20070503_0000085,2007-05-03 20:07:12,RO,45.7368,26.6505,88.4879,3.8,0.0,90.0,0.0,,,,RO,IAS,00,0.0,,RO,47.1931,27.553,195.0,,690.214592,6.846236,176.1,203.5,,,,,0.45,0.45,30.0,30.0,0.259258,0.006616555,0.0002599765,74.075,1.43774311771,6.84657695786e-05,Mw,False,67.85667242225453,0.6775100315334779,197.08200944380997,True,0.2572659620859316,0.2722350264863065,0.3497080668214561,0.47335669077557146,0.627314047488178,0.6563659761748776,0.8380298345220174,0.3876673131939292,0.37610202168560597,0.23093728644374428,0.16567091266423323,0.12171560492393735,0.09536797386963823,0.0799799728432062,0.07000602643344357,0.047860750098593315,0.03972818898464917,0.03598711227648031,0.030479420532549498,0.019841998387259283,0.012615744488534952,0.007829045407966416,0.006314168828911688,0.0053028714862798625,0.00477819296387243,0.004219543814205512,0.002307035543722723,0.0017656995780709695,0.00144665130560201,0.0012896274655884155,0.0009348358144615556,0.0007663928496534921,0.0006275794770385661,0.0005516248725356752,0.00047717292463005486,0.00043925391290232125
250,EMSC-20070505_0000103,2007-05-05 17:30:09,RO,45.7082,26.6582,97.1381,3.8,0.0,90.0,0.0,,,,GE,TIRR,00,3.0,,RO,44.4581,28.4128,77.0,,302.057214,0.383942,195.9,315.8,,,,,0.25,0.25,30.0,30.0,0.4086195,0.00560834,0.0001508465,37.915,1.71448542794,0.000179156262012,Mw,False,457.1740089475847,1.7437793212006778,218.66097153266745,True,0.4037932106264294,0.570566575432701,1.2736370292355668,1.134763504295058,1.1137098022375487,0.7855990831333753,0.5959701201377465,0.28024083902422214,0.2224000334577313,0.14793531927163303,0.09610724171986208,0.07800313901376021,0.05466440318891262,0.045907084551297744,0.02798217554086887,0.02006625924281853,0.01839569786662088,0.016352090875481336,0.011690020530349808,0.009131392007793775,0.006330670106710663,0.005092644696029756,0.003976830899095409,0.00321360856359327,0.0024901650547704663,0.001942274439928611,0.0016154435923299828,0.00112518798429418,0.0009444321044945475,0.0008632763172935998,0.0007154159629194753,0.00055599820143594,0.0004605594424175885,0.0004002161915765028,0.00035149964438104344,0.000317616120497685
253,EMSC-20070512_0000109,2007-05-12 19:06:40,RO,45.6768,26.4449,144.3023,4.2,0.0,90.0,0.0,,,,GE,TIRR,00,3.0,,RO,44.4581,28.4128,77.0,,302.057214,0.383942,205.8,311.8,,,,,0.15,0.15,30.0,30.0,0.323673,0.00598782,0.000233053,51.935,1.28698595291,7.20032571033e-05,Mw,False,457.1740089475847,1.7437793212006778,251.34994287902674,True,0.31839696391611527,0.35449463457434727,0.8602879008099555,0.6113814257172031,0.8309035192186877,1.0048086261273836,0.47518962870626713,0.4457733514085381,0.23622499304688316,0.1432348532515742,0.105951230290167,0.07700650751722221,0.057494687345875706,0.04132604510475204,0.026783281576386417,0.02206666207200355,0.020050358999279788,0.017784275920036778,0.012186549962971473,0.010698146381499928,0.007255969955836367,0.005838715954728403,0.0044851391282768474,0.0033940125220747195,0.002827690753954541,0.002121303372929011,0.0014946805678806424,0.0012621485649478828,0.0010179125699194406,0.0008961919437263426,0.000920565043872512,0.0006399640614909559,0.0005800689614175197,0.0004949454515398641,0.00040299875930330107,0.00038031434366849745
255,EMSC-20070527_0000041,2007-05-27 10:06:50,RO,45.6508,26.5225,153.4729,4.1,0.0,90.0,0.0,,,,RO,MLR,00,0.0,,RO,45.4909,25.945,1392.0,,1305.613413,27.402644,48.5,68.3,,,,,0.3,0.3,30.0,30.0,0.0399175,0.002048145,0.0001810655,23.0375,0.120754987559,9.77133699559e-07,Mw,False,1.3261455547474237,0.3267545744632781,160.95397178824138,True,0.0361179368458388,0.03706924285711808,0.03746397837923784,0.03997665581311173,0.0636920548891304,0.06399385951792563,0.08349737337186122,0.0680539622211668,0.09556207864524505,0.09355309784822735,0.08657189227457143,0.07905532331222231,0.07062280696772114,0.06317691742242573,0.04123595368122338,0.03246174838174925,0.02507032780001091,0.01868625548364359,0.014054008325029553,0.01065014046855721,0.006309473829092248,0.0045191833333026,0.0036318383774611995,0.0026769036217241743,0.0022923228393923922,0.001560878598738544,0.001013049850698375,0.000772275857449914,0.0006668920452367085,0.0005666815684315134,0.0004104996954931879,0.0003185984934051007,0.0002503996805109783,0.00020603155098188237,0.00017636326148038885,0.0001513538899401003
256,EMSC-20070724_0000077,2007-07-24 19:31:24,GE,41.2041,43.7557,10.0,4.44,0.0,90.0,0.0,,,,IU,GNI,20,100.0,,AM,40.148,44.741,1609.0,,861.645389,11.886995,143.8,324.9,,,,,0.25,0.25,30.0,30.0,0.083862,0.00788661,0.00141748,46.2975,0.912794739758,2.81112080711e-05,Mw,False,20.139971113775932,0.5256512483051314,144.14728578783578,True,0.08386305768334469,0.08499239472446932,0.09243702641257993,0.08692903101956216,0.08551792677561822,0.09805247922413793,0.11995747872475479,0.18191699358498645,0.19359955204235366,0.23334819620472752,0.264463169399824,0.2589606721492667,0.28744411760549216,0.2182812693017887,0.21678272021773323,0.19943554103017846,0.22663023803543955,0.21346683165306968,0.1630223933329406,0.16180029647068017,0.09226816048887071,0.06902089747315662,0.06087363984517437,0.04413782758587015,0.03877983001509935,0.018713889280424847,0.013719932944442549,0.011722592716630566,0.007685027260849502,0.00623594772268017,0.0037303714292279263,0.002369058040656666,0.0017275482627122174,0.0013876159411018597,0.0010609184700060602,0.0008661275887535277
257,EMSC-20070812_0000045,2007-08-12 07:47:04,ES,39.4138,-3.0527,2.9259,4.8,0.0,90.0,0.0,,,,IU,PAB,20,0.0,,ES,39.5446,-4.3499,950.0,,780.226277,8.756335,112.5,97.0,,,,,0.1,0.1,30.0,30.0,6.2377115,0.1454755,0.0077123,7.97,11.5133417404,0.0159887699446,Mw,False,35.75997097572954,0.5888616168130195,112.53804197163731,True,5.295772290402978,5.645837287099231,8.06717442850965,11.104689132253997,13.55323408463825,14.049127661175266,18.542872683594634,12.888222043012759,9.845994714958971,4.46909190632728,4.318912593836555,3.1578133685669267,2.731033123197154,2.484024850217888,1.8620392952889047,1.1752613313472031,0.8405084031465718,0.6884687494737869,0.6918135352015021,0.6721797365705099,0.4267114167607893,0.3067080020736336,0.22213165891875927,0.17836497578840976,0.13889715930140545,0.08447500118378216,0.06449446004115392,0.0545962952589276,0.03968680498604039,0.03392217893944904,0.026807739479486142,0.018389941272336896,0.013764265145658884,0.01179133681988603,0.01042127947998709,0.00929726992186416
258,EMSC-20070922_0000066,2007-09-22 09:54:12,RO,45.557,26.3993,125.0653,4.1,0.0,90.0,0.0,,,,GE,TIRR,00,3.0,,RO,44.4581,28.4128,77.0,,302.057214,0.383942,200.3,308.3,,,,,0.25,0.25,30.0,30.0,0.3952065,0.006758085,0.0003085085,48.3875,1.55852319492,0.00010263742421,Mw,False,457.1740089475847,1.7437793212006778,236.13855946052098,True,0.40929205880397923,0.4497192006274582,0.7266234605316567,0.8655945224641847,1.0109681141114195,0.7529398592982046,0.687989528617987,0.4384611329958449,0.25258733014543705,0.15792532725310404,0.09796110766013214,0.07805162394210642,0.08048071172647518,0.06975392320149455,0.049909563091656096,0.04298118506974884,0.03900597518329724,0.033296602078890875,0.024626843809144525,0.019011076981591546,0.01193437555970148,0.007375772162967074,0.0055756399632687905,0.0043530322764711955,0.003691401359917396,0.0025487651912249588,0.0017967261894902074,0.001385929291125633,0.001147553920301787,0.001083453736898812,0.0009129118248768607,0.000751248960065836,0.0006281560315717744,0.000543571522432881,0.0004897356429748605,0.0004435098646028068
260,EMSC-20071030_0000049,2007-10-30 03:22:26,RO,45.7391,26.677,114.9543,3.8,0.0,90.0,0.0,,,,GE,TIRR,00,3.0,,RO,44.4581,28.4128,77.0,,302.057214,0.383942,197.3,316.8,,,,,0.35,0.35,30.0,30.0,0.240261,0.00372688,0.000156696,42.78,1.03541986731,4.99561343005e-05,Mw,False,457.1740089475847,1.7437793212006778,228.34574900463988,True,0.2465353460520418,0.33712548309642804,0.8370167057454707,0.5951270022104526,0.3687318019970613,0.3533973555164215,0.4285723666756876,0.3134614248037548,0.1654463676482503,0.09737588386761889,0.07163121627474994,0.06444623470770035,0.04305138073279416,0.03153040243955031,0.025391682594897096,0.01756742357319365,0.0160167648418774,0.01458778005729453,0.011482189773732186,0.008782224888944715,0.0064139229805166825,0.004974972462235344,0.003664941472929684,0.002584498403946112,0.0020059179943357603,0.0013746679599088646,0.001090573243757612,0.000918256500113122,0.0007149769227045024,0.0006454881873435021,0.0005299056519796709,0.00043111019472983936,0.0003637141734934177,0.0003163858403911275,0.00027838642208268704,0.0002452590467240709
262,EMSC-20071030_0000077,2007-10-30 17:56:01,RO,45.5457,27.6835,16.9517,3.3,0.0,90.0,0.0,,,,GE,TIRR,00,3.0,,RO,44.4581,28.4128,77.0,,302.057214,0.383942,133.8,334.8,,,,,0.3,0.3,30.0,30.0,0.429746,0.008016305,0.0003321305,37.245,2.97361762252,0.00038714594594,Mw,False,457.1740089475847,1.7437793212006778,134.86956711167275,True,0.40556511038549653,0.4974985364551337,1.1392735663746438,1.103449897457968,1.3255952048796797,1.0111380635106169,0.7593118826845792,0.4839959326998523,0.3030099211890594,0.295907096560728,0.21224176293086147,0.252943130960301,0.16759620175887044,0.14606103918910066,0.10540001258064441,0.05655947262837588,0.0458130013751555,0.037682646815211905,0.03230774363832919,0.02238717168380142,0.01528927843294117,0.011602652843207885,0.008395266523464279,0.006588900591145688,0.00513550912763282,0.003091747078918326,0.0023149665224361238,0.0017112065918526611,0.001434511763632491,0.0012528327901200542,0.0010953656923603187,0.0008827111645379818,0.0007286398287219825,0.0006244293394772542,0.0005484095185169565,0.00048820794749778503
266,EMSC-20071115_0000054,2007-11-15 13:47:34,FR,43.1109,0.0171,8.1354,3.36,0.0,90.0,0.0,,,,RA,PYAD,00,0.0,,FR,43.0967,-0.42805,450.0,A*,807.917371,9.827984,36.3,87.4,,,,,0.2,0.2,40.0,40.0,3.49519,0.03710265,0.001118415,13.7075,11.5102886171,0.0147597161697,Mw,False,29.37422514630336,0.5658297735884721,37.20046684061908,True,3.764279930876555,5.142374461306761,13.13727623482128,16.55948659500046,9.312911401275114,4.618019110408705,2.2905264126833376,1.5609042583387363,1.021514843357648,0.6431758836741316,0.5080692998204084,0.3774077089196775,0.282283398231281,0.25326843807904686,0.19489595233354642,0.11816667931358654,0.10709577916986271,0.09217389305003884,0.06924028336163855,0.06124221926089877,0.03947838606123609,0.026490141751225115,0.02169314156594199,0.01900074409069287,0.016610373024107557,0.014243497253132743,0.012426853101248119,0.011528995186051558,0.008574741978625363,0.006942306893245213,0.005370784672652592,0.0041809795502967964,0.003510425187922398,0.0030454113022710086,0.0026698539285886034,0.002362359625459257
280,EMSC-20080215_0000079,2008-02-15 17:03:02,RS,43.902,20.4136,8.5299,4.58,0.0,90.0,0.0,,,,RO,BZS,00,0.0,,RO,45.6188,21.6401,260.0,,939.131754,14.801347,214.1,207.4,,,,,0.1,0.1,30.0,30.0,0.1049365,0.005268975,0.0005974575,35.53,0.781680314973,2.898116485e-05,Mw,False,11.861092060782132,0.4763371319073115,214.26985134173682,True,0.09631931494772998,0.09749555497047033,0.0990636419984648,0.10428287881526861,0.1121121454169886,0.13490787296522022,0.2649398441080541,0.3630064961181824,0.29954073654847013,0.39923965093913205,0.390870101742254,0.23860848653390349,0.17567432667865843,0.159863285491072,0.08838489550822584,0.056737980083890895,0.05182422048617808,0.04697521610381372,0.049708540272271125,0.03976155085003602,0.03171329784175717,0.024510115299606405,0.01866613554006292,0.013161986058342411,0.009453116311566255,0.006418514314076117,0.0052465607782622705,0.003577020547886187,0.002119540516244028,0.001892182866427027,0.0015074223031387058,0.0010518098687500512,0.0008241359111214607,0.0007362608233499865,0.000588761411778999,0.00040924320397533787
281,EMSC-20080223_0000072,2008-02-23 15:30:54,DE,49.364,6.845,2.0,2.9,0.0,90.0,0.0,,,,CH,BOURR,00,0.0,,CH,47.39377,7.23018,860.0,B,694.0,9.688395,220.9,352.7,,,,,0.1,0.1,30.0,30.0,0.0229575,0.002628135,0.000528784,71.3775,0.353403427461,3.3782908619e-06,Ms,True,66.06723753401266,0.6732840837875917,220.909053684995,True,0.02446772216615188,0.02457137615193744,0.025076832096578707,0.024776542858114814,0.024855905636286924,0.02700648844259468,0.03580399931571891,0.04068656102449555,0.06719255059900614,0.06849195910470075,0.06779310035689473,0.05636381661136868,0.06563852344469671,0.07417230237763958,0.055909241955154426,0.05763234118097234,0.059016111656055414,0.06827768910119908,0.058457845187793234,0.06113551983094607,0.04249032045066264,0.03312436520146461,0.02480490274119211,0.020713429894635992,0.018692758999141888,0.013498318487870998,0.00726073508675258,0.004977263304266713,0.0024983004222871195,0.002182373020361093,0.001589846218978427,0.0011944270593050041,0.0009952075160487887,0.0006129967373485767,0.0004141714620782074,0.0003421023238740129
287,EMSC-20080415_0000057,2008-04-15 03:43:11,BG,42.9207,25.3554,5.7768,4.21,0.0,90.0,0.0,,,,RO,BUC1,00,0.0,,RO,44.3479,26.0281,120.0,,499.805481,3.077907,167.6,199.1,,,,,0.2,0.2,30.0,30.0,0.284795,0.02367445,0.005179375,41.8175,3.02651187692,0.00032703483355,Mw,False,229.1208777637115,0.9801334741023575,167.69952718549925,True,0.2941049319783672,0.29573706014295875,0.30285223327556954,0.309052462394332,0.3428379994239262,0.46891261623249164,0.6554410241799029,0.93849048660069,1.1372407660649526,0.9317599166738179,0.8871739149231114,0.8340119062249651,0.6406883373403952,0.6299077105894164,0.4861860982864483,0.48676534572625446,0.43199549763278783,0.4713584463123579,0.5074359514066775,0.5848245320042585,0.3428042329260244,0.3260172106959999,0.2542899429037649,0.19656116905431756,0.18303630942247498,0.06298751114308297,0.05695476173244868,0.06205920106640111,0.04938621766242076,0.03759877870356961,0.021150881778308914,0.010232804161128073,0.005885681778689704,0.004182991752322732,0.003354259977998128,0.002465909974025816
288,EMSC-20080503_0000064,2008-05-03 12:14:20,FR,43.0696,0.2362,11.4288,3.05,0.0,90.0,0.0,,,,RA,PYAD,00,0.0,,FR,43.0967,-0.42805,450.0,A*,807.917371,9.827984,54.2,93.0,,,,,0.2,0.2,40.0,40.0,0.8192835,0.00934867,0.000495881,20.515,3.78112043614,0.00113832710627,Mw,False,29.37422514630336,0.5658297735884721,55.39185381840908,True,0.8391511874864982,1.5275084543792221,4.121685287719091,3.250017980011803,2.313011548436367,1.6408647082559853,0.8645639975721867,0.4977168910937221,0.3637530266870641,0.19624072356929384,0.18455225298001648,0.13993436289918212,0.13278582300833172,0.1083513494885966,0.09273551617368611,0.0733905032752876,0.062130894408498574,0.05579093757054097,0.042070952116632684,0.031101531152018868,0.019050077690130295,0.014437759521477009,0.010996701641856071,0.009235200051975052,0.0073544221390942745,0.00418005837279816,0.003307556348726352,0.0026739689601788575,0.002173988960413553,0.0019638266216751416,0.0015129500983178527,0.0011666640476161079,0.0009375371992619813,0.0007730420428411381,0.0006742877723939535,0.0005986317732964063
302,EMSC-20080507_0000051,2008-05-07 08:00:22,,45.3222,30.8887,13.882,4.8,0.0,35.0,90.0,,,,GE,TIRR,00,3.0,,RO,44.4581,28.4128,77.0,,302.057214,0.383942,217.9,63.0,,,,,0.1,0.1,30.0,30.0,1.6497235,0.0710624,0.008272365,33.59,9.23814273034,0.0040288151727,Mw,False,457.1740089475847,1.7437793212006778,218.34175029984533,True,1.7845199314101257,1.989936381746914,3.0392325540833496,2.618374544636424,3.1104126632168922,3.7948683738438147,3.3568117638318653,2.647159436225933,2.0255998210406716,3.3033796935108746,3.376084607055931,2.648333023526309,2.848679816757229,2.702815522228626,1.6911143479966102,1.3749107099735602,1.2548224558876844,1.170456978312317,0.7724809716491404,0.5815010318185171,0.32222579894850134,0.2186698482461631,0.17563438924367858,0.1358255237869525,0.11892197545029261,0.07721878938444969,0.05436130132732291,0.03641620182006904,0.02545126979150549,0.021079881783349734,0.017051923527860426,0.01350591092818252,0.011402227150868378,0.009234421043032421,0.0076288265808052026,0.006618497714738595
303,EMSC-20080716_0000056,2008-07-16 20:33:31,FR,43.2189,-0.413,4.2276,3.55,0.0,90.0,0.0,,,,RA,PYAD,00,0.0,,FR,43.0967,-0.42805,450.0,A*,807.917371,9.827984,13.6,5.1,,,,,0.45,0.45,40.0,40.0,93.7444305,0.922407,0.0192242,1.5325,45.956550593,1.49500634504,Mw,False,29.37422514630336,0.5658297735884721,14.241931110632434,True,92.372469387908,127.24510521037735,274.98732167865484,365.81588764295077,270.8666570067272,60.07659831706519,21.44646208002616,12.962336182185679,9.468763111726895,8.266292471138437,6.423489721989131,5.270813700558956,4.100749336645682,3.306075060581656,2.331287360215381,1.7578184153091583,1.5416418344738834,1.3597347736231502,1.1023694039658394,0.9214811139952896,0.683391340635803,0.5482058686661426,0.4844724505387278,0.4209464638787217,0.36545521209855525,0.28588331552051094,0.2297847844919241,0.18972655955347947,0.1607024703854922,0.1429543396018463,0.12271218551146418,0.0993871831274033,0.08349254607448499,0.07198692995259626,0.06326592640592565,0.056422813098958476
