id,event_id,event_time,event_country,event_latitude,event_longitude,hypocenter_depth,magnitude,strike,dip,rake,depth_top_of_rupture,rupture_length,rupture_width,network_code,station_code,location_code,sensor_depth_m,housing_code,station_country,station_latitude,station_longitude,station_elevation,ec8_code,vs30,slope_deg,repi,azimuth,rjb,rrup,rx,ry0,highpass_h1,highpass_h2,lowpass_h1,lowpass_h2,PGA,PGV,PGD,duration_5_95_components,CAV,IA,magnitude_type,vs30measured,z1,z2pt5,rhypo,digital_recording,SA(0.010),SA(0.025),SA(0.040),SA(0.050),SA(0.070),SA(0.100),SA(0.150),SA(0.200),SA(0.250),SA(0.300),SA(0.350),SA(0.400),SA(0.450),SA(0.500),SA(0.600),SA(0.700),SA(0.750),SA(0.800),SA(0.900),SA(1.000),SA(1.200),SA(1.400),SA(1.600),SA(1.800),SA(2.000),SA(2.500),SA(3.000),SA(3.500),SA(4.000),SA(4.500),SA(5.000),SA(6.000),SA(7.000),SA(8.000),SA(9.000),SA(10.000)
182,EMSC-20050731_0000085,2005-07-31 15:18:19,TR,39.4244,33.0781,11.6813,4.58,0.0,90.0,0.0,,,,IU,ANTO,10,0.0,,TR,39.868,32.7934,1090.0,,543.49846,4.037032,55.0,153.5,,,,,0.2,0.2,30.0,30.0,0.954559,0.03158605,0.00232443,19.395,4.16239813141,0.0013072038155,Mw,False,179.21820783244416,0.8905262108815706,56.22679761190388,True,0.863440488395118,0.8986787433782998,0.9860848199521175,1.0523720960857903,1.9283936704936573,2.553629067464576,2.6638243644805115,2.333022381054241,2.0247401805169964,1.3497325982208475,1.1864430464206868,1.1276616810462259,0.9349448939782494,0.94139284724285,0.6656608748341756,0.4384881154660865,0.35728023769024786,0.308357481939388,0.27246963306027333,0.17939469896850352,0.14350615887828647,0.09960434976445556,0.06665137027848714,0.0470404367326665,0.04917167782372288,0.02994491409237969,0.01763466977292175,0.011379128569446784,0.011093886965351685,0.009622837419389357,0.007314481252966611,0.005136983356017421,0.003823417058077761,0.003238478346384302,0.002735931651193063,0.0023772420995767343
183,EMSC-20050731_0000109,2005-07-31 23:41:35,TR,39.443,33.0789,11.4689,4.8,0.0,90.0,0.0,,,,IU,ANTO,10,0.0,,TR,39.868,32.7934,1090.0,,543.49846,4.037032,53.2,152.5,,,,,0.15,0.15,30.0,30.0,4.1442125,0.1566685,0.00867666,12.9625,12.7615307218,0.0177381635415,Mw,False,179.21820783244416,0.8905262108815706,54.422198294537864,True,4.289154398153557,4.392513310918932,4.637022354571951,4.84411309819455,6.955248212723972,9.753817574160387,12.119245794602897,13.952015206413732,12.81975463103721,5.630297293589389,3.492957925569674,2.7409414581125224,2.4443033342447498,3.0885253082984443,2.1681950395202,1.5263792586379048,1.1780489736848805,0.9753869000145532,0.90676687635191,0.7454266655761652,0.505062667651253,0.2833913726650831,0.24659022642838058,0.19555141273844073,0.16865397086342201,0.11743063961334793,0.07748537678813984,0.05821136061800995,0.04339432792428061,0.03348607740539342,0.026929670068532217,0.01919863120120807,0.015746617414543352,0.014516437786178813,0.013139368021331924,0.011644788533932249
184,EMSC-20050801_0000058,2005-08-01 00:45:08,TR,39.4562,33.0651,19.2608,4.7,0.0,90.0,0.0,,,,IU,ANTO,10,0.0,,TR,39.868,32.7934,1090.0,,543.49846,4.037032,51.3,152.9,,,,,0.15,0.15,30.0,30.0,1.583645,0.0486703,0.004513465,21.5225,6.14039004405,0.00274682175799,Mw,False,179.21820783244416,0.8905262108815706,54.796609535992275,True,1.528897971743046,1.578626897496682,1.7207724227218426,2.0069400945220064,2.7441892389556517,3.831397052042506,4.179782146212887,4.742773336139943,2.6899994627137014,1.7886415152847146,1.6894557211125718,1.2161814175936088,1.133891275343452,1.2277514939392253,1.0921539767816624,0.7359953913870657,0.5883613046028775,0.5399210392575936,0.415323369200434,0.3344579859623627,0.27317650697854673,0.14677238187070482,0.09825831705255286,0.08881365340982207,0.08921517398963026,0.05291798980498031,0.035297243490108404,0.023295959134579543,0.019226037553276547,0.01686091257909844,0.013677391564183574,0.010785348116773978,0.0071369756199667666,0.005732524225853738,0.0046187868537095325,0.0038653926061915107
185,EMSC-20050806_0000068,2005-08-06 09:09:28,TR,39.3856,33.0984,6.0,4.7,0.0,90.0,0.0,,,,IU,ANTO,10,0.0,,TR,39.868,32.7934,1090.0,,543.49846,4.037032,59.6,153.8,,,,,0.15,0.15,30.0,30.0,1.4021765,0.0528282,0.00405374,18.0525,6.10603381927,0.00333710883845,Mw,False,179.21820783244416,0.8905262108815706,59.90125207372547,True,1.4596090424493813,1.520521939269539,1.638046727050239,1.8478346307502738,3.1467907679253164,4.460837638089958,4.752902223473569,3.452245183847752,3.179303109645257,2.036502013207942,1.9253946535710542,1.6844907107194151,1.6895122259101885,1.4021408658904426,1.2320050345676352,0.8206737262980947,0.6303500669667609,0.522554917975135,0.35823841170092297,0.2563855144504073,0.15435049473519677,0.10515134355775013,0.0919596995210402,0.06851494455956307,0.05576482504231498,0.04031758395539098,0.023931253205797642,0.018756829396249248,0.017731904973803576,0.013927799646749662,0.010714836489653027,0.008146981465549066,0.006500641122227869,0.00476639570325419,0.003925705796414194,0.0035703642671301764
186,EMSC-20051021_0000107,2005-10-21 01:17:39,RO,45.5497,26.4766,124.201,4.1,0.0,90.0,0.0,,,,RO,VRI,00,0.0,ERR,RO,45.8657,26.7277,475.0,,597.891754,5.227826,40.2,209.2,,,,,0.5,0.5,30.0,30.0,0.598324,0.02611415,0.0016618,17.7375,1.58366652189,0.000229780080472,Mw,False,127.58036778912752,0.7984677307567472,130.54473716316562,True,0.5508446796965547,0.5564291287846099,0.5770291832429275,0.5861365938763762,0.6442210122822757,0.9199985682054076,1.2444507721561346,1.3778076912980273,1.2708742036094682,1.7352339427005226,1.6316136828305896,1.08336943078527,0.6706235140225848,0.46795879312178756,0.35332279719967125,0.24586055267163132,0.20422389284312448,0.1693246007820482,0.11643222592993746,0.09402977658167651,0.059703616305882175,0.04036036116042571,0.02663077062347239,0.020055421960158304,0.017942411961606498,0.011803976406279369,0.008836329328403282,0.006606836459304861,0.005276992325179183,0.004610829643350533,0.0038163134043209816,0.003002481640243617,0.0025090878820798607,0.0021392264957222273,0.001856123379519799,0.001643895373799683
187,EMSC-20051026_0000051,2005-10-26 22:51:22,RO,45.6412,26.5764,145.3771,4.4,0.0,90.0,0.0,,,,RO,VRI,00,0.0,ERR,RO,45.8657,26.7277,475.0,,597.891754,5.227826,27.6,205.3,,,,,0.5,0.5,30.0,30.0,0.6400425,0.02328785,0.00120265,9.2875,1.92494911005,0.000330974967702,Mw,False,127.58036778912752,0.7984677307567472,147.9738531106425,True,0.5492671551458361,0.560777166074012,0.5736955981398149,0.5767708965551227,0.7024686813801737,0.9272970576627535,1.1393338147575538,1.9821590527503083,1.7827336596558667,1.6032456963547415,0.8545027943078946,0.665610281718965,0.6086472441529658,0.4674541232334998,0.28699868473566215,0.22367120594300913,0.1727624900926124,0.14287668915536922,0.12698663782067782,0.10108880078426097,0.05543693552136517,0.03730921937001631,0.027232623634163493,0.02117609102266044,0.0167937753944728,0.01099257203751697,0.007710219970921711,0.0060074584476299125,0.004714581847841863,0.004051165387885317,0.003272283606290873,0.0025615264980085608,0.0021170706176223786,0.0018085892292060129,0.0015901905546191627,0.0014113327035111174
188,EMSC-20051112_0000067,2005-11-12 19:31:15,CH,47.5121,8.13,31.8636,3.61,0.0,60.0,-90.0,,,,CH,BNALP,00,0.0,,CH,46.87049,8.42502,1540.0,A,1601.0,22.179484,74.8,342.7,,,,,0.3,0.3,30.0,30.0,0.206271,0.00713172,0.0003948465,23.8875,0.594875832505,3.10018672777e-05,Mw,True,0.31966880765187233,0.2587556839549334,81.30392982482458,True,0.21145373203374776,0.22024503549683022,0.3067511662846614,0.38422044843292763,0.5557736426010144,0.48562080054915274,0.510148520171332,0.47102709391817366,0.4870350667580313,0.37555148516548303,0.28447517519460286,0.29438998047487963,0.24508308382260902,0.1515662591047229,0.0830535377633006,0.055594546081427804,0.05418563752508593,0.052133034229747265,0.04487776112953943,0.03032921759623878,0.016142626645004213,0.010769422547193512,0.007465373399904388,0.006636094031883514,0.005501793889269208,0.0032970468604495142,0.0026494518300961803,0.0020545035896780517,0.001762989506491743,0.0014837671650228686,0.0012442600210566923,0.0009797754844861144,0.000801184123656978,0.000690469405549587,0.0005913653692938064,0.0005209280180600771
213,EMSC-20051213_0000038,2005-12-13 12:14:45,RO,45.7196,26.6254,134.4618,4.8,0.0,35.0,90.0,,,,RO,IAS,00,0.0,,RO,47.1931,27.553,195.0,,690.214592,6.846236,178.6,203.8,,,,,0.35,0.35,30.0,30.0,1.871303,0.09663745,0.00865307,45.855,15.1626889453,0.00719165116917,Mw,False,67.85667242225453,0.6775100315334779,223.55745493997733,True,1.8493403264407555,1.8952354225794747,2.0467567464161442,2.2200597160436923,2.529845123085601,3.4487863070361433,9.32630860673182,5.008847032541521,2.4533848162283878,1.999355329700051,2.010509754166838,2.2295401275823674,2.3981554617663967,2.2110374264132213,1.8348912172387768,1.5284447585699654,1.7115312839676637,1.6518667188366014,1.5218029090522858,1.073027926197636,0.5748349950620613,0.37345013120897413,0.25640123086678035,0.17717987518620731,0.14764600396895272,0.08339748265985011,0.05397376383948039,0.03674611808068983,0.02824496877321694,0.023337380744205206,0.018749375749608305,0.014128771284156311,0.0112214687095763,0.009325023592463453,0.007949041829050844,0.00693131091497128
215,EMSC-20051218_0000030,2005-12-18 15:09:48,RO,45.4249,26.0217,82.335,4.1,0.0,90.0,0.0,,,,RO,VRI,00,0.0,ERR,RO,45.8657,26.7277,475.0,,597.891754,5.227826,73.7,228.6,,,,,0.35,0.35,30.0,30.0,0.692137,0.0288442,0.001612915,10.1825,2.62709310888,0.000661833560548,Mw,False,127.58036778912752,0.7984677307567472,110.50222723999728,True,0.6713386592756297,0.6825012938595795,0.706928418041742,0.7581429331465143,0.8518296800182534,1.1398699890777018,1.9054912975923033,1.8002731908796508,1.8538421779105145,2.762714907152021,1.832097264230259,1.2371570541325785,0.814975233691184,0.6938893876079961,0.525423680984213,0.38055505683146557,0.28086143654834494,0.20112821085069096,0.19275369451712204,0.14335129038484445,0.0820064050852127,0.04791297342056742,0.03404860437668481,0.025824341521130795,0.022685237887225252,0.013321944677861412,0.009111617529286443,0.0067735185834247175,0.006128944444192654,0.005029761028120521,0.004578134773027111,0.0034794378856361267,0.0028627825624730915,0.002360693118556497,0.0021135796649286724,0.0018809383296642132
216,EMSC-20060511_0000068,2006-05-11 16:55:37,RS,44.0273,20.1592,2.8046,4.5,0.0,90.0,0.0,,,,RO,BZS,00,0.0,,RO,45.6188,21.6401,260.0,,939.131754,14.801347,212.1,214.0,,,,,0.2,0.2,30.0,30.0,0.1346925,0.00651966,0.0007152805,40.85,0.890121087508,3.37717427809e-05,Mw,False,11.861092060782132,0.4763371319073115,212.11854181367548,True,0.12944847951984603,0.13041665823045767,0.13355523984104853,0.1326158686432359,0.14384660696728305,0.16791808745635473,0.257213506550492,0.41277691538166233,0.442867020821149,0.37590549131929424,0.28650317452691515,0.27754359910471726,0.24530607906246432,0.22813099581600044,0.20794878052058877,0.1106823275505173,0.08323234438606184,0.07086511618560996,0.06579496409300639,0.06480990109543448,0.039674611277238744,0.027297772216794542,0.02099491033560277,0.017344418122266312,0.014184299947477141,0.010097929589772351,0.006155101623856425,0.004165500090025206,0.003126118359883387,0.002410634771175426,0.0018014716206479636,0.00127201808163249,0.0010125833299042602,0.0007818247885555945,0.0006469428104554528,0.0005759270787174363
217,EMSC-20060902_0000059,2006-09-02 17:37:09,RO,45.6798,26.5663,145.773,4.1,0.0,90.0,0.0,,,,GE,TIRR,00,3.0,,RO,44.4581,28.4128,77.0,,302.057214,0.383942,198.9,313.7,,,,,0.3,0.3,30.0,30.0,0.067538,0.002037905,0.000143044,52.0975,0.688055965048,1.38600105274e-05,Mw,False,457.1740089475847,1.7437793212006778,246.59881899352234,True,0.06495510692778514,0.08658803021203336,0.2073988570966581,0.18470939708092818,0.19830171934705962,0.21216945789863345,0.1232888588234963,0.11662885221076301,0.1290572249352976,0.12734184786628472,0.09392970777129034,0.07245847728181982,0.05778051588554744,0.046780733534223254,0.03242243374578781,0.021104270444628027,0.017668766934905218,0.01566113788969371,0.012316148099142037,0.008934180656333293,0.005729756103011715,0.004210112468806504,0.0028928803984955894,0.002098996426866897,0.0017164163247883656,0.0014331775884376646,0.0009860811325646587,0.0005526517891041337,0.00045119840425249735,0.00042965567609424177,0.0003436640801713208,0.0002636209399877028,0.00021516272911450068,0.00018099723754798027,0.00015821504353252883,0.00013839075113604955
218,EMSC-20060923_0000041,2006-09-23 05:44:07,RO,45.5426,26.3885,124.2611,4.3,0.0,90.0,0.0,,,,GE,TIRR,00,3.0,,RO,44.4581,28.4128,77.0,,302.057214,0.383942,200.0,307.8,,,,,0.15,0.15,30.0,30.0,1.0815735,0.02654175,0.00159266,48.08,4.03905381318,0.000790997408227,Mw,False,457.1740089475847,1.7437793212006778,235.45874579894033,True,1.2128031007546114,1.2870757781886815,1.4450838674623698,1.7823589559906277,2.2327945073382818,2.372489793444853,3.736275106921331,2.071431398429598,1.4229867390387023,0.8572285371358095,0.7501789006123806,0.6930061865481433,0.4690943869340157,0.4004495066422233,0.3423725827924894,0.24330927064951718,0.22109706303341073,0.18815855765816233,0.16014333744492776,0.12808650368013016,0.08728050086359496,0.06571604804003357,0.04652636794335015,0.03376306373835171,0.025417883468141087,0.014427335166273777,0.009909396449834873,0.007685800543860087,0.0061464610142748,0.005284847206873629,0.004160649949226683,0.003206493411812973,0.002589351270106086,0.002176827967479286,0.0019681768213247507,0.00176221366468428
222,EMSC-20061117_0000084,2006-11-17 18:19:50,FR,43.0865,-0.0261,0.8546,4.49,0.0,90.0,0.0,,,,RA,PYAD,00,0.0,,FR,43.0967,-0.42805,450.0,A*,807.917371,9.827984,32.7,91.8,,,,,0.2,0.2,40.0,40.0,8.6020715,0.0948494,0.006877365,19.335,30.059727334,0.0829522491318,Mw,False,29.37422514630336,0.5658297735884721,32.711165389817594,True,8.897282117028773,11.862987806197898,29.84578730072303,35.47558668126575,18.143322014449286,12.950487822472171,7.116227322746232,4.143921914684204,3.068113427564242,1.9245213363587321,1.6448750050687742,1.994500028929556,1.8739301379720643,1.744182147598123,1.438956414878505,1.0157748542565916,0.8648531920216286,0.8044513875182266,0.6680172719840408,0.48957482517997186,0.3122406440263663,0.21539104557989408,0.20165726842839066,0.19987818007976757,0.15118849765772527,0.08549344273100715,0.04839245759413341,0.03926479393808148,0.03149848139196555,0.024878718616520426,0.018167235618001987,0.013503641064542556,0.010750666397949478,0.008794301848356128,0.0074172085045521,0.006416499045429681
233,EMSC-20061118_0000084,2006-11-18 16:14:06,RO,45.6235,26.6277,145.4513,4.1,0.0,90.0,0.0,,,,GE,TIRR,00,3.0,,RO,44.4581,28.4128,77.0,,302.057214,0.383942,191.2,313.3,,,,,0.35,0.35,30.0,30.0,0.1226275,0.002527235,0.0001182775,51.915,0.673036410114,1.71276992029e-05,Mw,False,457.1740089475847,1.7437793212006778,240.23638498714135,True,0.14015781155540352,0.1670290073370491,0.28052241124373645,0.26670215592679414,0.395799825447157,0.3967208550126903,0.21355643973666538,0.291556503203067,0.15606943028344789,0.09722508178448604,0.062300330400407986,0.04454581630187059,0.03056357675403846,0.02660775217864147,0.018312588620945973,0.017598448283868664,0.015742013594200712,0.01338168020093142,0.008221723177047498,0.00566257803478239,0.0036350812920758735,0.002630298652244646,0.0020461370921812643,0.0015915721786962727,0.0012883485553218895,0.0009151120150014424,0.0006612473062326984,0.0005665897987080248,0.0004848298670667887,0.0004118009227770137,0.0003502213585719752,0.00027564107096004397,0.00022800877176108817,0.0002000099997500125,0.0001758294628325981,0.00015836666315863324
235,EMSC-20061119_0000081,2006-11-19 20:51:13,RO,45.6795,26.5955,149.8173,4.3,0.0,90.0,0.0,,,,GE,TIRR,00,3.0,,RO,44.4581,28.4128,77.0,,302.057214,0.383942,197.2,314.1,,,,,0.15,0.15,30.0,30.0,0.2639315,0.00474359,0.000276321,51.09,1.83750193694,0.000126661059897,Mw,False,457.1740089475847,1.7437793212006778,247.65512992726394,True,0.2908189755879076,0.4026564636709561,0.7110171391408227,0.6497949818796696,0.567528821611731,0.7317601721875823,0.4614976111552475,0.3046657176020958,0.2061225560679859,0.15327150347014934,0.14736757760104494,0.13705338755390178,0.11339278834211636,0.08309119766858582,0.05707464023539702,0.03500453479193803,0.02852999526813841,0.025123473406358444,0.018941835945863326,0.015689948820821562,0.009412367183657892,0.006689016071142302,0.0050580162119154976,0.0037548834868741266,0.0029593624313355065,0.0018022763384120649,0.0014500234480862714,0.0010645069281127295,0.0009692383607761303,0.0009005276231188026,0.0008109623912364864,0.0006118758043917082,0.00046711454697964607,0.0004134489085727522,0.0003421110930677344,0.0003045225771597239
237,EMSC-20061121_0000037,2006-11-21 01:58:49,RS,43.8484,21.6455,3.6389,4.7,0.0,90.0,0.0,,,,RO,BZS,00,0.0,,RO,45.6188,21.6401,260.0,,939.131754,14.801347,196.7,179.9,,,,,0.1,0.1,30.0,30.0,0.389254,0.02435615,0.003199065,22.905,2.2280093267,0.00029486157197,Mw,False,11.861092060782132,0.4763371319073115,196.73365648309897,True,0.40131828504567296,0.4096230587528002,0.4435954019430319,0.45781759641149666,0.4558999659903475,0.6455769053722414,1.0227345543101591,1.1750198987251237,1.0730011775855608,0.9184057662493197,1.0101525704763612,1.1238909187372235,0.8933645795082766,0.8286549418943931,0.5936458558282033,0.42055178214341216,0.3521610513074948,0.27623253027114675,0.19845455661687386,0.15903436169582974,0.12129916033509879,0.10053979692639128,0.08447051626455233,0.08280664406314267,0.07048765019491003,0.03882171696357594,0.022756876191604155,0.013291856002831207,0.00931683159663198,0.007765376487975325,0.006153398735658205,0.0049298316401272775,0.004384322068461668,0.003465869155060531,0.0027310305747098476,0.0020839258624048987
239,EMSC-20070117_0000067,2007-01-17 13:17:22,RO,45.5538,26.381,120.4817,4.4,0.0,35.0,90.0,,,,GE,TIRR,00,3.0,,RO,44.4581,28.4128,77.0,,302.057214,0.383942,201.2,308.0,,,,,0.1,0.1,30.0,30.0,0.5199785,0.0182132,0.001405625,47.995,4.33703164347,0.000676466730793,Mw,False,457.1740089475847,1.7437793212006778,234.51498893437494,True,0.5337356043772984,0.6600573660107127,1.4450528521476298,1.458775420138412,1.5585484276402835,0.9712881302167756,1.0201278178738193,0.8583858747090378,0.9131092123070492,0.7597123771994241,0.4825830151196787,0.40072642067126046,0.34226720343760664,0.3261473985163763,0.29267967329146727,0.26808395903895477,0.24150117586463216,0.20688092564323082,0.1511076992810095,0.11640298113450531,0.0716629851597043,0.04538837708048174,0.030965418130553316,0.023142481198004678,0.017981382204936305,0.011159180615081019,0.007754587094101142,0.006087189334988686,0.005090914259737635,0.0043556342821683275,0.0034562226490780362,0.0027186605157687492,0.0022586473828377905,0.0017488853593074646,0.001473937583481743,0.0012386415946511727
243,EMSC-20070215_0000030,2007-02-15 02:32:54,RO,45.8658,26.7617,95.7796,4.3,0.0,90.0,0.0,,,,RO,IAS,00,0.0,,RO,47.1931,27.553,195.0,,690.214592,6.846236,159.5,202.7,,,,,0.35,0.35,30.0,30.0,1.8199,0.03676135,0.001536,35.8425,5.54217095613,0.00192534907053,Mw,False,67.85667242225453,0.6775100315334779,186.04833182847946,True,2.056308475837222,2.237284827687347,3.294114014010444,3.683375712223775,4.314249187286242,6.992665092709646,2.980725808859312,1.2934287195280612,1.0854383017288454,1.2101191500013544,1.1371049865337852,0.8847213102486002,0.660757564242741,0.5066189756138236,0.32141265730832697,0.2258846894545976,0.19365578928346036,0.1567587585591312,0.12107942950807128,0.08599675527599863,0.06114359774334513,0.04260747422694755,0.03375680075184851,0.025142858767451245,0.019123236441565012,0.015347743840708314,0.011267389848585165,0.00870890096395636,0.006897564787662382,0.005930547613838034,0.005149768926854874,0.004164449543457094,0.0034297641318318086,0.0029838981215852527,0.002664139635980066,0.0024108701748538847
