id,event_id,event_time,event_country,event_latitude,event_longitude,hypocenter_depth,magnitude,strike,dip,rake,depth_top_of_rupture,rupture_length,rupture_width,network_code,station_code,location_code,sensor_depth_m,housing_code,station_country,station_latitude,station_longitude,station_elevation,ec8_code,vs30,slope_deg,repi,azimuth,rjb,rrup,rx,ry0,highpass_h1,highpass_h2,lowpass_h1,lowpass_h2,PGA,PGV,PGD,duration_5_95_components,CAV,IA,magnitude_type,vs30measured,z1,z2pt5,rhypo,digital_recording,SA(0.010),SA(0.025),SA(0.040),SA(0.050),SA(0.070),SA(0.100),SA(0.150),SA(0.200),SA(0.250),SA(0.300),SA(0.350),SA(0.400),SA(0.450),SA(0.500),SA(0.600),SA(0.700),SA(0.750),SA(0.800),SA(0.900),SA(1.000),SA(1.200),SA(1.400),SA(1.600),SA(1.800),SA(2.000),SA(2.500),SA(3.000),SA(3.500),SA(4.000),SA(4.500),SA(5.000),SA(6.000),SA(7.000),SA(8.000),SA(9.000),SA(10.000)
76,DZ-1989-0023,1989-10-29 19:09:13,DZ,36.7815,2.4426,6.0,5.9,0.0,35.0,90.0,0.0,13.0,11.0,FC,ALG,00,0.0,ERR,DZ,36.83,3.0,332.0,A*,,,50.0,264.0,53.07,53.13,3.03,53.05,0.25,0.25,25.0,25.0,35.6775935,2.412775,0.8576205,11.4825,100.273410921,1.74344168259,Mw,False,,,50.35871324805669,False,35.05296918008516,36.22631775063538,42.243576924308854,51.13606430221239,72.94992199694252,100.68231488200894,94.26780127753061,76.58955159289027,88.05710528571785,97.48408546578257,98.0826133257062,68.6179582059245,56.73157683442264,60.53856903991042,41.921821907450536,26.914100549711854,24.524231152066726,21.679341635760068,14.906720745355097,13.451647085766114,12.262519114765938,15.121339062397881,13.915249276962307,12.49967325812959,17.147511231662747,11.29565882947958,7.263001232823797,8.04456220951768,5.914590631869631,4.194101253308031,3.285960104140037,1.919714205708756,1.4132388151689015,1.0423822189053304,0.8482882059200163,0.6897051178583496
77,EMSC-19980224_0000009,1998-02-24 15:11:42,GR,36.3006,28.2246,30.6,4.8,0.0,90.0,0.0,,,,HI,ROD1,00,,BUB,GR,36.449885,28.223017,,,495.23308,2.977426,16.6,179.5,,,,,0.3,0.3,25.0,25.0,43.3487645,2.92988,0.4325145,7.075,40.2622444563,0.539705240136,Mw,False,234.69231903263554,0.9904928540334986,34.81264138211865,False,44.71841484891878,45.484224811026515,46.32557074338102,44.84298649510311,54.174900635995634,72.84399231508388,79.84629915806994,67.4825362742095,73.9979052711629,66.9001119143309,59.49992251961342,59.089072360293486,60.726844793386064,58.85273619807324,45.63853319290619,40.468977606062644,38.18634857327943,35.30932058253175,29.072307297495325,22.542885561524727,14.704406026936281,10.710123953997918,8.112492884681009,5.625873819843456,4.805801917890499,4.218059281138662,3.1421016801497688,1.952862261655952,1.4732064118785255,1.2431833070187195,0.988681645283253,0.7156601875191885,0.5487728494923924,0.43899534563364107,0.3626762636622364,0.3071719464827477
81,EMSC-19980423_0000011,1998-04-23 12:03:32,GR,38.2871,20.3991,17.7,4.5,0.0,90.0,0.0,,,,HL,LXRA,00,,,GR,38.19948,20.43735,8.0,,483.338872,2.768686,10.3,341.0,,,,,0.4,0.4,40.0,40.0,78.3068585,1.8704,0.0927277,3.48,65.5793653982,1.94647466154,Mw,False,249.42435514228984,1.018426308549907,20.478769494283586,True,74.3067289154892,88.67719921152224,143.18915239989377,294.4996915923682,212.9678893495449,180.81774370896235,115.79988598439982,89.2793624237987,72.54400134745808,65.21882111400052,36.410021903316675,27.92828180626227,23.15885260499751,18.27553688130666,10.361019355304766,7.669056838666669,6.6408506236099,6.06850103211658,7.1095921378585425,5.655996026731278,3.673366642740689,2.943367919373995,2.360688378545546,1.7020631962415498,1.460096756930855,0.801350041685904,0.6888087634721266,0.5246504183806585,0.42205166501744784,0.3608680679639028,0.3027394345505719,0.23936867524385894,0.1930048457889076,0.16057337231309554,0.1376319886145659,0.12078934457558746
82,EMSC-19980501_0000001,1998-05-01 04:00:11,GR,37.4525,20.7895,26.8,5.3,0.0,90.0,0.0,,,,HI,GTH1,00,,,GR,36.760825,22.566062,,,441.365803,2.177823,175.6,296.5,,,,,0.3,0.3,25.0,25.0,14.576629,0.721287,0.1419835,12.4975,39.2677607328,0.254686889083,Mw,False,303.1322221538923,1.1299621365615233,177.63333020579216,False,15.184991916362682,15.504632499030734,15.917890619676967,17.500981115354648,20.15817976554431,23.735168842879546,43.506676904240805,38.386532869744826,35.70499924072258,24.86004631854092,29.584963322944986,28.50134770076671,22.840620473183296,26.797633039692144,25.126365983364966,19.03911120351998,13.910908428280305,13.665002832052396,13.47138053059151,11.011744150678402,6.998184902137124,4.356790654587388,2.9257541773874305,2.9248351691847523,2.961359910024447,2.1281649345856635,1.474301738179807,1.0402936850524471,0.830119281484896,0.6064266088489192,0.436794955696606,0.2447465610871785,0.18624423128784418,0.15200305283776375,0.12124696159491999,0.09682600525685235
83,EMSC-19980716_0000001,1998-07-16 17:29:15,GR,38.7633,20.502,10.2,5.2,0.0,90.0,0.0,,,,HI,LEF1,00,0.0,BUB,GR,38.831967,20.703844,,C,273.0,0.884518,19.1,246.6,,,,,0.3,0.3,25.0,25.0,11.7064575,0.942491,0.200951,8.62,20.2529066868,0.117865708465,Mw,True,477.60712115709043,1.957688158903114,21.652944372532804,False,10.847635730886246,10.943386943401023,13.673574877112422,15.055943269685896,16.340352052510987,18.58103208651231,22.26919127539211,26.646299465404198,28.693830300606436,30.96809124211565,25.348664728541426,19.351323138483323,16.946832969614114,15.571757634255679,20.019398589368265,21.592766256781463,19.599610315003716,18.2014292570666,15.841563295331683,10.593724525113913,9.125121989485947,9.65876708074069,7.65339669729722,6.110728025497453,4.263047353713069,2.266808163365396,1.447780481530263,1.0745455390163787,0.7793980905743868,0.6626303596538571,0.45179427429970825,0.27481319698114937,0.19996221469567693,0.15606465631269625,0.12766548980049386,0.10750227040393147
85,EMSC-19981006_0000006,1998-10-06 12:27:43,GR,37.2473,21.1688,24.4,5.4,0.0,35.0,90.0,,,,HI,KYP1,00,0.0,BUB,GR,37.252724,21.665753,,B,641.0,2.627308,44.1,269.4,,,,,0.5,0.5,25.0,25.0,62.9843905,1.86525,0.1367535,9.0525,78.6630926243,1.47552329855,Mw,True,95.58631685035242,0.7373403426717153,50.40009920625157,False,63.400051772612926,65.08819305373288,70.3289511653629,73.60103723997373,115.15542864320379,131.89349071125534,231.78661551521907,101.99712758504526,72.21967014560506,66.76191804464578,66.15295683142213,67.31385940911426,57.367351586072026,44.96786133228931,32.942973317537685,25.873974274548548,20.999184055577018,20.549149766352865,15.303268479315129,11.01313526816955,6.722428060544791,5.892545168346188,4.295469276272384,3.0943701148375897,2.2152870666123614,1.2011732561125392,0.9540078005341466,0.5804814424596191,0.4560598284501717,0.38994063021183106,0.3207890947039815,0.23059042690450096,0.1753555629143256,0.1383225418614045,0.11842190342162214,0.10748603940977637
86,EMSC-19981008_0000001,1998-10-08 03:50:18,GR,37.8227,20.3922,39.4,5.1,0.0,90.0,0.0,,,,HI,ZAK1,00,,,GR,37.785,20.9,,C,251.0,,44.9,275.5,,,,,0.4,0.4,25.0,25.0,60.991686,1.828995,0.1486175,9.0925,77.2896910136,1.4142709097,Mw,True,489.951031674045,2.1551963597825115,59.735835141060846,False,61.23827937385243,62.84781210416159,67.84008910283065,70.72359375166111,112.51729381743947,129.5487741933516,227.78673762973997,99.81669193075876,71.32273770509654,65.84243279679146,65.68926868454238,65.58915317764058,56.06967435477043,43.785987533456414,33.15204043810878,25.17052459922121,21.525075960841576,20.566945344897476,15.83373724204112,11.66674353896579,7.052669333507703,5.959949782842134,4.947889996725877,3.8323560389400146,2.9949413387410444,1.6387457439151445,1.1800072616301986,0.7335834777678679,0.6098103050555967,0.4854573554700763,0.4029306557113767,0.2753502852295599,0.18741443288871856,0.14484693261508855,0.12071217722334396,0.11157971562967886
88,EMSC-19981122_0000005,1998-11-22 21:52:52,GR,38.088,20.4044,31.7,4.7,0.0,90.0,0.0,,,,HL,ARGA,00,,,GR,38.17704,20.47886,6.0,,526.099066,3.655331,11.8,213.5,,,,,0.4,0.4,40.0,40.0,27.71722,0.6406115,0.06769835,7.14,37.1239898002,0.356658259201,Mw,False,198.29363125855207,0.92429866761646,33.82499076126999,True,27.040330306414525,28.56123066361112,41.317396589814315,69.77669271798428,69.44091098192764,75.64551417566014,48.46504262063534,39.563963546009894,46.47817154159574,40.78416868896558,28.070999919667987,14.66446947250394,10.851653042278858,12.285600281630522,9.556060282930408,6.848116061005392,5.739715818574992,4.584969788384652,4.192466986322015,3.5052275137999245,2.8607426330587655,2.4601343547660157,2.15106209226977,1.6360856805192079,1.3650317917176873,0.9167602755682643,0.5692989256128981,0.4253873161590505,0.2645649528131041,0.19552748242894144,0.14517433810078142,0.10838021428286622,0.08536964082154733,0.06901296073926984,0.057588538425627715,0.04834372430833189
90,EMSC-19990202_0000009,1999-02-02 14:27:50,GR,38.349,21.76,9.8,4.3,0.0,90.0,0.0,,,,HI,PAT1,00,,BUB,GR,38.243957,21.733287,,B,384.0,2.833015,11.9,11.3,,,,,0.5,0.5,25.0,25.0,16.6897865,0.685243,0.07785465,7.5975,25.5409028215,0.17545862313,Mw,True,375.0952267542548,1.3250695118552231,15.415900881881669,False,17.0943352590851,17.456252775438376,18.354358340732045,21.762425967249147,32.69116379084721,65.13655195418315,40.46964538490546,45.714636856481754,34.52041004608723,30.15479232609636,20.12126704633682,15.111560859156805,14.612163011546237,16.00957724613614,12.3057685130186,9.760727153240172,8.941888442605398,9.018777598233587,8.07918105851082,5.43791131899004,3.5902508463197944,2.9128817236029336,2.3597209719371484,1.6443647916444817,1.3348297603439923,0.7014528697325287,0.45201546871318465,0.32027217450162604,0.24419529135509555,0.20278506914958014,0.15964721255944309,0.11571153397997971,0.08927628051167902,0.07185051005386113,0.060242560926640557,0.05208194082405147
93,EMSC-19990314_0000005,1999-03-14 15:21:18,GR,37.476,20.794,41.5,4.6,0.0,90.0,0.0,,,,HL,ZAKA,00,,,GR,37.78,20.9,5.0,,,,35.0,195.5,,,,,0.4,0.4,40.0,40.0,8.458714,0.3194455,0.0460045,7.6175,14.4735892534,0.0560452335306,Mw,False,,,54.288580751388224,True,8.034339738466379,9.057839424321894,9.444710705326024,9.60748288042711,11.30589102370972,12.463356762927074,28.745789234599215,26.703667757070374,12.54803223457766,8.986724730389822,8.625956980399335,8.78502970845859,10.515641940461839,9.808554362392044,6.102430731528217,4.876884253455273,3.907133916082222,3.307310119719649,3.3875484560371976,2.704045562485958,1.7342085996211645,1.473141588918051,1.2449038229839284,1.0220681457711123,0.9520515644753702,0.6159104029199377,0.3333127435907604,0.26041027963964863,0.19755048696472505,0.15190507730816635,0.10953691118522559,0.079139749810067,0.05939314480645052,0.04643412307775393,0.037649081502740545,0.03145419863865554
94,EMSC-19990406_0000004,1999-04-06 12:32:33,GR,37.458,20.803,55.5,4.5,0.0,90.0,0.0,,,,HL,ZAKA,00,,,GR,37.78,20.9,5.0,,,,36.8,193.5,,,,,0.4,0.4,40.0,40.0,12.8662995,0.758083,0.07520535,6.4825,20.1690784822,0.120241915024,Mw,False,,,66.59196648245192,True,13.22459530042413,13.92729029423886,14.810299933829835,14.691821984355785,14.567956799084765,16.981213973093915,33.66787420850922,40.57777629010737,41.332979728420256,40.191553323304134,31.614850706906715,23.97866736059367,20.392253095967597,16.982103058219852,8.376822676791004,6.086378207784988,4.926294266190358,4.2195753356824905,4.45766456734914,3.8865483697491787,2.7101385660515587,2.4221315719836527,1.9810410139621037,1.7129007158618388,1.6063681587668501,0.8146311737835719,0.5291786538693715,0.4333471953537948,0.29120897277384844,0.22820145120046892,0.17698240132849366,0.1286446307468757,0.09652846819980104,0.07498970323317729,0.06452541231948851,0.056297936374257986
95,EMSC-19990605_0000004,1999-06-05 06:19:19,GR,38.353,22.37,24.0,4.6,0.0,90.0,0.0,,,,HL,AIGA,00,,ERR,GR,38.25127,22.08526,62.0,B,524.0,6.636241,27.3,65.5,,,,,0.7,0.7,40.0,40.0,9.667908,0.259608,0.02032095,6.7275,14.0750964037,0.0512421559253,Mw,True,200.67070653682916,0.9285356656012659,36.34955295461005,True,9.035820922445287,9.765070802815512,11.937535679946679,14.093960334838465,20.163288981711293,23.69332103230782,35.150738376028464,18.29684427326199,18.20810130683592,9.405203016150157,5.522111213756927,4.480842239467933,4.295143596400474,3.5623311866248484,2.715165117004857,3.2922760127304027,3.119951367249176,3.081899390116426,2.203651188913527,1.990442209711199,1.0994008209702228,0.7528237562670296,0.570679602959489,0.46094030557003796,0.330519087799782,0.1864643887073347,0.14087251238619974,0.09949426682980281,0.07343256222548686,0.058276045988038684,0.04909243969288958,0.038972881571677505,0.030881649454004234,0.02580736325159934,0.02178727809984533,0.018731082777031338
96,EMSC-19990611_0000011,1999-06-11 07:50:14,GR,37.68,21.19,53.8,5.2,0.0,90.0,0.0,,,,HI,ZAK1,00,,,GR,37.785,20.9,,C,251.0,,28.1,114.4,,,,,0.4,0.4,25.0,25.0,19.0670245,1.446365,0.255014,13.06,63.8642049812,0.577758195939,Mw,True,489.951031674045,2.1551963597825115,60.69637550958047,False,19.702266348823933,20.096931362772775,20.90516392736493,21.41847640939943,24.33989667685547,32.39330318985701,83.87306553417491,56.1180281991447,34.85422844820984,32.13941980403504,37.83669502691798,57.56183563004224,46.37913482224523,30.203853316588596,24.285285337421918,29.687082458537414,32.65793137432315,29.988490376309375,22.957936770101966,19.247508125469125,14.26407088036231,10.817128930543445,8.261939168294571,5.8772618999326545,5.2926319690396,2.5806561478817747,1.4428098291528235,0.9996834128662934,0.8147535576995046,0.7110414086844732,0.5393400444877053,0.37480709000764645,0.2781186173847411,0.2137185046269976,0.17089753758319634,0.14193784413960922
101,EMSC-19990629_0000011,1999-06-29 15:09:59,GR,38.421,22.047,10.4,4.6,0.0,90.0,0.0,,,,HI,AIG1,00,,,GR,38.258055,22.054869,,,312.485792,0.50045,18.1,357.8,,,,,0.5,0.5,25.0,25.0,18.876365,0.704835,0.0777017,9.295,31.1436316795,0.22534649584,Mw,False,448.66924169834203,1.677365656463512,20.875104790156147,False,18.211515719456195,18.87604989821758,21.043505987358667,23.02515827632896,27.30271623794966,47.73431830454898,53.168954606988464,37.54436906381568,38.52709975692434,39.162283034572944,25.945220000608977,20.658981567347407,19.310770665097756,18.070319067465302,12.577546822810877,10.40307776045147,8.663801644324504,7.101971593367577,5.9861522423924365,5.310034343194024,3.9648896124860777,2.5449022843323474,1.926318816810966,1.4155159002992512,1.0560971767787282,0.7576785103643893,0.48982683764775486,0.3271152742413598,0.24981748198234646,0.21716945289335698,0.17509700659348806,0.1259262296624496,0.0995939493543659,0.08152955121917452,0.06857953608766977,0.05902300593836271
104,EMSC-19990907_0000020,1999-09-07 12:20:23,GR,38.033,23.645,6.7,4.0,0.0,90.0,0.0,,,,HI,THV1,00,,,GR,38.322401,23.318043,,,672.644687,6.562534,43.0,138.2,,,,,0.6,0.6,25.0,25.0,6.023136,0.181883,0.01554255,8.7875,9.75390706617,0.0263496775091,Mw,False,76.77376999021888,0.6977931838623682,43.51884649206594,False,6.084636289138406,6.4452246424775606,8.124744908555591,10.687773079458601,18.05240373468309,19.08403225709913,14.423604124836482,12.652869171970442,9.590361015936782,7.811754843759499,7.430547737751235,6.840491510849202,5.518966343401634,4.989526650174343,3.3762385156413344,2.457997181283982,2.485972384138649,2.542109405198761,2.177403642873778,1.630030472138481,1.1981626849472489,0.8534186976871317,0.6482938129120159,0.4801007732882754,0.3582269158312926,0.2137380574441529,0.11114858710752917,0.08209773547425045,0.06176101035442992,0.04576345542023679,0.03203429502892174,0.02377641251324514,0.019447084357301483,0.016384792949561494,0.01413693410892192,0.01241032292085907
106,EMSC-19990907_0000055,1999-09-07 20:44:54,GR,38.09,23.653,10.0,4.8,0.0,90.0,0.0,,,,HL,ATHA,00,,BUB,GR,38.00077,23.77347,187.0,,380.425133,1.319158,14.5,313.2,,,,,0.5,0.5,40.0,40.0,6.6085225,0.268365,0.02214315,7.0375,9.67868358237,0.0243936577481,Mw,False,379.3127121094742,1.3393238917208576,17.613914953808536,True,6.7310846670726106,7.3621535401810245,11.041107078096832,17.261718147971248,14.378331363548414,11.634999781693166,15.727558739041479,12.555900855374734,12.070957319284995,9.360546049029404,8.615469950252278,7.663989047304282,8.590272711503403,6.501348020718472,5.2292113705605745,5.085515368180495,4.04220044699666,3.569467063064177,2.7195619150517607,2.3380296412150123,1.358343803313432,0.9836556859186044,0.7831408921745818,0.645672801769596,0.5688313431501467,0.29322071668966365,0.16788705015277383,0.11038507638263427,0.08318590786906156,0.0667825424044338,0.05485309652152739,0.04294820382740121,0.034491969326206934,0.028140871699362833,0.02347406568960733,0.02004333722212945
107,EMSC-19990908_0000027,1999-09-08 12:55:00,GR,38.098,23.609,21.2,4.7,0.0,90.0,0.0,,,,HI,THV1,00,,,GR,38.322401,23.318043,,,672.644687,6.562534,35.6,134.3,,,,,0.5,0.5,25.0,25.0,9.3009665,0.4212985,0.03970535,8.8975,12.166061379,0.0415603830783,Mw,False,76.77376999021888,0.6977931838623682,41.43428532025139,False,8.301947262901638,8.679834747447671,9.432040015924445,9.776383746611014,10.56482694889036,15.95634731070993,17.56861832245211,18.531695420818895,15.95886748018167,15.943055058551359,16.72476461538398,15.118722821058663,12.576934305704233,9.192971044477407,6.494199443272435,4.907477136085302,4.326912481943678,3.7894742972871582,3.9943773109459753,3.8278981922198505,1.8806922063963578,1.4108369622319936,1.4363254021982623,1.3419656232556778,1.0746353774001673,0.47862360773367624,0.3114564409544294,0.2300608079617213,0.17311678688099547,0.12979231148261441,0.08987306608767724,0.06202120068170238,0.04849663173870944,0.039565178932996124,0.033650136255296205,0.02940303302382256
110,EMSC-19991021_0000008,1999-10-21 08:45:48,GR,38.24,21.74,19.8,4.6,0.0,90.0,0.0,,,,HI,AIG1,00,,,GR,38.258055,22.054869,,,312.485792,0.50045,27.6,265.9,,,,,0.5,0.5,25.0,25.0,12.94628,0.597158,0.04186175,6.6675,18.3080321076,0.102567435549,Mw,False,448.66924169834203,1.677365656463512,33.96763165132359,False,13.611263422621722,13.897722151489429,14.456854706332217,16.58764831433317,19.64810820206363,26.983623193337102,35.19930122701302,38.6262938136705,32.31685896416915,33.320383624442265,25.951242331533958,19.69115299823756,14.181657777213495,11.647883698337651,8.773433967056455,5.7370615284655955,4.608823424042193,3.9059373398455843,3.3881756695159715,2.479978776320475,2.308852912162228,1.6767696599414006,1.410959911655891,1.0739496422970678,1.0057085703771247,0.5757370198067864,0.299072767446319,0.20731407651194358,0.16281285140000465,0.1372424364582617,0.10948456957946175,0.08280653446437666,0.06644000880493621,0.055457013388750025,0.047602907978399805,0.041705208235902624
115,EMSC-19991104_0000001,1999-11-04 02:08:12,GR,37.507,21.432,47.0,5.1,0.0,90.0,0.0,,,,HI,PYR1,00,0.0,BUB,GR,37.673162,21.441297,,B,473.0,0.63329,18.5,182.6,,,,,0.5,0.5,25.0,25.0,14.4184795,0.4995175,0.05669865,10.4925,31.6818127303,0.210052540734,Mw,True,262.46513312843433,1.0439325452726735,50.50990001969911,False,15.582154026321266,16.267440664099563,17.12355100117963,22.00983788990732,27.636044360580986,46.846008223540245,38.67254918517785,25.523701737012992,23.496602611654307,18.637063337339388,13.776521650982879,12.436024580226594,12.311401794677971,13.092340026137421,16.51156125628343,11.428803452330431,9.683175972530913,8.558360015143087,5.9750304089184345,4.856129549538397,3.6766160104095724,2.2750367859883056,1.520190910214898,1.5997257464953172,1.4542426763783272,0.7225108713175187,0.4204698684721653,0.2474854891261304,0.21008377843136772,0.15616013911366755,0.1280263823436404,0.08609692392879086,0.06714970680501889,0.05461866073055985,0.04576670642508591,0.03924065320557241
