id,event_id,event_time,event_country,event_latitude,event_longitude,hypocenter_depth,magnitude,strike,dip,rake,depth_top_of_rupture,rupture_length,rupture_width,network_code,station_code,location_code,sensor_depth_m,housing_code,station_country,station_latitude,station_longitude,station_elevation,ec8_code,vs30,slope_deg,repi,azimuth,rjb,rrup,rx,ry0,highpass_h1,highpass_h2,lowpass_h1,lowpass_h2,PGA,PGV,PGD,duration_5_95_components,CAV,IA,magnitude_type,vs30measured,z1,z2pt5,rhypo,digital_recording,SA(0.010),SA(0.025),SA(0.040),SA(0.050),SA(0.070),SA(0.100),SA(0.150),SA(0.200),SA(0.250),SA(0.300),SA(0.350),SA(0.400),SA(0.450),SA(0.500),SA(0.600),SA(0.700),SA(0.750),SA(0.800),SA(0.900),SA(1.000),SA(1.200),SA(1.400),SA(1.600),SA(1.800),SA(2.000),SA(2.500),SA(3.000),SA(3.500),SA(4.000),SA(4.500),SA(5.000),SA(6.000),SA(7.000),SA(8.000),SA(9.000),SA(10.000)
116,EMSC-19991212_0000012,1999-12-12 19:25:57,GR,40.567,23.63,14.0,4.5,0.0,90.0,0.0,,,,HI,IER1,00,0.0,BUB,GR,40.397143,23.875059,,,304.422217,0.410364,28.1,312.3,,,,,0.4,0.4,25.0,25.0,27.060876,1.095525,0.1031005,3.46,24.158512321,0.307968073799,Mw,False,455.29942345746326,1.7282901077184327,31.39442625690108,False,26.682930916411713,27.190218160948987,28.134391437527132,29.157964232778667,33.211816561579404,42.14233196537658,49.714041058839705,75.5481101230203,74.86332379009097,66.90990327118999,49.65382276773864,31.14835988748043,19.77287240893442,16.12676353147153,12.606170221363822,11.910465033322586,10.183020225895655,7.9543235911044,5.345849962494271,4.118040367820598,2.8715906242011586,2.180898138611705,1.8959925081866753,1.515755638683228,1.482104941527421,1.4430211242043547,0.9600049409872846,0.5295910724256971,0.38486025944490554,0.30268094650142746,0.23677205210074942,0.17248081093269477,0.13378901180216557,0.10840109078325734,0.09070714189081254,0.07776051130233133
117,EMSC-19991219_0000012,1999-12-19 09:57:49,GR,38.179,20.31,10.7,2.5,0.0,90.0,0.0,,,,HL,ARGA,00,,,GR,38.17704,20.47886,6.0,,526.099066,3.655331,14.8,270.9,,,,,0.35,0.35,40.0,40.0,55.2910385,1.07271,0.0925268,3.86,32.1736306417,0.623260447925,Ms,False,198.29363125855207,0.92429866761646,18.262803727796015,True,51.41015954089231,56.26344599880103,75.75678726978857,131.05847895500693,112.97671959302058,139.85267655679672,105.24492916715751,57.84399835765159,53.33152944244146,44.789199396729565,32.75111580022885,30.508537434626394,22.051125982588736,15.636241735148507,11.376352276542777,6.719618110956901,6.749944421623041,5.177738504018912,4.339824450366628,3.417553381528956,2.4268341307967467,2.29955252160067,1.810957447318959,1.8566283861613233,1.5373287358271814,1.21947332398868,0.7358394626873446,0.49189368802618316,0.3537009626789274,0.2966860346089785,0.2504649999680594,0.1994941856922151,0.15595161661233267,0.12300194112289448,0.10130647462033214,0.08651914764952323
119,EMSC-19991226_0000012,1999-12-26 20:05:37,GR,37.902,20.777,13.2,4.5,0.0,90.0,0.0,,,,HI,ZAK1,00,,,GR,37.785,20.9,,C,251.0,,16.9,320.2,,,,,0.4,0.4,25.0,25.0,25.8680895,1.24699,0.1258355,10.4125,59.0479243701,0.618750415545,Mw,True,489.951031674045,2.1551963597825115,21.444113411377025,False,26.375309071174883,27.02430945075193,28.315083836005147,28.94695608453504,39.60031440405492,62.57383809148997,76.65526052144105,68.34278923192994,54.004652996570584,35.47815730051379,32.50950494763031,37.630310950615325,35.68564035238824,30.313885359353062,25.024283357371093,20.647793029764706,22.764784481738456,21.91848822136235,16.059551329349148,12.041417811038698,6.987122466938732,4.412022951730873,3.036611381128642,2.4049558873501193,2.0798996201740123,1.4317493177229037,0.7983728011712323,0.5744819421356949,0.3715759462882386,0.29387183873246514,0.2296075950725498,0.16721195184555437,0.13423637797184487,0.11198277099625638,0.09441824018694693,0.08040428376647603
121,EMSC-20010206_0000009,2001-02-06 22:28:44,,44.071,8.646,13.1,4.17,0.0,35.0,90.0,,,,RA,STET,00,0.0,,FR,44.2595,6.92867,1200.0,A*,1586.310879,35.492158,138.9,98.1,,,,,0.3,0.3,60.0,60.0,0.2336315,0.010011135,0.0007490255,27.645,1.29620360255,0.0001045237408,Mw,False,0.3410812362160481,0.26149859751401294,139.51637896677224,True,0.2336269708231479,0.24053798853819328,0.26615465853522086,0.2893223965060431,0.4301352692758407,0.7544744373873776,0.8325307651252294,0.6691099148047353,0.4332217801080643,0.5394096884113225,0.35778698085033783,0.25999144075911423,0.346930657410094,0.2987700690531098,0.24227974548030218,0.13882960161291252,0.10227599073096286,0.08184131935642289,0.057297107806590024,0.053442926285898674,0.045536391908011335,0.029053252227590632,0.022988337260445784,0.020381132942012818,0.012619603559541798,0.009990840805457766,0.0062084806514959845,0.004352497673750096,0.0033094924082100563,0.002566125484071268,0.0018336586378058484,0.0014762276247245883,0.0011472793905583766,0.0009659399567260897,0.0008565197020501046,0.0007552218217186259
122,EMSC-20010225_0000008,2001-02-25 18:34:40,,43.467,7.472,10.0,4.48,0.0,35.0,90.0,,,,FR,ARBF,00,0.0,,FR,43.492,5.332,185.0,A*,397.470114,1.559401,173.2,90.2,,,,,0.3,0.3,30.0,30.0,0.4401855,0.0223889,0.002838255,29.4375,2.12070769262,0.000255065062639,Mw,False,358.83066995982847,1.2738235033636922,173.4884434191511,True,0.4147851709981928,0.4225958204336621,0.43494631420210933,0.4692370539396905,0.6273826587147592,0.8055228234755363,1.0182830126001317,1.424046987602586,0.9390268067472834,0.8964612550021334,0.6031353262220677,0.5432381554125225,0.4960803588875496,0.5506414405327663,0.4763344160755131,0.41738524699370966,0.4192149511121949,0.3673120070838959,0.30032231299056017,0.2513252307011773,0.20673617206478406,0.13784687892730832,0.09323813028477136,0.08329253918569178,0.06032956218969271,0.029295969825216574,0.02035248911067145,0.01502072967601774,0.009912941692555242,0.009037465076004444,0.006863984994156092,0.004223186001113377,0.002912449999570808,0.0023878442160241526,0.0019435019938245496,0.001652564673469695
127,EMSC-20010718_0000012,2001-07-18 22:47:11,IT,44.943,8.466,10.101,4.4,0.0,90.0,0.0,,,,RA,STET,00,0.0,,FR,44.2595,6.92867,1200.0,A*,1586.310879,35.492158,143.8,57.6,,,,,0.3,0.3,30.0,30.0,0.556907,0.0186462,0.0009630025,9.3925,1.1858640926,0.000175596439185,Mw,False,0.3410812362160481,0.26149859751401294,144.15432772206321,True,0.5701529690004253,0.5831103213740947,0.617495141648904,0.6673037695382815,0.7813406738568011,1.0811919952071418,2.058056400563405,1.6425947059758836,0.9141304493123507,0.7129716988794156,0.6319669165636759,0.5601399730906553,0.45974125202117766,0.35922421392216863,0.2470569201540406,0.18819839300323477,0.16614128394532168,0.13509702033723764,0.07647552922340584,0.06283173195129989,0.037287731494420516,0.026947031784595496,0.02024856125753136,0.014411575382309874,0.011436125917459987,0.008128073018864927,0.006048314475951131,0.004218423639228284,0.0037621937749137803,0.003326328005473904,0.002948969650572891,0.0021865520803310405,0.0018336204623640084,0.0016100807433169306,0.0013951645064292598,0.0012457684375516984
128,EMSC-20030124_0000011,2003-01-24 20:35:00,ES,37.8522,-4.6533,5.5155,4.3,0.0,90.0,0.0,,,,IU,PAB,10,0.0,,ES,39.5446,-4.3499,950.0,,780.226277,8.756335,189.7,188.1,,,,,0.3,0.3,30.0,30.0,0.1396035,0.00307461,0.0002564235,57.73,1.12307207509,4.23744817229e-05,Mw,False,35.75997097572954,0.5888616168130195,189.78016424339503,True,0.13039595416269634,0.14091572971105817,0.19418079655310924,0.2514999776143131,0.5649357877706103,0.3520545808933609,0.31724731800915196,0.20321488259721532,0.15296808389334032,0.17838079987487443,0.09868824665582017,0.0986408834510316,0.12508347937277728,0.11967690332725026,0.06654584410013897,0.04736842536964893,0.04862682050062496,0.04516347024974941,0.023737883140667788,0.019786141437885253,0.012231621029119568,0.009031932185307859,0.0071780373362082765,0.006905356181979319,0.005684093243429421,0.0029751672221910485,0.002013338520964619,0.0013188692126211757,0.0010885311203635843,0.0008096777136614296,0.0006562583332804239,0.0004331558610939023,0.0003673173015255339,0.0003012772809224088,0.00026148231297737904,0.00022576093550479454
129,EMSC-20030222_0000013,2003-02-22 20:41:03,FR,48.3225,6.5615,11.7,4.8,0.0,60.0,-90.0,,,,CH,MMK,00,0.0,,CH,46.05053,7.96399,2210.0,,1318.656565,27.809646,274.0,337.7,,,,,0.2,0.2,30.0,30.0,0.1481515,0.007992015,0.001082655,52.3325,1.41562515489,6.45651998594e-05,Mw,False,1.2382053726565154,0.323059797085691,274.24968550574494,True,0.15730510431959926,0.15944590568590966,0.1668159502355815,0.18376464529391937,0.19585135466725778,0.22696156413586863,0.35742380523826334,0.46562528200796827,0.35209239191013486,0.5730899218098325,0.6571529191170044,0.4155517623281124,0.39957995132388713,0.36443299554239045,0.22089470458342816,0.16541053035100275,0.1419730885027159,0.15271736167181518,0.10262061367970862,0.0845083583558455,0.05491361874799365,0.04682628022809414,0.0394460932412831,0.04047469209271393,0.025788463350886186,0.012933954267740395,0.007380039430788971,0.005159052238541494,0.004925794149170264,0.0042085406021565245,0.0027208498672289874,0.0019289160168343255,0.0012079983443697264,0.0009330798465297597,0.0007964810104453213,0.0006976840259028437
132,EMSC-20030226_0000002,2003-02-26 03:32:56,ES,42.3308,2.1873,11.8294,3.45,0.0,90.0,0.0,,,,RA,PYAS,00,0.0,,FR,43.0119,0.797306,430.0,A,1089.0,7.172103,136.8,123.1,,,,,0.3,0.3,40.0,40.0,0.0572095,0.001656835,9.37476e-05,40.4925,0.399676515005,7.76345738927e-06,Mw,True,4.541971006657706,0.40211816103288645,137.31050471234894,True,0.054172290149115905,0.061289710841217065,0.10668918286311878,0.13254565188266268,0.18010988733548194,0.15322149864819884,0.14140925193918538,0.12714224271264055,0.11622924855646276,0.08881547738429378,0.06634050684159716,0.056793080124254575,0.0336591978514046,0.02527846801133328,0.016339753058109537,0.016452443374769594,0.013560972494625892,0.01217144518945881,0.00874399085086438,0.006850143210181813,0.004155749751849839,0.003395310884145957,0.002097234846172455,0.001647043108118303,0.0013573415192942415,0.0010130291210029452,0.0006203926176220991,0.0004943662609847076,0.00039507847321766345,0.00028143560542333654,0.00023792435772740882,0.0001739540169125163,0.000142986013302001,0.0001284912448379266,0.00011199553562530964,0.0001
142,EMSC-20030811_0000007,2003-08-11 20:12:06,IR,38.822,44.8257,15.0,5.04,0.0,90.0,0.0,,,,IU,GNI,20,100.0,,AM,40.148,44.741,1609.0,,861.645389,11.886995,147.4,177.1,,,,,0.1,0.1,30.0,30.0,0.440325,0.0481057,0.008178875,51.89,5.09661285825,0.000860471144324,Mw,False,20.139971113775932,0.5256512483051314,148.16126349353263,True,0.4422011860635383,0.44593577355040714,0.4646902501236711,0.46993877832330455,0.47661293992085446,0.6106169354636342,0.8067355049450842,0.9738020365094745,0.8616621055750334,0.9981237502434255,1.0454692579889664,1.3501487331031348,1.3655923611385647,1.4133742015474884,1.2285207778462683,1.165891929700176,0.9459833444886859,0.8891713187890171,0.8878653103596288,0.8850121734755969,0.7213051289627712,0.44030517576789846,0.3079747440667822,0.22910204066310716,0.20805025465978164,0.11244146028934345,0.06989082732376259,0.05514609935435144,0.03435969672450559,0.028649085517691485,0.028369329001581973,0.01782352232304266,0.013398719341787855,0.009313552490859758,0.008471783460405488,0.005970624339212776
143,EMSC-20030822_0000006,2003-08-22 09:21:31,CH,46.3461,7.2418,5.9448,3.65,0.0,90.0,0.0,,,,CH,MMK,00,0.0,,CH,46.05053,7.96399,2210.0,,1318.656565,27.809646,64.7,300.8,,,,,0.3,0.3,60.0,60.0,0.361953,0.005290805,0.0001942545,12.2975,0.797926062097,7.98772409857e-05,Mw,False,1.2382053726565154,0.323059797085691,64.97253763737415,True,0.3674072281188817,0.47184528013322335,0.9138303826203198,1.0278876690086325,1.41323151988625,0.9222185594044396,0.31123189325645917,0.27106887694827675,0.21500562270554693,0.11576107145323077,0.09492212545028687,0.08618969961660151,0.0720079521094719,0.055891306300711915,0.03531599184505513,0.026374746103043342,0.024759362087905256,0.02108656823667616,0.018968616449282747,0.0171615908353509,0.010808683962444271,0.007945276835957322,0.00500334408171175,0.003943469538363394,0.003628239242387414,0.0024536961914629935,0.001587785249962979,0.0012266515397618021,0.0009615269106998513,0.0009509679279555122,0.0007622466792318612,0.0006412058951694066,0.00049531807962157,0.00041322149024463863,0.000359110010999415,0.0003176885267050102
145,EMSC-20040223_0000011,2004-02-23 17:31:16,FR,47.3334,6.0649,0.7538,5.27,0.0,35.0,90.0,,,,CH,BOURR,00,0.0,,CH,47.39377,7.23018,860.0,B,694.0,9.688395,88.3,266.1,,,,,0.1,0.1,30.0,30.0,1.119107,0.04131715,0.005062295,31.2325,4.42415471136,0.00116460317581,Mw,True,66.06723753401266,0.6732840837875917,88.30321746369154,True,1.0679516902744244,1.1141912398686322,1.3144499437407269,1.5729947949691379,2.0190376815205804,2.9084176902914063,2.998099401320777,2.3899261199878126,2.367402994084446,1.9418166853490575,1.8809738754166683,1.5437429864779955,1.4446055727775662,1.0689599684319333,0.7906283916101167,0.7749043351620896,0.7754935209942118,0.7514642947060094,0.6012670932023471,0.4662511424543644,0.33397953850498086,0.19768194366203506,0.1415151800196714,0.09399218408995505,0.0804667264153327,0.04955136195908241,0.03356172015853776,0.023257813654769876,0.020264893609392574,0.015484502445994188,0.012114264319388116,0.009545048192649423,0.007137714340039114,0.005608854785069765,0.004483024648605002,0.003603147374171642
154,EMSC-20040628_0000033,2004-06-28 23:42:29,CH,47.5177,8.1114,32.9315,3.5,0.0,90.0,0.0,,,,CH,BOURR,00,0.0,,CH,47.39377,7.23018,860.0,B,694.0,9.688395,67.9,78.0,,,,,0.4,0.4,30.0,30.0,0.3223965,0.00933149,0.00062834,18.515,0.799244317501,6.5926671599e-05,Mw,True,66.06723753401266,0.6732840837875917,75.4645194263503,True,0.29657067369515816,0.30403614577217625,0.333710875558469,0.3640336303008281,0.5653907605002049,0.9212948002892452,0.9885240250949898,0.48669161395590127,0.4152701288751697,0.34759211066996326,0.375470572029287,0.33940215669320667,0.4330262515310128,0.2732541978524758,0.1737837047251554,0.11707357961982712,0.08090737778472369,0.06259385560899727,0.05387009625014605,0.04352808711625174,0.03158241472718639,0.021092214250760872,0.01768461297286429,0.012815962936900216,0.009834744124785352,0.005042782664363,0.0035797603271727563,0.00271269681313633,0.002128263376558456,0.0018320742343038397,0.001562134757311289,0.0012089962779099031,0.0009833778520995885,0.0008301385426541765,0.0007172865536171719,0.0006313873612925745
163,EMSC-20040918_0000026,2004-09-18 12:52:14,ES,42.9545,-1.6035,1.591,4.36,0.0,60.0,-90.0,,,,RA,PYAS,00,0.0,,FR,43.0119,0.797306,430.0,A,1089.0,7.172103,195.9,269.0,,,,,0.1,0.1,30.0,30.0,0.1947315,0.01114905,0.002139015,34.04,1.11604070003,7.16148590154e-05,Mw,True,4.541971006657706,0.40211816103288645,195.90646053920736,True,0.19860039430726212,0.2008737837050918,0.21442600651040444,0.22280231012042942,0.297396629160453,0.40007060636342684,0.6649951152211572,0.6628073405145721,0.43425498098467447,0.4149752056593261,0.47403449659914,0.3426104892892219,0.2779070736199422,0.29766224311793393,0.25315565698794884,0.23220010782512568,0.21908929767334598,0.17825915766658385,0.16001683877642378,0.12406929170024306,0.08728511071196507,0.08164447182755243,0.05523601370482848,0.04212464098363332,0.02928699890736502,0.013701401680120176,0.009673832591067513,0.008564149461563595,0.008334173744289231,0.0068381701499743335,0.006037279933877507,0.0043211873368323205,0.0030853239700232454,0.002369502479424742,0.001701086711487689,0.0013235762161658844
167,EMSC-20041205_0000033,2004-12-05 01:52:35,DE,48.1039,7.9208,10.0,4.6,0.0,90.0,0.0,,,,CH,BNALP,00,0.0,,CH,46.87049,8.42502,1540.0,A,1601.0,22.179484,142.3,344.7,,,,,0.15,0.15,30.0,30.0,0.976455,0.06184125,0.007381775,17.325,2.8692721272,0.000763258482234,Mw,True,0.31966880765187233,0.2587556839549334,142.6509376064525,True,0.932117356345219,0.9496529861586284,0.9995419494248352,1.0788581309885004,1.3643459232540696,1.522954193927053,2.231345723324828,2.3144381067550714,2.603911312468226,2.5133884697754145,2.106613505392007,1.9619075743775494,1.843364515932755,1.6490549032097144,1.2943249206053324,1.0777163055275725,1.0121908876294037,0.8830324783585256,0.6543189276935216,0.4183844684617248,0.3489129796582523,0.28076365063875347,0.18817614310533629,0.14848690388717786,0.10269812895082364,0.05414490151436236,0.042452024121353744,0.028683157706221957,0.024494094716890437,0.020511320410934057,0.01566833226607095,0.01136194279161799,0.008747710900572789,0.0072812578583648585,0.006084521345184024,0.005271169889123286
179,EMSC-20050622_0000062,2005-06-22 19:41:37,FR,46.9516,-2.1651,4.0,4.1,0.0,90.0,0.0,,,,RA,QUIF,00,0.0,,FR,47.91,-3.16,25.0,A*,312.666904,0.502474,130.3,144.5,,,,,0.35,0.35,40.0,40.0,0.5350835,0.004574375,0.0001717565,26.9875,2.38439552246,0.000444731080232,ML,False,448.5161039497499,1.6762541782142868,130.3613823185379,True,0.5663159920026981,1.27484875091126,2.28417258542344,1.182721668441058,0.9480385767678444,0.6318137910840503,0.3535636297160668,0.17492632546303602,0.12135969420693181,0.08118163462261646,0.04397943969629445,0.042824900175015,0.03439049938573152,0.02470909484380195,0.02086010455390864,0.014778619556643306,0.011957531726907522,0.01016371073968558,0.008940245634209388,0.008866730513554587,0.007657743140116414,0.005930064923759267,0.007316560667417444,0.005137834563315561,0.004116358584963171,0.002482127313414846,0.0016736164435138656,0.0012327611285240948,0.0009008995504494383,0.0008033224757219233,0.0007098196954156738,0.0005564314872470823,0.0004608199214443751,0.00038584452827531454,0.0003336630036428972,0.000295756656729819
180,EMSC-20050730_0000059,2005-07-30 21:45:03,TR,39.4128,33.0975,15.6687,5.3,0.0,90.0,0.0,,,,IU,ANTO,10,0.0,,TR,39.868,32.7934,1090.0,,543.49846,4.037032,56.9,152.6,,,,,0.1,0.1,30.0,30.0,3.8976155,0.170253,0.04428515,21.1975,18.4821609179,0.0239640937163,Mw,False,179.21820783244416,0.8905262108815706,59.01794777599438,True,4.021562210634071,4.1096768209678,4.315022168819067,4.784505437890107,7.727939889051933,10.846580420574957,13.080060766296157,9.613334654010544,11.984731125895149,7.673116674383364,4.751236413082388,4.534663930546563,4.093996894625104,5.208779773881787,4.576498463061033,3.602744259574915,3.1772144076376083,2.8476192616289135,2.201449672375001,1.5719375348276405,1.0064928708739074,0.7293064166459802,0.518528669139904,0.4101588743621184,0.40049045590126114,0.3612475498602032,0.345564921935083,0.21662070401279743,0.1998681134648546,0.20319622343931495,0.17573171426353298,0.1614109766186922,0.10396787499992487,0.060986808081748306,0.04087921354429412,0.03206333931455051
181,EMSC-20050731_0000059,2005-07-31 00:45:15,TR,39.4255,33.1341,2.0,4.3,0.0,90.0,0.0,,,,IU,ANTO,10,0.0,,TR,39.868,32.7934,1090.0,,543.49846,4.037032,57.2,149.1,,,,,0.25,0.25,30.0,30.0,0.33957,0.01339495,0.001090075,20.5875,1.78974105152,0.000219141495356,Mw,False,179.21820783244416,0.8905262108815706,57.2349543548346,True,0.3473857122277772,0.3561941815920075,0.3848812224725961,0.4296269417715793,0.678702059993927,1.0882564718300554,1.4169447475466361,0.8415495773274442,0.5816763920866997,0.6787174214678742,0.5001074253637913,0.36632313683686424,0.2745106635014385,0.25040068457374476,0.1938700163047396,0.1689834215211658,0.1686902586399108,0.1618350142954237,0.13789932020137008,0.11391371081656501,0.07872847108892692,0.04393086095218258,0.03222187562821258,0.029215966867451093,0.021637066806755485,0.013411875334941046,0.00905093122280796,0.0067000844770793745,0.005387422017997106,0.0041552111859687706,0.002805344898581991,0.0019179246596256068,0.001495737944962285,0.0011944948723205137,0.0010189406263369815,0.0008904493247793498
