rhypo,magnitude,vs30,PGA,event_id,station_id
86.8543941634432,6.4,600,0.023710774180997,1,TK_0120_HN
58.8242989940746,6.4,600,0.046414273211574,1,TK_3133_HN
26.674905828843,6.4,600,0.0219659850213592,1,TK_3147_HN
98.2014627478734,6.4,600,0.0353665039174173,1,TK_3138_HN
48.3212872241457,6.4,600,0.353783084752429,1,TK_3135_HN
85.8796582359796,6.4,600,0.0214298500638023,1,KO_KRTS_HN