gmid,event_id,station_id,event_time,event_longitude,event_latitude,event_depth,magnitude,dip,rake,rupture_width,depth_top_of_rupture,depth_bottom_of_rupture,azimuth,repi,rhypo,rjb,rrup,rx,ry0,rvolc,gc2t,gc2u,station_longitude,station_latitude,vs30,vs30measured,slope,xvf,region,geology,backarc,z1,z2pt5,fpeak,longest_period,PGA,PGV,SA(0.010),SA(0.020),SA(0.022),SA(0.025),SA(0.029),SA(0.030),SA(0.032),SA(0.035),SA(0.036),SA(0.040),SA(0.042),SA(0.044),SA(0.045),SA(0.046),SA(0.048),SA(0.050),SA(0.055),SA(0.060),SA(0.065),SA(0.067),SA(0.070),SA(0.075),SA(0.080),SA(0.085),SA(0.090),SA(0.095),SA(0.100),SA(0.110),SA(0.120),SA(0.130),SA(0.133),SA(0.140),SA(0.150),SA(0.160),SA(0.170),SA(0.180),SA(0.190),SA(0.200),SA(0.220),SA(0.240),SA(0.250),SA(0.260),SA(0.280),SA(0.290),SA(0.300),SA(0.320),SA(0.340),SA(0.350),SA(0.360),SA(0.380),SA(0.400),SA(0.420),SA(0.440),SA(0.450),SA(0.460),SA(0.480),SA(0.500),SA(0.550),SA(0.600),SA(0.650),SA(0.667),SA(0.700),SA(0.750),SA(0.800),SA(0.850),SA(0.900),SA(0.950),SA(1.000),SA(1.100),SA(1.200),SA(1.300),SA(1.400),SA(1.500),SA(1.600),SA(1.700),SA(1.800),SA(1.900),SA(2.000),SA(2.200),SA(2.400),SA(2.500),SA(2.600),SA(2.800),SA(3.000),SA(3.200),SA(3.400),SA(3.500),SA(3.600),SA(3.800),SA(4.000),SA(4.200),SA(4.400),SA(4.600),SA(4.800),SA(5.000),SA(5.500),SA(6.000),SA(6.500),SA(7.000),SA(7.500),SA(8.000),SA(8.500),SA(9.000),SA(9.500),SA(10.000),SA(11.000),SA(12.000),SA(13.000),SA(14.000),SA(15.000),SA(20.000)
20230206011734_0507,543428,TK-0507,2023-06-02 01:17:00,37.043,37.288,8.6,7.83,80.96893034637156,-1.0,37.334600782057684,1.6088008578412403,38.354447044592916,342.17007980649464,434.9790946797034,435.3472439425503,395.2275342236329,395.1053042602994,-342.59276620701615,4.849535334507493,0.0,-342.59276620701615,347.13826418778325,35.45884,40.87969,368,True,0.033366833,150.00000000000003,4,CENOZOIC,False,393.6005928176532,1.3911811280503772,0.0,40.0,0.00348437457926813,3.591300843060098,0.0034846647791861793,0.0034849838520612797,0.003485072898420136,0.0034852253228675276,0.0034854585177861307,0.003485521814468469,0.003485656311692815,0.003485876078126766,0.0034859551856390885,0.0034862904991485384,0.003486471609013586,0.0034866607192473083,0.0034867579548075495,0.0034868642680054027,0.003487104636904006,0.0034873373588432707,0.00348794229362185,0.003489209260301571,0.003489864312529883,0.0034900335060179593,0.003490929870517606,0.003494478632290242,0.0034925933428768784,0.003491941811247151,0.003496203646532274,0.0035008074204812075,0.003503990986536628,0.0035008908570682935,0.003494675838682092,0.0035002847071063685,0.003507033676303167,0.003515478845975898,0.003519039249698297,0.003513429141557852,0.003508978330257047,0.003512161880461474,0.0035438696523482803,0.0035477878795954687,0.0035576269979390265,0.003599465526303243,0.003645448225132501,0.00372180365481711,0.003728268764193888,0.003672763247935003,0.003648835020966454,0.0037611195849720142,0.0038171528805197,0.0038500014083461456,0.00392673175468938,0.0038949113299287445,0.003943744515862822,0.0040665711188508,0.004251976198499734,0.004299962327797324,0.004290378677435036,0.00452041136475854,0.0047815702553339464,0.004479329498285503,0.004615771364605509,0.0048616143992587174,0.004640874382673443,0.004635430312982795,0.004966763606995683,0.0051884474818863335,0.005207777368963174,0.005181558229259223,0.0050182174279386794,0.005870250294690957,0.006628332753310307,0.005991922099359927,0.006572184725050017,0.007870125289050185,0.009385713551301616,0.010079518513275171,0.008998863645318803,0.009754485982766894,0.010633255321314821,0.011019297703156492,0.00977958137631287,0.008668445979857822,0.007287447648497912,0.007470943042111624,0.007250204038775496,0.007721625588407743,0.008300501140743948,0.007245866137368604,0.006224789828586788,0.006133241848192623,0.006602914900945988,0.006835250396887556,0.006202551990917866,0.005679918578295932,0.006374575324312598,0.007500636535299074,0.008037981750507201,0.0068644274071390145,0.00523738673479492,0.0049779967970119176,0.005130202146003922,0.004386293591165196,0.0042786084059836076,0.004634507861677982,0.005383584916052652,0.005745844738047962,0.005811790969178847,0.004280504989499882,0.0037579659543900057,0.0033751267955444628,0.003071041887122524,0.002713463480056404,0.002207161130540312
20230206011734_0509,543428,TK-0509,2023-06-02 01:17:00,37.043,37.288,8.6,7.83,80.96893034637156,-1.0,37.334600782057684,1.6088008578412403,38.354447044592916,351.3718684442391,404.5565267492234,404.95233464618417,346.2172808284545,346.1303914360944,-287.4340767346991,38.44427554627134,0.0,-287.4340767346991,380.7330043995471,36.32186,40.76096,373,True,0.019935936,150.0,4,CRETACEOUS,False,387.9234058545854,1.3698678672521256,0.0,40.0,0.0056040587548497325,4.2881686714095455,0.005605245016669244,0.005606051473123158,0.005606297701479909,0.005606757268267259,0.005607633239886747,0.00560798629542218,0.005608813786787918,0.005609959776862645,0.005610006056981122,0.00560993888605251,0.005611678321089579,0.005618736309474796,0.00562098338975833,0.005622040524319558,0.005623114963288589,0.005623578564230842,0.005623383185002865,0.0056228974443199515,0.005623242828547371,0.00561937485834083,0.005612801307462355,0.0056227135789383206,0.005624379967403217,0.005617388898578391,0.005607727716410352,0.005628815309837378,0.005637386579802241,0.00562841622016403,0.005628067769553133,0.005652076639648371,0.005659032436526005,0.00567605569322885,0.005683979907836756,0.0056813995058612515,0.0056445010386975344,0.005662754624360148,0.005703999087170523,0.005683604518829866,0.00577124934303525,0.0057959478531583505,0.005786063795545214,0.005818752016477717,0.00593780522770298,0.005959869421613238,0.005899816673405708,0.006121681358512237,0.006273910146383459,0.006418197239646733,0.006450656634315498,0.0064491498546439706,0.006385024924148527,0.006456290412929759,0.0072147668505563025,0.007782051405027545,0.008176769750865823,0.007981817626879831,0.0077469803071296695,0.008130764619869555,0.00867617699239131,0.008168501394018332,0.008514338411198287,0.009513100591413925,0.00957918956946372,0.010150404246906147,0.010868932784900686,0.011459396649891849,0.01233461802468151,0.011948220024838535,0.012602110149465866,0.012204085278589226,0.013183181894586065,0.014061739708831941,0.015852688319111,0.01763663173412739,0.017158296812909438,0.017512980737367505,0.017118857568029347,0.014072298276278624,0.015137477426529562,0.01524234992836077,0.013138943083378589,0.013254819166445846,0.013768789613141368,0.012861145287359002,0.010517658826922457,0.008950139746845817,0.008280965497834678,0.0076915259999295734,0.006996030603552355,0.006843102947531497,0.007348706480606209,0.007208270747112162,0.007456854130528016,0.007969600634151513,0.007959884290601833,0.006846540931194014,0.006657264160852316,0.007567131972920374,0.007989020093282083,0.008187425021288719,0.008245858759327773,0.007558511403155659,0.0069154234550964635,0.005441228631347573,0.004681675400441153,0.004367890596737634,0.003948632198136864,0.003928781029706385,0.003981077538977617,0.0035295371900933873,0.001839176368078271
20230206011734_0510,543428,TK-0510,2023-06-02 01:17:00,37.043,37.288,8.6,7.83,80.96893034637156,-1.0,37.334600782057684,1.6088008578412403,38.354447044592916,339.54556070250595,442.5951189634045,442.9569384604221,406.6693402933124,406.5398585763149,-356.9266200357882,0.0,0.0,-356.9266200357882,334.8903824842843,35.203395,40.881525,363,True,0.020257019,150.0,4,CRETACEOUS,False,399.1738899802745,1.4131244256367537,0.0,32.0,0.003528180750549212,3.601206277580151,0.0035293991518745623,0.0035309008444501517,0.00353176288417121,0.0035346808878121117,0.0035348349118916977,0.0035342857822372115,0.0035337651401456845,0.0035331098266932785,0.0035324000113871458,0.003531573631511538,0.0035333197903739855,0.00353567667067026,0.0035364654909449673,0.003536807254221583,0.0035372881315474214,0.0035381356146470103,0.003541692409988241,0.0035430636775980566,0.003549380635018367,0.003548106872308431,0.003550069175742023,0.0035515440189394336,0.0035522062829638867,0.003550108739532896,0.003554806992567253,0.003555781862586435,0.003559059116825284,0.003566849640088312,0.00358225780074927,0.0035936402085755873,0.0035982032986460995,0.003603223659300911,0.003618829978930691,0.00365926164632603,0.003695174487039678,0.0037061013153070316,0.0036791145294615833,0.0036597497018969,0.003793512303555388,0.0038864048213221557,0.003911345213091713,0.003934723697804081,0.003917325934340297,0.003919792836496666,0.004063441655130447,0.004445994401772632,0.004886111434552856,0.004936514883594026,0.0047785245052556925,0.0047359990508831825,0.004860246122148697,0.004931150345951928,0.005221581053295999,0.005435830868707063,0.005672369557868643,0.006197249068034645,0.006390827718276455,0.007680371084915623,0.007075432752249009,0.008244071695547247,0.008583104057395043,0.007522772606263732,0.008592724850536674,0.009051244716954487,0.009612460891920699,0.00941093715322946,0.009527995814782352,0.009068863280065887,0.009923072338676802,0.01068594334071953,0.012330372426599318,0.009612920677759602,0.01067579741644279,0.00978855687099351,0.008610220523683609,0.007756506675004055,0.0077599621798161615,0.00844540380769815,0.009254662771692367,0.010838323171410789,0.00987495459598904,0.008371959818490638,0.007282940424549879,0.005847149659290477,0.006604563003082871,0.006682145095033864,0.006612944276754921,0.0062889724986471725,0.005468013934821752,0.005606953400541041,0.005797799191570601,0.0049539149882501105,0.004727762617666512,0.004759171700420362,0.0045164571288905395,0.004354967366712641,0.005304222437563824,0.0054510705022058695,0.004762337760351481,0.00409427462955785,0.003591102400912837,0.003728257331591111,0.004377596699979292,0.005036627582042158,0.005346068162953445,0.00504386294507418,0.004251905552128681,0.004077919474256539,0.00371944611581267,0.00329060003928864,0.0021446629272332315
20230206011732_0511,543428,TK-0511,2023-06-02 01:17:00,37.043,37.288,8.6,7.83,80.96893034637156,-1.0,37.334600782057684,1.6088008578412403,38.354447044592916,337.2375599965701,438.4375075070543,438.8027552203818,405.3235334302268,405.1967866635298,-359.8188469787415,0.0,0.0,-359.8188469787415,319.0244183314559,35.028318,40.785226,415,True,0.020811835,150.0,4,CENOZOIC,False,336.9473098141762,1.2124575984361459,0.0,32.0,0.0031132290842866028,3.6021264365795163,0.003113469592135582,0.0031139437681871993,0.003114080659437856,0.0031143205201890917,0.0031146337403266714,0.0031147266895709394,0.0031149172762760797,0.0031152170756825986,0.0031153126124025795,0.0031158536839198192,0.003116140493461763,0.003116395656917671,0.0031165440490813602,0.0031167243224655434,0.0031170211071210475,0.0031172830324134658,0.0031179110000112606,0.0031189339573558478,0.0031202373302728205,0.00312015379683071,0.0031203380006879747,0.003121209370758169,0.0031256566941046237,0.0031268925429926483,0.0031276733277100957,0.003126057755353444,0.0031256766685902274,0.0031230222602966315,0.0031476657046825163,0.003161401874469679,0.003161615578005394,0.003154371415001042,0.0031777363771262816,0.003173768448883448,0.0031912740301446602,0.003190608171989714,0.003181977334062621,0.0032099277762158178,0.0032508455376366895,0.003314565334348973,0.0032528033439191808,0.003219036581069521,0.003242205343326746,0.0032752966885182654,0.003353848065898423,0.0033495543560525397,0.0034662526247198934,0.0034693476417528273,0.003477790609892807,0.0036337430717940846,0.0036802105030281766,0.0036924032478951574,0.0036581831879731676,0.003634612638771773,0.0037056933112947204,0.003740755663642588,0.0038727813303869626,0.004117737223532355,0.004121910948878634,0.003971353224534117,0.0038098213903442406,0.004266516246416575,0.004676199402890528,0.0047494851776971716,0.005168736376427907,0.005114983596687006,0.00481209382436131,0.004858410077368648,0.005895519055736665,0.006874086927093946,0.006220939379987657,0.006531131009638563,0.008154658745266604,0.00794643522001443,0.00919114340334328,0.009224392853535775,0.008650435688333976,0.009569165559216641,0.007029004076993687,0.008041834189476847,0.007308204761575412,0.006992094186000651,0.005347404152928415,0.004646511031844034,0.004667634353648518,0.004583035598609937,0.0045920470134912525,0.004615735019354783,0.004593334808320075,0.004832270713908134,0.005616684957242729,0.005292001045032816,0.004547354120318946,0.004226765185981678,0.004210220892537973,0.003990010639825656,0.004478504879809008,0.004591534210570196,0.00458741172702961,0.003920257777550766,0.0033728398337809972,0.0035716193688612547,0.003885083986433478,0.004251144932082186,0.004596587155113919,0.004490676666045661,0.004553824540372177,0.0043250551796184915,0.003933059173218297,0.0034516948629277045,0.00211044895355578
20230206011734_0512,543428,TK-0512,2023-06-02 01:17:00,37.043,37.288,8.6,7.83,80.96893034637156,-1.0,37.334600782057684,1.6088008578412403,38.354447044592916,344.0642921360693,422.9100260235917,423.2886723162752,380.1494907750732,380.037284336276,-326.696426554441,9.846816894195229,0.0,-326.696426554441,352.135545747471,35.663114,40.815357,201,True,0.017973699,150.0,4,CENOZOIC,False,509.07398646308576,2.7788000148494323,0.0,32.0,0.008424414345890046,4.903411013117869,0.008425209051869557,0.00842617941751318,0.008426450166188208,0.008426909624844822,0.00842761369618276,0.00842781182184518,0.008428190031087524,0.008428822501666867,0.008429056924091332,0.008429877656629503,0.00843039644798679,0.008431031684733118,0.008431334805063776,0.008431590988569123,0.008431749480645108,0.008431819939151866,0.008433822689620413,0.008434908165951247,0.0084367322117758,0.008439468001430302,0.0084426761719507,0.008443976716888976,0.00844787445899257,0.0084546088129573,0.008458406218094043,0.00845688101186141,0.008456441863521413,0.008462229262916593,0.008477944627090955,0.008514014538970095,0.008523684370935166,0.008526191840845562,0.008511888609273861,0.008528629097613913,0.008544716600535069,0.008608330661673953,0.008687051605021893,0.008690600116272573,0.008727301446986772,0.008945006514137804,0.008960473940513197,0.008880394057261893,0.00883051233493577,0.00875090852998787,0.008699920219176096,0.009465910409019503,0.009905742233071725,0.009825124661379548,0.009707481743173733,0.009453463229258724,0.009443291372122038,0.009402913790813979,0.009802620728190154,0.01002466241526547,0.010191762933481306,0.010555576160463301,0.010678749473927837,0.0114765502320267,0.01248411540658908,0.012973400100555607,0.014166168383049878,0.016776676589473957,0.017398623656176754,0.018306726165413865,0.017362462020420716,0.017782132960338176,0.020072159677660514,0.020550781737368136,0.022178225151356652,0.027432472076219887,0.03007287177876764,0.02585740327013479,0.03170913286747266,0.02883498729357922,0.028726440057987836,0.029814473911957486,0.02869129236300184,0.03102276024802677,0.027188969059540713,0.02336330703568698,0.02396925790330719,0.02284031090340758,0.019780578498607294,0.017911647224156422,0.02132354719466305,0.01942592738276048,0.018692253071061427,0.018945135744437624,0.01623004707728942,0.01378316517083023,0.014479308395153436,0.013534518730650216,0.014012912445693521,0.013937516706506798,0.012554661175105286,0.011689223084803812,0.009094432521412038,0.007503604189921344,0.005529653177640391,0.004870264001541515,0.00512144384990112,0.00632369169777556,0.0075006116117269095,0.0077670121284961705,0.00699671632206248,0.005372956537600281,0.004773097219948198,0.0038857771180509757,0.003350444042580466,0.0031588786866031484,0.0025352079644555205
20230206011734_0603,543428,TK-0603,2023-06-02 01:17:00,37.043,37.288,8.6,7.83,80.96893034637156,-1.0,37.334600782057684,1.6088008578412403,38.354447044592916,309.07522294200646,433.2587090803942,433.6283189483935,404.73332202680143,404.7910030094002,-390.12561935975395,0.0,0.0,-390.12561935975395,135.26125840453957,33.11857,39.55831,669,True,0.0914473,-150.0,4,CENOZOIC,True,78.75465205646597,0.7021438616779394,0.0,40.0,0.0031175033251209213,3.7134450279602893,0.003118050283364088,0.003118427099360019,0.0031185236978320736,0.003118734811518287,0.003119021403543678,0.003119098054515317,0.0031195461324242816,0.0031202519182114293,0.003120338218528325,0.003120017398404037,0.003119084935401998,0.003119054807272799,0.0031188819227852796,0.0031185106328275552,0.0031196204271021714,0.003119934639602774,0.003119700386290832,0.0031229463607205313,0.003123529555449634,0.0031230743127018275,0.003122064971751632,0.0031240572349405865,0.0031253940787226023,0.0031259339373418947,0.0031271557926327914,0.003129038523384024,0.003132810992837616,0.003133028215770144,0.0031340553295440797,0.0031419909075155526,0.003142408393316191,0.003153725760732048,0.0031640829644272016,0.0031566298670505206,0.003166719511176986,0.0031619032564589706,0.0032166445482429487,0.003276900472020296,0.0033439098820414698,0.0033152520040368055,0.003243451413865969,0.0032580128485327764,0.0033372190471662295,0.003414351868572518,0.003427774984107387,0.00342484050552511,0.003340483079501886,0.0033773167652616613,0.003383452366736574,0.0035195415341429865,0.0035678163190365855,0.003619892988635659,0.003549863521194649,0.0035054985894287785,0.003493252893021847,0.0036107140006614463,0.00395222518925963,0.003940694221362338,0.003703757423909128,0.0038833368765124198,0.004112414005288392,0.004526454246164181,0.0046662831380911325,0.004493434284111854,0.004473401407625152,0.0046385903429719206,0.0049769778898242755,0.004995028988844694,0.004924911928058385,0.0048534928312604616,0.005193803986471331,0.005316392342891629,0.00577036950522496,0.005986622233812811,0.006185127766790966,0.005827541011034726,0.005449501795995975,0.005255138220947845,0.005618752331884562,0.005487689009297016,0.0051759824094611846,0.004958193329056023,0.0052662676987046695,0.005248691736995707,0.005115452069460228,0.004460995501450171,0.004385674123106596,0.004579823824345106,0.0041306716883872325,0.003520018006066956,0.003590228143835156,0.0036326070235326957,0.00410324503171608,0.0045913964100853565,0.0047322651699503795,0.0052395767557805555,0.00550616750756808,0.006357741418026898,0.006739586542742928,0.007678115569793189,0.008190353201360715,0.008244047689170305,0.007957599120936314,0.007358432573911697,0.006516420753883445,0.005287929503706685,0.00507125688466107,0.0050355575697929485,0.004526485141491455,0.004087291363390171,0.0018677454684877036
