gmid,event_id,station_id,event_time,event_longitude,event_latitude,event_depth,magnitude,dip,rake,rupture_width,depth_top_of_rupture,depth_bottom_of_rupture,azimuth,repi,rhypo,rjb,rrup,rx,ry0,rvolc,gc2t,gc2u,station_longitude,station_latitude,vs30,vs30measured,slope,xvf,region,geology,backarc,z1,z2pt5,fpeak,longest_period,PGA,PGV,SA(0.010),SA(0.020),SA(0.022),SA(0.025),SA(0.029),SA(0.030),SA(0.032),SA(0.035),SA(0.036),SA(0.040),SA(0.042),SA(0.044),SA(0.045),SA(0.046),SA(0.048),SA(0.050),SA(0.055),SA(0.060),SA(0.065),SA(0.067),SA(0.070),SA(0.075),SA(0.080),SA(0.085),SA(0.090),SA(0.095),SA(0.100),SA(0.110),SA(0.120),SA(0.130),SA(0.133),SA(0.140),SA(0.150),SA(0.160),SA(0.170),SA(0.180),SA(0.190),SA(0.200),SA(0.220),SA(0.240),SA(0.250),SA(0.260),SA(0.280),SA(0.290),SA(0.300),SA(0.320),SA(0.340),SA(0.350),SA(0.360),SA(0.380),SA(0.400),SA(0.420),SA(0.440),SA(0.450),SA(0.460),SA(0.480),SA(0.500),SA(0.550),SA(0.600),SA(0.650),SA(0.667),SA(0.700),SA(0.750),SA(0.800),SA(0.850),SA(0.900),SA(0.950),SA(1.000),SA(1.100),SA(1.200),SA(1.300),SA(1.400),SA(1.500),SA(1.600),SA(1.700),SA(1.800),SA(1.900),SA(2.000),SA(2.200),SA(2.400),SA(2.500),SA(2.600),SA(2.800),SA(3.000),SA(3.200),SA(3.400),SA(3.500),SA(3.600),SA(3.800),SA(4.000),SA(4.200),SA(4.400),SA(4.600),SA(4.800),SA(5.000),SA(5.500),SA(6.000),SA(6.500),SA(7.000),SA(7.500),SA(8.000),SA(8.500),SA(9.000),SA(9.500),SA(10.000),SA(11.000),SA(12.000),SA(13.000),SA(14.000),SA(15.000),SA(20.000)
20230206011734_1302,543428,TK-1302,2023-06-02 01:17:00,37.043,37.288,8.6,7.83,80.96893034637156,-1.0,37.334600782057684,1.6088008578412403,38.354447044592916,70.50598381595836,472.35434057863137,472.6933816582095,300.2103099479509,301.2750133680753,206.28213553332452,225.31867390387333,0.0,206.28213553332452,567.6074027571491,42.15913,38.4744,472,False,0.05100328,150.0,0,PLEISTOCENE,False,263.7360031523179,1.0464631403931135,0.0,32.0,0.016273335978489473,4.863648257370165,0.016287148231094215,0.01632484965990908,0.016346388868475243,0.01633206288278655,0.016322001169238893,0.016314929652852136,0.016348496756410633,0.01638039206807459,0.016400529912437567,0.01640161468609563,0.016391714287847223,0.01637672351490683,0.016369987072716228,0.016368714245363746,0.016375317890893734,0.016366811082164676,0.01635049704063961,0.01642660091945145,0.01645952823139469,0.01644337132796294,0.016439913514643592,0.016520320811793644,0.016558469120592136,0.016708879856107976,0.016919784406826413,0.016870611483191585,0.016868076602782115,0.01695589072788584,0.016977665321606678,0.01727409402829633,0.017509853009773983,0.017980274460908965,0.01796520670733706,0.01819257835974783,0.019303553711054904,0.020254290370264633,0.019946970738701882,0.01945478869682219,0.0209518779746491,0.021600295672554448,0.020585948895378174,0.02029011216077979,0.021716706614026717,0.02282813589133798,0.023345504140652854,0.024045792108715297,0.025118906716381863,0.02576636018882094,0.026422423898131143,0.028199349745924585,0.02931022639629587,0.026864842087070497,0.027948764329859824,0.028226815081742244,0.02896076776177299,0.03357831295707501,0.03320250775425752,0.042328506385973456,0.045899519759543074,0.04455077135447556,0.04180315088741518,0.038859780565419874,0.03712621880878598,0.039327698730787244,0.04110400271280506,0.04353255204043447,0.05355846961267677,0.05388720634779381,0.034774364114708724,0.03624805284800475,0.034680939107024834,0.03171598586322087,0.031946713271015906,0.02710431148883753,0.02073154715899215,0.01856728820415733,0.018040643365121706,0.015956277368579797,0.01558768669912714,0.014075482216397355,0.015369164635947882,0.01728209141539729,0.01765464105346872,0.0170188390179218,0.014211619437268525,0.012604307040160093,0.011548180520689899,0.011159126768848731,0.010369464613490162,0.009671744560762335,0.009269134351261114,0.009593565175707123,0.00974737035578438,0.010160191526268667,0.010535883569227305,0.010055525919448307,0.010173927940847146,0.010008621089018167,0.007344227223312556,0.005911067280211223,0.005691198410409617,0.004757110293572012,0.0040309884200909465,0.0033435684620206005,0.0029265312667003398,0.0031170491154708917,0.002987775601491623,0.0033727027048150995,0.0029226165010935996,0.0025799765724821623,0.001827438063357802
20230206011734_1305,543428,TK-1305,2023-06-02 01:17:00,37.043,37.288,8.6,7.83,80.96893034637156,-1.0,37.334600782057684,1.6088008578412403,38.354447044592916,68.69475506386505,464.4387341261038,464.7835493610523,289.52794448069324,290.57580790324647,188.94934895347345,224.4825484998371,0.0,188.94934895347345,566.7712773531129,42.02169,38.58025,316,False,0.014540652,150.0,0,PLEISTOCENE,False,445.6649287892696,1.65604281095781,0.0,40.0,0.015072751602627173,3.130732429408132,0.015090276819428658,0.015119128625669897,0.015126917395176487,0.015141303346464415,0.015161191916763501,0.015163924040363019,0.015167035980813679,0.015162861946951836,0.0151566829737788,0.015210886167453627,0.015222371707514448,0.015207636846104738,0.015203516919502676,0.015199243098245935,0.015217522744532742,0.015297334008584414,0.015467266182615284,0.015636157283098927,0.015750490994433777,0.015789650410976103,0.01584048829799854,0.015914715903744946,0.016042641082574017,0.016181777189759442,0.016131906678773806,0.01582725824976743,0.015960298307778734,0.016649930638500225,0.017244539967825954,0.017551337881214213,0.017596341175097712,0.01777548964060796,0.018748163411022343,0.01998800914310359,0.021745936352161727,0.02459887357778013,0.02774179112354596,0.028590304037832692,0.02799537352082002,0.030793907519492337,0.033369456945743906,0.034124797086114426,0.037741999217936084,0.037472463616249875,0.035103397061801024,0.032693282708404554,0.029496844918658977,0.027150382049061512,0.02581434214854636,0.023574702703427472,0.021747417666857265,0.02028091811536673,0.018834855898682813,0.01914848551142449,0.022083943277903497,0.0255328253540559,0.025878542575187267,0.02930790860429535,0.03347084542325597,0.038304125867881816,0.03755364498280889,0.03509171302023174,0.03992541072986122,0.03932175966446549,0.03965463922718896,0.033707565204919174,0.03447350725846301,0.03157478987466979,0.026900884714055186,0.029702434425006786,0.02032987699214359,0.021047902923373683,0.020601922337018828,0.01999828990820792,0.01819354987821078,0.012957057872220214,0.010149581058817532,0.009124683793519677,0.010942214614917184,0.008857280368686948,0.008231715366167305,0.008013851028269932,0.007623936702184295,0.008675395288867955,0.007275195817423912,0.006350534387462008,0.005723662701298277,0.0053365764814141394,0.0056890461674884655,0.005530390338893563,0.005380192404163128,0.005271895797280167,0.005477242920492449,0.005474331611463761,0.005745816429783936,0.0060026812604193226,0.005995101847203046,0.005726937440241598,0.004298288070649402,0.003623243340042431,0.003531704028764456,0.0031971001905663726,0.0030415699830110532,0.0026761152373311965,0.0024560274598475207,0.0023525997465949798,0.002436470959140121,0.0022491296925579813,0.0019259013361981852,0.0019353246930194099,0.0015158144960333055
20230206011734_1810,543428,TK-1810,2023-06-02 01:17:00,37.043,37.288,8.6,7.83,80.96893034637156,-1.0,37.334600782057684,1.6088008578412403,38.354447044592916,324.1123403387943,441.7190979802875,442.08163445286755,412.5067534245132,412.4645602158485,-389.4743375267765,0.0,0.0,-389.4743375267765,236.02860863790386,33.98762,40.34595,244,False,0.0040338337,150.0,4,PLEISTOCENE,False,493.3413481419041,2.2260741212714015,0.0,32.0,0.004098159572198232,3.797101115589874,0.004098369412980863,0.004098710857783811,0.004098815456482597,0.004099009487299687,0.004099338226949718,0.00409937170798484,0.004099242883711874,0.004100040363102759,0.00410026729681214,0.00410100991270743,0.0041012840927129365,0.004100733885330686,0.004100954808806647,0.00410187873073797,0.004104068905031663,0.004104945254621675,0.004103821257831871,0.004104836129440508,0.004103129914679364,0.004102386588128724,0.004103366330676777,0.004103812461670668,0.004102096692635982,0.0041019788828328884,0.004106030061163392,0.004107718895652111,0.004107833669300838,0.004107489973305974,0.004109241459608968,0.004113007141679715,0.004119954678104011,0.004135350101666816,0.00414089852220331,0.004159326104893477,0.004151435831735823,0.00417978549678435,0.004148257186722671,0.004143963993991906,0.004236828420049435,0.004298502600247296,0.004373811168209306,0.004413737173277617,0.004430288390371596,0.004504179772478439,0.004522798946462252,0.004452898480301894,0.0045197422200424645,0.00455292894628558,0.004581407775769274,0.004551272909369422,0.004347400559437781,0.004422524660715612,0.004698839889186301,0.0047324695549792245,0.0046773018278477175,0.004586915229768096,0.00464893192874693,0.0049321297937651625,0.005075544720694962,0.004987225235506666,0.004806972543557307,0.004735462442518101,0.004865857290537227,0.005441685936347199,0.006309402506865542,0.006410046142963702,0.0060822268717824896,0.0061526713976012915,0.00678595856502332,0.007547251292924285,0.008736049204002849,0.009135411212429495,0.008807647084761885,0.009971890277114212,0.010528797164669914,0.011280823326857396,0.013541188601602772,0.015518389155929568,0.013594953074066241,0.010643635344448786,0.01113679052826482,0.011477674407653895,0.009661005999979265,0.010387940027404062,0.01046995583332324,0.010678457907562491,0.009784202170221225,0.008622915585351627,0.008984549868507921,0.008838721207717844,0.007459920320960505,0.007705598005916563,0.007088564860715904,0.0074155714458684924,0.00707028866290806,0.005702726352466186,0.00635597475092195,0.005328255381834,0.0049279825092311555,0.0052742980942230705,0.005380874991115344,0.0050149920925375525,0.004391674267378053,0.004172084246469233,0.004126342140160597,0.005097924932574077,0.005883602000182427,0.0059179756147445285,0.0057166368028696525,0.005035860567872376,0.002309216901962679
20230206011734_1903,543428,TK-1903,2023-06-02 01:17:00,37.043,37.288,8.6,7.83,80.96893034637156,-1.0,37.334600782057684,1.6088008578412403,38.354447044592916,336.1496486247738,465.7440222778191,466.087871851995,433.49343826505583,433.3475413063767,-386.54924483510456,0.0,0.0,-386.54924483510456,322.83477111349976,34.80015,40.97625,255,True,0.023301339,150.0,4,PLEISTOCENE,False,487.8997645076654,2.1165650269901897,0.0,40.0,0.00265800856210472,2.897255102844559,0.002658859348149468,0.0026602556940516758,0.0026607249996222623,0.0026615254010717826,0.0026623700026515693,0.0026624318381173627,0.0026626758653059035,0.002664535731162828,0.002665444910933769,0.0026693350125072957,0.0026707004839217796,0.00267120879486041,0.0026712739569819807,0.00267114303659063,0.002670100262448375,0.0026682723615420252,0.002664426544688514,0.002670097555098089,0.0026783550085274794,0.0026804403799632324,0.0026845423770113165,0.002690055413768449,0.0027001857973115695,0.0027014787671400925,0.002704732421535773,0.002709455871070039,0.0027096307905359637,0.002712156268569502,0.002735677607663144,0.0027804070773746717,0.0027833247228084817,0.002811232079201745,0.0028466145257592225,0.0028252988282165903,0.0027917060498221322,0.0028426056820639164,0.002964356337321329,0.002974910396383632,0.0029114184054691732,0.002933503627567486,0.0030621737376380857,0.003203357792053282,0.003693968131509832,0.003893392407358921,0.0038302629784841705,0.004132002673230436,0.004388090426280015,0.004619106754979436,0.0051251642649505404,0.006189443008415388,0.006377698638502644,0.0067852529147532795,0.0070520024351327934,0.007287756086344261,0.007412607686945125,0.007219408042172305,0.006951402195028548,0.007702339784278388,0.00675635828230786,0.005705579293685777,0.00538473705595778,0.005160694763221818,0.004843211588441399,0.00419750219151635,0.004673700835022301,0.004595247445090989,0.004423713093016652,0.004304416196243522,0.005120236847302335,0.006002132010063223,0.005153825754217997,0.0042119709910862215,0.003936052289612311,0.004055032052926644,0.0038744030307589707,0.0038022124783984846,0.004110257632973905,0.004516260145420334,0.003940779624401358,0.004909826794151602,0.005050495143941153,0.004944689771799316,0.003955493397671053,0.0034349854033764093,0.00392659790743786,0.003425951600773329,0.0035118635290370772,0.003475113682429616,0.003419857624592949,0.0034461619234263385,0.0031563781458722575,0.003309875125788779,0.0032374428200851067,0.00349790713870309,0.0036661323166841627,0.00277814406605731,0.00290349241487687,0.00299286829855161,0.003002741463711515,0.0028893290397666023,0.002504919862642312,0.0025810915620388753,0.002801295894888791,0.0029792277242687657,0.003153566320762273,0.003815918700411121,0.003771742136001861,0.0034688138132258533,0.003243448809022997,0.002995377610044226,0.002019116772108245
20230206011734_1904,543428,TK-1904,2023-06-02 01:17:00,37.043,37.288,8.6,7.83,80.96893034637156,-1.0,37.334600782057684,1.6088008578412403,38.354447044592916,334.7797353287359,417.67548993670505,418.0588773054181,386.80120008811815,386.6900738124936,-347.75073186722994,0.0,0.0,-347.75073186722994,296.26480942981493,34.93675,40.54596,193,True,0.013490994,150.00000000000003,4,PLEISTOCENE,False,511.14396939868953,2.9109585451206446,0.0,32.0,0.008923282943344338,4.249702507498945,0.008924457545918413,0.008926005353329628,0.00892587827628562,0.008926845492155349,0.008928203633926336,0.00892804675740439,0.008928656418537144,0.008927730132924841,0.008927928195014909,0.00893381550978265,0.008935418702354316,0.00893418446409274,0.008932301818860313,0.008930972204868728,0.00893166290795306,0.008933231394019137,0.008929936090547819,0.008934243175678876,0.008937222548863524,0.008938974825271503,0.008938664318558553,0.008943928794073231,0.008947103861582173,0.008951421094609781,0.00895229478305959,0.008957654094649594,0.008972362991201858,0.008972953325645605,0.00899551256079444,0.009003367916353339,0.00900431104958523,0.009031728559069965,0.009058975989595198,0.009067540722410934,0.009072761968036741,0.009048857680526975,0.009013151293876337,0.009043652333475996,0.009078817104926142,0.009177812183847573,0.0090873117352422,0.009165598833715571,0.009191191452422547,0.00923252600679898,0.009270163178374941,0.009236017896093686,0.009242535413214771,0.00937903878967878,0.009491206079827024,0.009599664589613869,0.009629230816221091,0.009705659259965135,0.009637258437688657,0.009734860065196749,0.010041256779719404,0.010604228861746157,0.010897230239163185,0.011562077116049682,0.011677716879050353,0.01307138280031069,0.013107396243300058,0.013566796864256698,0.014235354280360626,0.016817625618417955,0.018660745585053526,0.020209632143537277,0.01999757435639615,0.018178543525771314,0.01760905648094211,0.019395786524377328,0.021491619535114137,0.02046846901001917,0.02039366452223668,0.02019098367721989,0.02097166383661143,0.0223273333366379,0.01862514685093116,0.0161854289727005,0.014015742630363951,0.015887063939226505,0.016454052637384857,0.016773254871063844,0.0125180929640485,0.015002759857575633,0.01647036519505342,0.017370068675281302,0.017021646395191246,0.01815246216946037,0.01852727704399559,0.014248454558366075,0.011768975128010992,0.010588789056256022,0.010066947361640316,0.009229990441664131,0.008426788474577623,0.00585141871337048,0.006545895767673615,0.0054507371498068845,0.00474018330663932,0.003994616707678962,0.003816408038219592,0.004120590553818823,0.004297757792043639,0.004717817193944068,0.005358540151656767,0.006149486140836333,0.00577385748793105,0.005160433172771006,0.004747280588549901,0.004169924873593153,0.002285254057343873
20230206011734_1906,543428,TK-1906,2023-06-02 01:17:00,37.043,37.288,8.6,7.83,80.96893034637156,-1.0,37.334600782057684,1.6088008578412403,38.354447044592916,338.5190294228345,402.3864015204647,402.7843419605442,368.28597213458534,368.1821195003924,-325.350243582224,0.0,0.0,-325.350243582224,311.74754807271745,35.29965,40.5209,476,False,0.062346395,150.0,4,PALEOZOIC,False,258.6618965268223,1.0364091255975594,0.0,40.0,0.005174358497519088,3.9915584159970394,0.005174960665734212,0.005176431444166113,0.005176844797105247,0.005177541486117068,0.0051786125426464755,0.0051789021711329776,0.005179514754169444,0.0051805386708382115,0.00518090242945136,0.005182429252992346,0.005183251125817278,0.005184164628673782,0.005184579245282978,0.005184985810017204,0.005185909835901719,0.005186995879937164,0.005189810141809109,0.005195526509504845,0.0051987235755462345,0.005199461686086667,0.005199300935436195,0.005208485061014423,0.005215078278498053,0.005213981236949301,0.005214462856185592,0.005225818949473209,0.005238100181880325,0.005230192537341388,0.005280436700697688,0.005323628781625992,0.005331954044542638,0.005346819642436455,0.005331968906780716,0.005320102225716442,0.005336167781617145,0.005437309415466529,0.005502462882358651,0.00553867350128164,0.005745586103062263,0.005939694578444973,0.005842314415783636,0.005645566987473164,0.0058203367012288395,0.005823050586615419,0.005704208943477324,0.0059254735603793485,0.006207984257605661,0.006305846427591158,0.006653765354517736,0.007186983094353051,0.0071653048379096435,0.0065566026259762395,0.006446360628219089,0.006474327908159019,0.006464507944307909,0.006373609595263137,0.007144697029648796,0.007401803313294296,0.006977294861460602,0.007721126552991458,0.007742334191164579,0.008122660544217192,0.009152476755056085,0.009633996190619104,0.010872548640988947,0.01112112403109814,0.010885700142334595,0.011075629075229585,0.012455350473475455,0.012353722331743531,0.011818267623821549,0.011347291814255178,0.012713784317883248,0.012857676627808444,0.010860923670682148,0.009701747309489903,0.010404563560033673,0.01124910319885802,0.01149031969921636,0.010600552988083309,0.01102873489526532,0.010745644801964169,0.010729315318809949,0.01094949477272807,0.010063254599205606,0.009426338604134237,0.009135036767696204,0.008748349042204074,0.007355269410252881,0.007191536742095498,0.00804711965970885,0.008294808241950563,0.007965676316964224,0.007486103855987504,0.007707812991722836,0.006987645761312813,0.0056813826038819085,0.006579944985049749,0.006866044508563719,0.006301620453557108,0.005064125601313188,0.004767490392740372,0.005139111593785282,0.005659097028173759,0.005966197513915057,0.00553209163544346,0.005047561184248859,0.004739798104935978,0.004195506830746463,0.003615332063017102,0.0022520288998226076
