gmid,event_id,station_id,event_time,event_longitude,event_latitude,event_depth,magnitude,dip,rake,rupture_width,depth_top_of_rupture,depth_bottom_of_rupture,azimuth,repi,rhypo,rjb,rrup,rx,ry0,rvolc,gc2t,gc2u,station_longitude,station_latitude,vs30,vs30measured,slope,xvf,region,geology,backarc,z1,z2pt5,fpeak,longest_period,PGA,PGV,SA(0.010),SA(0.020),SA(0.022),SA(0.025),SA(0.029),SA(0.030),SA(0.032),SA(0.035),SA(0.036),SA(0.040),SA(0.042),SA(0.044),SA(0.045),SA(0.046),SA(0.048),SA(0.050),SA(0.055),SA(0.060),SA(0.065),SA(0.067),SA(0.070),SA(0.075),SA(0.080),SA(0.085),SA(0.090),SA(0.095),SA(0.100),SA(0.110),SA(0.120),SA(0.130),SA(0.133),SA(0.140),SA(0.150),SA(0.160),SA(0.170),SA(0.180),SA(0.190),SA(0.200),SA(0.220),SA(0.240),SA(0.250),SA(0.260),SA(0.280),SA(0.290),SA(0.300),SA(0.320),SA(0.340),SA(0.350),SA(0.360),SA(0.380),SA(0.400),SA(0.420),SA(0.440),SA(0.450),SA(0.460),SA(0.480),SA(0.500),SA(0.550),SA(0.600),SA(0.650),SA(0.667),SA(0.700),SA(0.750),SA(0.800),SA(0.850),SA(0.900),SA(0.950),SA(1.000),SA(1.100),SA(1.200),SA(1.300),SA(1.400),SA(1.500),SA(1.600),SA(1.700),SA(1.800),SA(1.900),SA(2.000),SA(2.200),SA(2.400),SA(2.500),SA(2.600),SA(2.800),SA(3.000),SA(3.200),SA(3.400),SA(3.500),SA(3.600),SA(3.800),SA(4.000),SA(4.200),SA(4.400),SA(4.600),SA(4.800),SA(5.000),SA(5.500),SA(6.000),SA(6.500),SA(7.000),SA(7.500),SA(8.000),SA(8.500),SA(9.000),SA(9.500),SA(10.000),SA(11.000),SA(12.000),SA(13.000),SA(14.000),SA(15.000),SA(20.000)
20230206011734_0132,543428,TK-0132,2023-06-02 01:17:00,37.043,37.288,8.6,7.83,80.96893034637156,-1.0,37.334600782057684,1.6088008578412403,38.354447044592916,313.45133674853247,112.12473079258912,113.54455185217202,83.34015155113656,83.45937370287619,-83.73403654454799,0.0,0.0,-83.73403654454799,156.3179204940212,36.114868,37.855892,717,False,0.15296285,13.065812139819625,4,CRETACEOUS,False,56.12551698364506,0.6486339378859385,0.0,20.0,0.035703366722996864,5.319540617603406,0.03630804905360188,0.03709901916152337,0.03737627798111447,0.03794406526100812,0.03911298710510569,0.038567481971001766,0.03875452811686277,0.04150830668555237,0.0411925126896194,0.03979894728630567,0.04278829072762651,0.04717075133116773,0.05035684265173377,0.05309732823682719,0.05450881687858507,0.05010760599545745,0.05986263981585122,0.058073461911849124,0.060582234191652734,0.05940023991995244,0.06082460609226787,0.06212286083721776,0.06376472553378902,0.08067955884625996,0.084610696849272,0.08546929726964753,0.09055490287835401,0.09680141904890993,0.09523405210378602,0.09894876655076693,0.09691948269724861,0.09453018757372181,0.09882674703566224,0.08193267857012086,0.08939615931099036,0.09583834019191581,0.1066942697695537,0.10284570772124609,0.0914634987358465,0.0763924118142221,0.07529670750867869,0.08273255540244116,0.08946453060856077,0.09122137066454218,0.09515832018960112,0.09044942930357718,0.10266867767529048,0.09970747172145789,0.09455159108446945,0.08745528053701304,0.08083571066659387,0.07886769199203396,0.07394146571536411,0.07158610815363822,0.06606150324857371,0.06308596237458382,0.06428654020195537,0.07469824529987824,0.0730144724633962,0.06998623125032766,0.0670523237723225,0.06588845345513915,0.05800413018450984,0.056855417018646666,0.04935128850833566,0.04160187970900859,0.03774097592585278,0.039709062179479185,0.03069672383521606,0.02608005350049954,0.02585980031091996,0.023135807758718492,0.024192049659200774,0.029534896403891755,0.031451718223494726,0.027735432168472067,0.0261682241303677,0.021845606740931642,0.019284609723134453,0.017738503750281336,0.016311350474263533,0.014948870768306222,0.011426123855915252,0.009595987870800021,0.01047611793928189,0.010168900894556387,0.009866429170967238,0.009692698776216997,0.009590324445064928,0.00984861383967957,0.01015271817559421,0.010524966626335945,0.00948051764159627,0.008438084935804368,0.008707611810409242,0.009550614741322615,0.008675240564534609,0.00927397783950824,0.010757513125723001,0.009146333303328149,0.00858615183838738,0.007895434259215465,0.007410364327749375,0.006395829018694544,0.005157169383822283,0.004309753275684951,0.004076196114082641,0.004147866863424338,0.004164426459306671,0.0038922707457645987,0.002155698251019735
20230206011734_0133,543428,TK-0133,2023-06-02 01:17:00,37.043,37.288,8.6,7.83,80.96893034637156,-1.0,37.334600782057684,1.6088008578412403,38.354447044592916,302.14417629478856,122.32462546945075,123.62735941627726,95.19510504918772,95.20304070313925,-93.15319488334104,0.0,0.0,-93.15319488334104,136.7875079032003,35.864025,37.745495,548,False,0.10210633,2.0685109436534668,4,PALEOZOIC,False,174.47416464297604,0.8821625629106941,0.0,20.0,0.07749400864688315,6.208749398101633,0.07762381111885362,0.0779891373163785,0.0780925044316813,0.07826836093282663,0.0785375908286164,0.07861206845633946,0.07881403140903188,0.07905065538248796,0.07912615639027247,0.07940191422983504,0.07963130860936837,0.08012229616573988,0.0802902862685257,0.08021117372054211,0.07967216298300397,0.07973325439584114,0.08233145199761426,0.09058013752015852,0.09471714844507707,0.09659811881889302,0.1004631675258545,0.100921406990392,0.09230169600987083,0.09147661687854583,0.10550126785804285,0.10880149768128428,0.11796709697294104,0.13449953704655773,0.14941038854571087,0.14636551453008095,0.14264980659397627,0.14066040073887726,0.1499394807234124,0.14024466996778967,0.15445402614506779,0.1660333443570086,0.1782335417751033,0.156896191024406,0.173009263747624,0.1728103201037776,0.1706939741149,0.18391047058348498,0.1759376562731321,0.1574577328733953,0.16310009489416924,0.18403925990543657,0.18527410297850413,0.1836364087194043,0.19146555620203984,0.20208193724292645,0.17350765783854327,0.16301569777697691,0.16029981190770815,0.16614122804347434,0.17179578471127424,0.17440789694663594,0.1854455332583165,0.16829955567118962,0.15436749095531724,0.12295447633050575,0.10876589448628195,0.08521990266502749,0.08314539636863313,0.07326923568612503,0.06622527128143055,0.05870891408185781,0.056326111435013176,0.05432239576215051,0.05238428356658007,0.04438750923993146,0.040972318792443806,0.030139094407313022,0.028196412221362068,0.027565714704779202,0.029075072621124524,0.028796984034996913,0.02660876195176461,0.02782424964819983,0.020743971360398135,0.019819331290991764,0.02038480505124336,0.017791348263746544,0.014192340478712637,0.01573213786925535,0.015018100596596135,0.014099821396632382,0.014188917502617852,0.014251138816045998,0.012896916848562846,0.012593684005782094,0.012122968663566406,0.01160257235547204,0.011639523405426523,0.01205240275545721,0.011717196636651493,0.012023522480674096,0.010381678405692995,0.010681491380587499,0.010851649168933927,0.0102210989524854,0.009275135193583781,0.008555411908475965,0.007734616363932931,0.00618497383982574,0.0048284438826135395,0.003519338936031917,0.003445603404229066,0.003021525688015153,0.003087244892905662,0.0028105797145301895,0.00145891091093897
20230206011734_0134,543428,TK-0134,2023-06-02 01:17:00,37.043,37.288,8.6,7.83,80.96893034637156,-1.0,37.334600782057684,1.6088008578412403,38.354447044592916,302.09935717306985,122.21987511034541,123.52371380422639,95.10019554363461,95.10766391248015,-93.04730119614644,0.0,0.0,-93.04730119614644,136.7227247771606,35.864475,37.74427,548,False,0.10210633,2.1789877964895794,4,PALEOZOIC,False,174.47416464297604,0.8821625629106941,0.0,26.7,0.05721062554863732,6.567359832063047,0.057353859753788344,0.05764143573866438,0.05773132528995749,0.057882829993709486,0.057929442325486524,0.05799886292580652,0.05822657187594447,0.05863159990610513,0.058634710163371954,0.05882523665472656,0.05889506491896434,0.05938226056785383,0.05949557175578195,0.05955049269292363,0.05947591149606226,0.05972992832486817,0.05930497410291196,0.05898599926222396,0.06211113633918587,0.06324140729889112,0.06546050472797257,0.06797445162351409,0.07047051626889365,0.07192102590668475,0.06892022823847871,0.0829892254144322,0.09368330378295822,0.10852809958440801,0.10600695018065237,0.1257978403986315,0.12936609646234581,0.13228896002792304,0.14660228903602246,0.13473365611884672,0.16938535054292148,0.18381436250012687,0.1465579229412585,0.12880921404971843,0.11800747614403861,0.10597348505184911,0.09259840497269824,0.09765170372722025,0.12816849590065213,0.1341132872431925,0.134574807895541,0.14345012070157756,0.13941293635124297,0.14104512303119496,0.13244757329910534,0.13533841569686128,0.13315683127985825,0.12861457969434134,0.13724745938337032,0.14143040461989442,0.13963098820929262,0.13032514880049118,0.13120589358730103,0.14178580542789518,0.14406186680532568,0.09905917004678447,0.09029568838454087,0.08248095325571485,0.07887066772566223,0.07296224012200003,0.05362950979525183,0.047165544245011626,0.05395211638148656,0.05295122800732629,0.0588318118790192,0.046068152809521236,0.043843513137602146,0.03615421015292823,0.030000923772403994,0.026319736454632033,0.027598163634408823,0.02684387770763829,0.026783001176668424,0.025696617099737522,0.016629615409181422,0.01877802800398788,0.02058432178036793,0.018522499480111563,0.01570449508757231,0.018182131620370696,0.019321283131841293,0.016544245224388805,0.016639507668680647,0.0161265475402338,0.015023254248908003,0.015711428915812665,0.014349802810102867,0.012706868424174686,0.012796392517963493,0.012862814012033085,0.01236560537632779,0.011411548014601043,0.009966340344109995,0.011225007310142027,0.011645628514369403,0.011591966350660208,0.010335019142978295,0.009306430404102763,0.0076501441831714374,0.005924499485767894,0.0046279651013514875,0.00438517188264264,0.003694135516746826,0.0029610100334459357,0.002576108239441176,0.0024640415599365634,0.001637193324867508
20230206011734_0137,543428,TK-0137,2023-06-02 01:17:00,37.043,37.288,8.6,7.83,80.96893034637156,-1.0,37.334600782057684,1.6088008578412403,38.354447044592916,297.63021854681574,130.94656172797582,132.16433720326592,104.52787226044096,104.52450290101193,-100.18124663758134,0.0,0.0,-100.18124663758134,127.13846189359764,35.723258,37.704858,629,False,0.061528355,-5.496651488232221,4,PALEOZOIC,True,103.72321887580604,0.7534548691506974,0.0,26.7,0.036308218691420265,4.774291643683399,0.036626476860095264,0.03695909864502685,0.037073364621631785,0.037312228813839166,0.037937721792743635,0.03831601181657498,0.038141762470485556,0.03819260378764537,0.038393148990209826,0.03949321606952666,0.04036762192910066,0.04166445340580792,0.04177489751805852,0.04146292705715312,0.04103459639459854,0.04055052060927152,0.04031082725055643,0.045809183727222605,0.047990476008737064,0.048150794077781875,0.05113725284379541,0.05860489507343778,0.06160102055282049,0.06466130282229685,0.06292312504826408,0.06460866833140617,0.06762382083854027,0.0723210399107585,0.08678247096399841,0.08933426796040513,0.08653479436628071,0.08799195244349273,0.08961119016301194,0.09881900951465712,0.1042278849723656,0.11704259954606903,0.13881715347744708,0.1371749818582009,0.09864584917888468,0.09451435202673517,0.09252257502457904,0.09260791459183972,0.09698844666211211,0.10413192831705276,0.10833614749008258,0.09665792385280932,0.08060100017917522,0.0758260565496113,0.07280845005580625,0.07040993404479247,0.06881927808153329,0.07513487485389454,0.06524292713214823,0.06135421811941953,0.06125482011587922,0.05629244656746684,0.05048013435618148,0.04704994380393524,0.04103493929253351,0.04535114439002853,0.04459979469666074,0.042766524267798055,0.040049214604764,0.04063059628997392,0.039433368394844445,0.03905010550184744,0.03528328837551542,0.031495944012850434,0.03111301484779452,0.024708022245149706,0.023551536241034104,0.017156637838795754,0.015663435647317304,0.018052606830163444,0.01759717497293102,0.017643708679109932,0.018451358940692626,0.018180453105832967,0.02072391232405846,0.015721128857714352,0.01461301131333494,0.0147343679349389,0.011346485845206285,0.00955258787062543,0.009177027123103374,0.009581449056398956,0.009965823864035328,0.010429715402270091,0.011196638493367815,0.012756062187094894,0.012662678335609674,0.011685670680281517,0.01198152958800982,0.011403842731826503,0.010046122327679288,0.009249511228974815,0.008058820161459668,0.00834105450021847,0.009325261253362548,0.009533571059124495,0.007877126484956263,0.006846555185682685,0.005851531351394254,0.0050151617791112865,0.004136969423764935,0.0037646953659867845,0.003398527972880588,0.0030945681462999177,0.0026379524750255274,0.0022915349852212054,0.0017787070559498372
20230206011734_0138,543428,TK-0138,2023-06-02 01:17:00,37.043,37.288,8.6,7.83,80.96893034637156,-1.0,37.334600782057684,1.6088008578412403,38.354447044592916,297.6319560608501,130.93871130979443,132.15655912390307,104.51988209121515,104.51651435998107,-100.17447001636928,0.0,0.0,-100.17447001636928,127.14330091257807,35.723358,37.704858,629,False,0.061528355,-5.489433502807932,4,PALEOZOIC,True,103.72321887580604,0.7534548691506974,0.0,32.0,0.024573984369061927,4.529231890343737,0.024691063597921167,0.02478862397940344,0.024819106059751912,0.024897729052218053,0.0250243166482328,0.02501835119543318,0.025066540979991486,0.025137809078031443,0.02512286487949511,0.02499634168321251,0.025235383717161015,0.02529547923594368,0.025263717579007472,0.025319261796412966,0.025679015275688097,0.025780859333115504,0.025852389554708147,0.025969014247024996,0.025478083984761805,0.025578664970649735,0.026003534993984372,0.027050451968681027,0.027908929866688813,0.02975219130242692,0.02956959774425562,0.0279256468022293,0.0289950366178892,0.032281833300797466,0.032001212421494445,0.03063389062496263,0.03221543888375005,0.03392047991428639,0.03174986683416137,0.03453072853744416,0.04171077668632355,0.038414450782745566,0.04091118802844757,0.04350664241834308,0.04504201097638556,0.05078900102339974,0.04977847838753327,0.047900882287761806,0.05868187958121655,0.06402591350335997,0.06947714671304905,0.06487242957735624,0.05990639485988444,0.05985639951312174,0.057540501286452175,0.05997772739543678,0.07005373748635493,0.07432513243669069,0.0628618457650382,0.05989947943045627,0.056872479943282116,0.0492368775295814,0.045045062232979195,0.05687610355700697,0.05182356100025898,0.05073829683892816,0.048198043174382615,0.040175273590191886,0.03375396753472943,0.035220968799477594,0.034781896109039354,0.03801003469424075,0.032956436428390086,0.02970802415857743,0.02907221971721048,0.022394643706519692,0.020835819286897154,0.01645593537568767,0.016115640760888787,0.017505882291036,0.01798569126975213,0.01810008113269215,0.018416193141336717,0.018431884346851453,0.021581307032114416,0.016559576512915376,0.015052103189513012,0.014897562520104626,0.01143813895033592,0.009643823217021372,0.009236233645424778,0.00966251203779084,0.010053431653325723,0.010460186785172562,0.011130433892793737,0.012774767867624517,0.0127338071008457,0.011690471793527127,0.01205680737892019,0.011469979409828563,0.010068607626946413,0.009258804393046133,0.008025801471471795,0.008306659744772033,0.009253616091777316,0.009462396914549578,0.007847232770600641,0.006843469999243395,0.005853073873078837,0.0049924017627416654,0.0041180750214689435,0.003764199128741937,0.003392979219727636,0.0030950723270933653,0.002660926145798435,0.002313488127988968,0.0017835472070068324
20230206011734_0139,543428,TK-0139,2023-06-02 01:17:00,37.043,37.288,8.6,7.83,80.96893034637156,-1.0,37.334600782057684,1.6088008578412403,38.354447044592916,280.96068517712905,143.65484251865624,144.76575485611204,112.69819947665914,112.69457247885195,-102.21378860735146,0.0,0.0,-102.21378860735146,91.037590047148,35.445322,37.400943,491,False,0.07042271,-5.542546698342507,4,PLEISTOCENE,True,239.89779906565224,1.00026795369625,0.0,32.0,0.01789971146855725,6.788484741309132,0.017924163697369176,0.017986960646321694,0.01800468279385558,0.018038746298255564,0.018084622253116522,0.018092766256507065,0.01812984558487481,0.018209569628784505,0.018245467684616067,0.01845043353660046,0.018492888913783295,0.018562040601685603,0.018641710848293563,0.018723791576887343,0.018786842548871297,0.018781167529103204,0.0191235460070524,0.019066344688630943,0.02001109491081422,0.019921832309504766,0.02056296813013172,0.020629298164513827,0.020875298092566965,0.020436512166679754,0.02114911962184345,0.021210397800541663,0.023224857828763268,0.02413346852062167,0.025050979501428698,0.025171164938483537,0.025991384615732884,0.029033740045276184,0.02657735348067181,0.02807271452173682,0.03080954014304419,0.036364997138926915,0.0366058593400398,0.038757673647224995,0.045564262271084614,0.050524782773932506,0.05474963804479042,0.052611558169132155,0.049009483856655885,0.04968508670657009,0.050691939917393576,0.05215228385053253,0.05771114202926531,0.061354618043068035,0.061753556146492264,0.05378308982784949,0.05094688072964113,0.053100773081050524,0.05621710435484079,0.05274500284857779,0.05101414027117018,0.053983251676972654,0.055908326248924396,0.05187480176724948,0.053215200253553,0.05101590987347507,0.05036333484095905,0.05377740638308528,0.055546854908352816,0.059745108178370754,0.05623060245312536,0.04584631930486385,0.04059304890333571,0.03888074296032058,0.03279200315698921,0.029185123989379242,0.02657246661934886,0.028796212235057426,0.026499358708479498,0.023423116685779954,0.02494589004908856,0.0197006031943736,0.017799796659537733,0.019043819914477716,0.017106560997905244,0.019998173257959235,0.021167251663820198,0.020337125225531928,0.017923252774049478,0.01632324488047672,0.014868343984299271,0.01588633081508274,0.016843183339024105,0.01669854394664246,0.01684478776377165,0.01565791699505729,0.014613494921117727,0.014263202010163017,0.015050147180167776,0.014564365999462524,0.012689630907487317,0.010838841749207262,0.010191812632161925,0.009908626394498089,0.010612105132348637,0.009419337387848,0.00889469249786995,0.008384802456205862,0.0076347032991099595,0.007477134385465701,0.006802897628347577,0.006191252480890242,0.005244546803155692,0.004358559114068932,0.003408448005503314,0.0028839897522970302,0.0021552323989960935
