gmid,event_id,station_id,event_time,event_longitude,event_latitude,event_depth,magnitude,dip,rake,rupture_width,depth_top_of_rupture,depth_bottom_of_rupture,azimuth,repi,rhypo,rjb,rrup,rx,ry0,rvolc,gc2t,gc2u,station_longitude,station_latitude,vs30,vs30measured,slope,xvf,region,geology,backarc,z1,z2pt5,fpeak,longest_period,PGA,PGV,SA(0.010),SA(0.020),SA(0.022),SA(0.025),SA(0.029),SA(0.030),SA(0.032),SA(0.035),SA(0.036),SA(0.040),SA(0.042),SA(0.044),SA(0.045),SA(0.046),SA(0.048),SA(0.050),SA(0.055),SA(0.060),SA(0.065),SA(0.067),SA(0.070),SA(0.075),SA(0.080),SA(0.085),SA(0.090),SA(0.095),SA(0.100),SA(0.110),SA(0.120),SA(0.130),SA(0.133),SA(0.140),SA(0.150),SA(0.160),SA(0.170),SA(0.180),SA(0.190),SA(0.200),SA(0.220),SA(0.240),SA(0.250),SA(0.260),SA(0.280),SA(0.290),SA(0.300),SA(0.320),SA(0.340),SA(0.350),SA(0.360),SA(0.380),SA(0.400),SA(0.420),SA(0.440),SA(0.450),SA(0.460),SA(0.480),SA(0.500),SA(0.550),SA(0.600),SA(0.650),SA(0.667),SA(0.700),SA(0.750),SA(0.800),SA(0.850),SA(0.900),SA(0.950),SA(1.000),SA(1.100),SA(1.200),SA(1.300),SA(1.400),SA(1.500),SA(1.600),SA(1.700),SA(1.800),SA(1.900),SA(2.000),SA(2.200),SA(2.400),SA(2.500),SA(2.600),SA(2.800),SA(3.000),SA(3.200),SA(3.400),SA(3.500),SA(3.600),SA(3.800),SA(4.000),SA(4.200),SA(4.400),SA(4.600),SA(4.800),SA(5.000),SA(5.500),SA(6.000),SA(6.500),SA(7.000),SA(7.500),SA(8.000),SA(8.500),SA(9.000),SA(9.500),SA(10.000),SA(11.000),SA(12.000),SA(13.000),SA(14.000),SA(15.000),SA(20.000)
20230206011734_0140,543428,TK-0140,2023-06-02 01:17:00,37.043,37.288,8.6,7.83,80.96893034637156,-1.0,37.334600782057684,1.6088008578412403,38.354447044592916,288.714076979452,140.77699972434226,141.9104423620315,113.44799835381411,113.44346973899513,-105.2103191546274,0.0,0.0,-105.2103191546274,107.33614960184043,35.52924,37.56261,730,False,0.049928673,-10.407741540196264,4,CENOZOIC,True,51.16382028160879,0.6354366065042137,0.0,32.0,0.030561690136713643,4.9134522556695375,0.030767014858651652,0.030940691971608418,0.03099332807242283,0.031074428756955222,0.031045194420061664,0.0311816325627014,0.03136529062330951,0.03108657152465371,0.031313480808008394,0.031741405597736,0.03167069224023234,0.03225827486636777,0.03268081243025569,0.033107151562693955,0.033707898065623854,0.03415953396400315,0.03444200971185981,0.03502873888575575,0.03476150629869965,0.03465074255409604,0.03604316170488302,0.03637420432523916,0.039735703329171555,0.04038544793061465,0.04153136563276819,0.045769540202046245,0.04560191095540785,0.0474366611292526,0.04828889149911697,0.05677873783516516,0.06022608011403275,0.06580865906771345,0.06712676197377665,0.07891982547866383,0.09718233528981124,0.09779473260764754,0.10180756260634863,0.10133051328545697,0.09908487116825596,0.11638144490414531,0.1360764542658052,0.13838849637226175,0.1584508791140455,0.1556952588381422,0.14219697216664817,0.09189816120271718,0.07065365961256703,0.06380932590827407,0.060812773553910265,0.053967553631628716,0.045573495817382875,0.04981852638883152,0.04893722694551949,0.04489748693808329,0.04161329556949172,0.04222633936194769,0.04226908267882243,0.042080163857900824,0.03623784426823375,0.030413315649725214,0.029771971838238022,0.02556885884608108,0.024918127503210246,0.02580924680401465,0.03133897137405772,0.027759945875383184,0.023613673574025607,0.0229078691056457,0.021020496365268673,0.01672067147507647,0.016036831927676427,0.015803166587330674,0.015930705607113564,0.016656510182282067,0.014082713886695688,0.01277133355787662,0.012727581625751593,0.012440995229877103,0.010618856328276773,0.009802342627217008,0.009430381450571285,0.00899418072735533,0.00847603482818393,0.008230229620368061,0.007472716582557058,0.008464356224515452,0.008131446952128392,0.007792849111663046,0.007014228838813015,0.006631645593622037,0.007320358622275658,0.007752584350224532,0.008196447826924268,0.009274839303188046,0.009656059289131836,0.009107739681313324,0.008615280293673354,0.0073315380553837855,0.006753524063390537,0.0063431526496755715,0.0054715662175606975,0.00483319587224422,0.004503876470516566,0.004438923221800168,0.0045146895037137015,0.004247207302831044,0.0038191930546005114,0.003245225716412743,0.0026208585393509096,0.002359040164909665,0.0017382999608215734
20230206011734_0141,543428,TK-0141,2023-06-02 01:17:00,37.043,37.288,8.6,7.83,80.96893034637156,-1.0,37.334600782057684,1.6088008578412403,38.354447044592916,288.69713333541966,140.888606140487,142.02115807234242,113.55385630902362,113.54930212246839,-105.30001775515484,0.0,0.0,-105.30001775515484,107.26570939521672,35.52789,37.56256,730,False,0.049928673,-10.50100058143067,4,CENOZOIC,True,51.16382028160879,0.6354366065042137,0.0,32.0,0.01522188539288087,4.447516631063517,0.015298925479303036,0.01563868559331596,0.01579913952108585,0.016149563287379348,0.016378860062325074,0.01644237218173619,0.016692799608187318,0.016933167052406897,0.017192876746680144,0.01801515297053883,0.018171353928542664,0.018332312683319196,0.018766131466745106,0.01924372822926674,0.01996248293817711,0.0203372098266526,0.022634567731174917,0.0243823739055921,0.02830673478271426,0.030089376299848872,0.03269943780965301,0.03679933222750353,0.047056009619396835,0.05938186879180656,0.06376582563459186,0.06956989955411248,0.06627841947993784,0.052681116499476315,0.042739585718619175,0.0363633984355447,0.03226441938878511,0.03485222351030927,0.03090038094468486,0.030541173585316862,0.028408601076957668,0.03101033062634241,0.02940478961672827,0.025585580391031443,0.02614765269769263,0.026381760710836536,0.02685685516847608,0.027625592912331326,0.02934569548598602,0.032077354175394875,0.03318581564339426,0.032064727531112766,0.033896637979202365,0.033102960984159484,0.03363988183843313,0.03126282197013919,0.027809197225543328,0.023746560062213755,0.02692840685578393,0.027593416499692068,0.02697197786048465,0.028357301055673318,0.029125321374718204,0.028779686265469343,0.02252820268983244,0.018092000262564124,0.017731025200364764,0.018381033276742023,0.020966134437068257,0.02098177832023954,0.024719109511158605,0.02284261523730847,0.019043148233962567,0.016486333582067036,0.015420808375939614,0.015710069798700294,0.014882696666201928,0.015287122898688957,0.015581652371657624,0.015326183193318755,0.013306107101448281,0.011982172751610143,0.012409922222956338,0.01177086294713822,0.01027956281756102,0.009381552373266138,0.009287586863182064,0.008573650830798932,0.007924068954257372,0.007545691133071585,0.007062453199358601,0.007886663711657377,0.007524270541001019,0.007362977813069914,0.006754831137522153,0.006400392799899307,0.007112565903653884,0.0076415816283964015,0.008222253635819805,0.009163715186946534,0.009289030261018353,0.008710531507844168,0.008207060231598565,0.007106934789975677,0.006673619174792141,0.006274298364818617,0.005475309751729221,0.0047995866071310735,0.004464409003530566,0.004424680253297097,0.004495373717089653,0.0042826043634812475,0.00385112107123788,0.003276390895176708,0.0025611311422570272,0.0023116629221577086,0.0017313997526807467
20230206011734_0142,543428,TK-0142,2023-06-02 01:17:00,37.043,37.288,8.6,7.83,80.96893034637156,-1.0,37.334600782057684,1.6088008578412403,38.354447044592916,292.23498093998614,136.14089342565836,137.31260999171369,109.58316772084032,109.57924178609954,-102.89072843772804,0.0,0.0,-102.89072843772804,115.62123641179824,35.611148,37.62072,648,False,0.08349041,-8.251065016636074,4,PALEOZOIC,True,91.10188850697902,0.728235381631701,0.0,32.0,0.014319978590130643,3.9625770554869892,0.014432029546642402,0.014511395366335677,0.014541392704086945,0.014623669461456552,0.014744290136051436,0.014748651096963187,0.01478317847941945,0.014885160601293057,0.014967726458855028,0.015520386718102202,0.01575674304459944,0.015661960771080077,0.015624735602834618,0.015635493365945097,0.01551362823188724,0.015468901673218974,0.016038508974147037,0.01711684364849381,0.0172246437682529,0.016926571792978694,0.01657325649106316,0.017018115029208233,0.01774391299153949,0.017163962521676544,0.01690791764564181,0.01793323690496611,0.02037760611849139,0.02205819604508712,0.02136051024182495,0.022937576084588785,0.02304484094000884,0.022170345538970446,0.02189090948055917,0.022173649985973886,0.02466877346377934,0.024414203698290622,0.02456392156833023,0.024793710239276845,0.03139413321344721,0.03228111470366043,0.035575368212072064,0.03353614955345719,0.03470122543157869,0.031972229387716315,0.03389580367096343,0.03001932859787793,0.028507942126738336,0.028675468012085564,0.029031824639797477,0.02698435139492496,0.027203714435096994,0.030797979534649612,0.03972226803668146,0.041864856163515006,0.042056693751361875,0.040571657048115294,0.03893177423353314,0.03068499802361334,0.02934228161251538,0.028846435811564496,0.027330513259002716,0.024526008765728545,0.02407623453605248,0.02579220908354275,0.02819552478947925,0.027070143736291526,0.022929148537475234,0.01989449481863057,0.01947449038908387,0.018018831871114648,0.022044180433573233,0.021180651692260445,0.017022604856333168,0.01410195704496712,0.013215958534627549,0.011662737701510864,0.011412336593705006,0.012647611088599754,0.012661721540759382,0.010378592539497999,0.00970502922071103,0.00985971398621113,0.009085276991664335,0.008820384898332327,0.009385274610778264,0.007618627242717717,0.007467392284771341,0.007726354671220785,0.007750645329493914,0.008248177201038596,0.008657061441154235,0.008212043147013964,0.00901892885866176,0.00919279356234228,0.008442835047393623,0.007861853709021238,0.008783448175014343,0.009215982101822182,0.009236895523662317,0.008829619308679405,0.007456499014610317,0.0059653898363078,0.005140701268547738,0.004491926335286045,0.004075670431823135,0.0038918484738317853,0.003864140698229652,0.0032746988332985495,0.002752571217453082,0.0023587045588922984,0.0018060519855546773
20230206011734_0143,543428,TK-0143,2023-06-02 01:17:00,37.043,37.288,8.6,7.83,80.96893034637156,-1.0,37.334600782057684,1.6088008578412403,38.354447044592916,292.2697148391002,136.1420889920214,137.31379535615304,109.58909290154901,109.58516155011694,-102.90808235749743,0.0,0.0,-102.90808235749743,115.68786300149507,35.611477,37.621415,648,False,0.08349041,-8.271388969957618,4,PALEOZOIC,True,91.10188850697902,0.728235381631701,0.0,32.0,0.024403760607508835,4.594203163019428,0.024459622747372844,0.02454154725597726,0.024568903337917967,0.024574775498390086,0.024668202136191024,0.024761361471634248,0.024819226251230366,0.025079974068906614,0.025162288219337435,0.02579266188054163,0.026037699346044392,0.026229644469845312,0.02631244559127504,0.026322408837372895,0.026835379913703963,0.027454691169851716,0.026810040599301126,0.02695118060383378,0.028827842525113997,0.029380902969898693,0.030236828989791856,0.029276376063783846,0.027512610632034477,0.028967045839707748,0.030983622770663573,0.03390307781835238,0.03910435597980113,0.04237612357085446,0.04973813912262079,0.05992385819891141,0.060002178461834955,0.06233920431081001,0.05515457381162306,0.05684874192475693,0.052697080507875985,0.053231860678736434,0.06194267955653917,0.07478144176363218,0.08331417121867091,0.10396383017359212,0.09445376822578959,0.09546035131913,0.10176669416324485,0.08037880461885734,0.07222894393339602,0.06588589379183503,0.056667494102021404,0.056489527677952435,0.054890718034036313,0.04394882366686397,0.04309714856828522,0.045437796888062286,0.05112186238481207,0.05091552313505803,0.048381287870697565,0.048287442930618665,0.052529469930903974,0.04446521900794337,0.03108505722344747,0.03160978588152747,0.030651746426986797,0.030157674715990193,0.029342689928934067,0.032965560705836665,0.03518986570100902,0.040632765552624316,0.03347346825602928,0.025038319318923932,0.025567475027365442,0.02000680064969406,0.02187753420613814,0.021397347650445268,0.017021975497461195,0.014486912346476056,0.01341372113283103,0.011784840925375803,0.012625882525069373,0.014678303627160811,0.014077176226872658,0.010893601363331737,0.009951995249360706,0.009464360562464096,0.009123009261842728,0.009782283957174974,0.009707312323389816,0.007902071065298494,0.008046146013537231,0.008377451486795796,0.008525187479626795,0.008380844096154957,0.008649545809182814,0.00913680238841608,0.009596802402575414,0.00968433604774119,0.009037374092274935,0.009461862887304022,0.009908309602673887,0.010217200304866584,0.009158255179816934,0.008388212955343779,0.007420408107235344,0.005897874184983092,0.005266112010119288,0.0049567336203137115,0.004815951464915849,0.004345180699972567,0.0036670826561895414,0.0032657472569193415,0.002958244915326608,0.002534068274106768,0.0018838519575542913
20230206011734_0144,543428,TK-0144,2023-06-02 01:17:00,37.043,37.288,8.6,7.83,80.96893034637156,-1.0,37.334600782057684,1.6088008578412403,38.354447044592916,294.69718886675,153.1597416810741,154.2021934727692,126.81176848707238,126.80354573592867,-119.61166758272176,0.0,0.0,-119.61166758272176,116.16567311052623,35.45968,37.731023,821,False,0.0773528,-26.19564369368764,4,UNKNOWN,True,26.778967966037328,0.5555267939048366,0.0,32.0,0.015622175777413337,3.2963616262690545,0.015714626918441294,0.01586504084921922,0.01590887794220872,0.01598387693066294,0.016153097762536577,0.016178171295475118,0.016277691428800995,0.01635609909108023,0.01640410942412212,0.016677283546027277,0.016662452068514397,0.01674041646712004,0.016849230626659654,0.017016500521145016,0.017267876381672216,0.017195159475652873,0.017507838710695594,0.018145050937210517,0.018432488753058127,0.01899156973426925,0.019966303283805838,0.020524771657059206,0.02127799014146408,0.02187758485778333,0.023738449688785947,0.026254598335048188,0.026810674205987563,0.029131384960868312,0.033890319929664015,0.04048653854258799,0.04084816631211394,0.04207548821727242,0.054423297264155075,0.05861213852122643,0.05227801356144394,0.05182744568870724,0.04743883224652096,0.03590405809870948,0.03511955992801447,0.030878892812224782,0.02822262016059336,0.0237010148509778,0.017832256820654285,0.018000406203677582,0.017383089008143476,0.017740681593615148,0.01676261087558979,0.016290429036645272,0.015705472168494196,0.013414890552791511,0.01271690469901592,0.012521589934771708,0.0131492339008687,0.013849237332262235,0.013245351154661156,0.01110549334833031,0.010714596087848928,0.01383221331406658,0.014494303717183342,0.012033991687278502,0.012117618982171221,0.01187373372537646,0.010119977972260328,0.010719009497114079,0.010422013746557268,0.011434052545575049,0.011284833113555772,0.011079092063700627,0.010377679602451643,0.01266920702123209,0.013418508685625611,0.011887720966998545,0.010398932624741527,0.008624438137657266,0.00838558871034795,0.008583549964774891,0.008222784767174047,0.007787308061918521,0.007120478486235211,0.007092717110072133,0.006948441847470853,0.006583158019564179,0.007051624464172978,0.0069835382635856135,0.006376403498057209,0.006666013790892036,0.0070781883477469285,0.007433377106279445,0.007647576606126597,0.007806925318959728,0.00774792159388646,0.0073582854577718465,0.007280927417084332,0.007006022676509756,0.006200953093324789,0.006053034439748013,0.005874587380476231,0.006752321563690592,0.006753955716712594,0.006461833705246169,0.005388074605937954,0.004900447223957115,0.003945410742494838,0.0034701212649546624,0.0033663676829423276,0.003953866074093993,0.003731374971396674,0.003426988736085961,0.002673600008190983,0.0020184178966703046,0.0014403072178929015
20230206011734_0506,543428,TK-0506,2023-06-02 01:17:00,37.043,37.288,8.6,7.83,80.96893034637156,-1.0,37.334600782057684,1.6088008578412403,38.354447044592916,344.90133247073413,401.2687663031687,401.6678140086246,357.6889453276072,357.59014043425327,-306.51605602563825,3.4736482452647692,0.0,-306.51605602563825,345.7623770985405,35.80388,40.64382,284,True,0.025534226,150.0,4,CRETACEOUS,False,470.43529919900516,1.8711879032096579,0.0,40.0,0.0035165722044081505,4.065169457441681,0.003517161862207259,0.0035180317311055104,0.003518274086814373,0.003518681331249171,0.003519303445725949,0.0035194737919409676,0.0035198310933051927,0.003520411006239008,0.0035206155565318856,0.0035214904305243587,0.0035219622188700475,0.003522456982919309,0.0035227130734448637,0.0035229753885805608,0.0035235193965698222,0.003524083497846213,0.0035255862452017238,0.003527194413471588,0.003528968423100505,0.0035297891273864505,0.0035310760598991396,0.003533166453187071,0.0035353573403935075,0.003537486864487945,0.003539970475320784,0.0035407829028366194,0.003544084380365979,0.0035366282760819403,0.003554085885626131,0.003561110173540715,0.003564908544394865,0.0036079646204281272,0.0036215285698084636,0.003632968301697034,0.0037416408803063726,0.003867433817781109,0.003859055721284523,0.0038440555032257582,0.003807515647294276,0.0040771137940461555,0.004238879959984588,0.004175403448087441,0.0040329481025014585,0.004113844187037268,0.0040744937567676375,0.0044344783217489,0.004630320725448446,0.005015389928618784,0.005687242060935874,0.006382850825629405,0.006926190485722822,0.007022447419951121,0.0076551366882520785,0.007750356893561903,0.008007769003677471,0.008282101716620324,0.008955505448483971,0.010395587308016827,0.010696824496053567,0.008864807806226005,0.009223324972393754,0.009612753718269914,0.009118944813259072,0.00827922604211292,0.006431129986766095,0.00592538218778843,0.005540728020675368,0.005452234048560611,0.006089701163000648,0.0062452500289087425,0.00576810010801258,0.00538684648249894,0.005804065793299432,0.0056133188338177605,0.005089090373287046,0.005505677608105918,0.005884262673589553,0.005827347122293498,0.006783993461698648,0.00707888263539121,0.007017729458682663,0.006716120185537575,0.005963445215832675,0.005086903483178568,0.005299453690585088,0.005310497372718108,0.004797995591085345,0.004503978120232962,0.004089592142241538,0.003978236835746226,0.004375551006299955,0.004889108259678424,0.005248834298945989,0.005273867946991208,0.005215994654068489,0.005026988002347384,0.004621717460488643,0.004148121192533732,0.0039595952321484695,0.004167364264541037,0.004801516973942024,0.005713533426829007,0.00620458895371723,0.006140915312497384,0.00573392599322312,0.005067065500281551,0.004561503003990302,0.003952840715804546,0.0033499348681841393,0.003045724661522699,0.0023697136172001997
