gmid,event_id,station_id,event_time,event_longitude,event_latitude,event_depth,magnitude,dip,rake,rupture_width,depth_top_of_rupture,depth_bottom_of_rupture,azimuth,repi,rhypo,rjb,rrup,rx,ry0,rvolc,gc2t,gc2u,station_longitude,station_latitude,vs30,vs30measured,slope,xvf,region,geology,backarc,z1,z2pt5,fpeak,longest_period,PGA,PGV,SA(0.010),SA(0.020),SA(0.022),SA(0.025),SA(0.029),SA(0.030),SA(0.032),SA(0.035),SA(0.036),SA(0.040),SA(0.042),SA(0.044),SA(0.045),SA(0.046),SA(0.048),SA(0.050),SA(0.055),SA(0.060),SA(0.065),SA(0.067),SA(0.070),SA(0.075),SA(0.080),SA(0.085),SA(0.090),SA(0.095),SA(0.100),SA(0.110),SA(0.120),SA(0.130),SA(0.133),SA(0.140),SA(0.150),SA(0.160),SA(0.170),SA(0.180),SA(0.190),SA(0.200),SA(0.220),SA(0.240),SA(0.250),SA(0.260),SA(0.280),SA(0.290),SA(0.300),SA(0.320),SA(0.340),SA(0.350),SA(0.360),SA(0.380),SA(0.400),SA(0.420),SA(0.440),SA(0.450),SA(0.460),SA(0.480),SA(0.500),SA(0.550),SA(0.600),SA(0.650),SA(0.667),SA(0.700),SA(0.750),SA(0.800),SA(0.850),SA(0.900),SA(0.950),SA(1.000),SA(1.100),SA(1.200),SA(1.300),SA(1.400),SA(1.500),SA(1.600),SA(1.700),SA(1.800),SA(1.900),SA(2.000),SA(2.200),SA(2.400),SA(2.500),SA(2.600),SA(2.800),SA(3.000),SA(3.200),SA(3.400),SA(3.500),SA(3.600),SA(3.800),SA(4.000),SA(4.200),SA(4.400),SA(4.600),SA(4.800),SA(5.000),SA(5.500),SA(6.000),SA(6.500),SA(7.000),SA(7.500),SA(8.000),SA(8.500),SA(9.000),SA(9.500),SA(10.000),SA(11.000),SA(12.000),SA(13.000),SA(14.000),SA(15.000),SA(20.000)
20230206011734_0604,543428,TK-0604,2023-06-02 01:17:00,37.043,37.288,8.6,7.83,80.96893034637156,-1.0,37.334600782057684,1.6088008578412403,38.354447044592916,304.04274512935734,367.04817349810133,367.48438289033766,339.2368716057769,339.25932152373866,-325.0293994601139,0.0,0.0,-325.0293994601139,110.39225465286657,33.52402,38.96246,291,True,0.074973814,-150.0,4,CENOZOIC,True,465.51510114524814,1.8197846726450195,0.0,32.0,0.004914465157968261,2.49108261556338,0.004915916253299601,0.004917279084095798,0.004917660138776732,0.004918309610898181,0.004919443449542589,0.004919797033964502,0.004920059328525306,0.004920655766371591,0.004920906270559073,0.0049224588146004125,0.004923747749523622,0.004924966650176628,0.004925565144397618,0.004926478439306045,0.004929141086155828,0.004930735445473683,0.004928475883724537,0.004938066847429609,0.004939015855000068,0.004932680079437323,0.00492995531914022,0.004950550226745921,0.004958041922204922,0.0049535613171841466,0.004946881414521022,0.004957469632621439,0.004975172606889059,0.004970238452668981,0.00502782922542992,0.004973572218761941,0.004997380394777334,0.005085694856603213,0.00513645799111832,0.005056329966019628,0.005196437711109726,0.0052931066823646315,0.005504407813805636,0.00565342599479165,0.005622980976293224,0.005684777026981962,0.00544902147021577,0.005360879253412481,0.005499876377416604,0.005693609640803796,0.0058034128989839055,0.00576583167595786,0.006225883040113744,0.0065304649245154014,0.0068713107911641215,0.007217403433234324,0.006929196959774707,0.006482751226774475,0.006866396873947746,0.0072228977202974535,0.007490934441679341,0.007881565617471118,0.0076670867032502974,0.007900772723416402,0.008325814070163386,0.00874643808440935,0.009397091667943322,0.009261108443793612,0.009334502331783207,0.01067661467949194,0.01185861443220127,0.01434487087493086,0.012534977170666145,0.012636450343254365,0.016232966081408992,0.018670830640523637,0.015916911274740115,0.014823225145828945,0.011533929330326823,0.01113887648307616,0.01039698771972016,0.0085362959975934,0.008269422949347939,0.008431792401416524,0.008767043025682535,0.009124168951657631,0.009986508187483648,0.01030184596940656,0.009058777693507998,0.008341705786954283,0.007927060574139933,0.00731801295476502,0.007486221332592454,0.007905655190146774,0.0071809429476399934,0.0059344190798002,0.005003192034123709,0.004875229280430019,0.005088830973199576,0.005257754731737528,0.0056283986098923525,0.0050991219513412634,0.003860161033780821,0.004390737685099464,0.004187409862196397,0.004274978361904379,0.004474014284592443,0.003590535329539372,0.002865602205763,0.0026954309578855664,0.0028152145640308137,0.0026545741185058673,0.002433758754201113,0.0023750137110566836,0.002235331128732648,0.002002544802450947,0.0010730545436031297
20230206011734_0633,543428,TK-0633,2023-06-02 01:17:00,37.043,37.288,8.6,7.83,80.96893034637156,-1.0,37.334600782057684,1.6088008578412403,38.354447044592916,313.8780577759319,451.6997277547117,452.0542600769079,422.7439778934056,422.8378908469545,-407.55583603876767,0.0,0.0,-407.55583603876767,167.72071436610474,33.224367,39.921437,473,True,0.019706644,-150.0,4,PALEOZOIC,True,262.46513312843433,1.0439325452726735,0.0,40.0,0.00264080415405137,3.270762747841136,0.0026413175111019245,0.0026417836892492835,0.00264191578232662,0.0026421377754216073,0.00264249226710204,0.0026425925812749627,0.002642809134492682,0.0026431597236712466,0.0026432876493421684,0.0026437171838849995,0.002643957391040454,0.0026443675356362132,0.0026446106483947822,0.0026448176677634203,0.002645080539496139,0.0026449994017368494,0.002644890864985398,0.0026465884688284384,0.002647254917219546,0.002648103197376953,0.002649863743198606,0.002650761281439964,0.0026570586871641315,0.0026609946760654648,0.0026623677129502536,0.0026600992944364357,0.0026569958414028394,0.002654952770110331,0.002665106289776117,0.0026754128885809027,0.0026768345420327307,0.0026801188397858927,0.0026945707096673105,0.0026987823936776996,0.002704216425404,0.0027181252668342015,0.0027276664456920654,0.0027375372150433173,0.002738906210027426,0.0027951405389790786,0.0028123781880301946,0.002810069887108416,0.002786684319330349,0.0027969443895951894,0.0027747771104387827,0.0028207396439675,0.0028900072607561385,0.0029086792967335197,0.002906109106136432,0.0029586231395891073,0.0031182585006899535,0.0032680032327934115,0.0033026672158666883,0.0032718400812093095,0.0032123484219556088,0.0032064349586092243,0.003213751708104929,0.003570397552763311,0.0031349911415188684,0.0036958113438836913,0.0037147527454801164,0.0038416791844191975,0.00422590186882879,0.004314634400452644,0.004590576276444226,0.00468774088913217,0.004752951969858763,0.004699158097355815,0.005167455488724584,0.004704215397753996,0.004143565697694269,0.004662308970512269,0.004969257126840009,0.004645036554757226,0.005516081903530861,0.005845129137877452,0.005273963662951449,0.004696468452059351,0.004796705404129505,0.004734242413972025,0.004747685822291749,0.004264946995394626,0.003466236759254402,0.00402808230590998,0.003832286307559211,0.0035648027471366726,0.003458379696836106,0.0030800994259964636,0.002972098213253678,0.0030175156100810587,0.003255461263055705,0.00365212177699689,0.0036611663806451603,0.0037279361418547127,0.0034307104139838828,0.003824481441995303,0.0039036825243032596,0.004259436089465991,0.004621021826350049,0.0051805452439289135,0.005928973964245577,0.0064164743871559385,0.006407201923142473,0.006053077230721324,0.00566276678681016,0.005185835277126565,0.005276850001561116,0.005280890192414295,0.004934168124876009,0.004225453411509364,0.0020216187121197974
20230206011734_0634,543428,TK-0634,2023-06-02 01:17:00,37.043,37.288,8.6,7.83,80.96893034637156,-1.0,37.334600782057684,1.6088008578412403,38.354447044592916,317.18905482724324,453.87031065566094,454.2231487877585,424.7505000921043,424.8697389321896,-408.0342002282254,0.0,0.0,-408.0342002282254,190.8031595043935,33.415955,40.106133,373,True,0.029432913,-58.60231938773481,4,CENOZOIC,True,387.9234058545854,1.3698678672521256,0.0,20.0,0.005812726379655586,2.8224461846414113,0.005812954474096668,0.00581350502294198,0.005813660371334809,0.005813919321681536,0.005814459193066061,0.005814661714403818,0.0058150360793236796,0.005815470236344132,0.005815637616342705,0.005816137457141691,0.005816002188565298,0.005816920287383498,0.005817117206586963,0.005816973224879969,0.005815986139071043,0.005816157332745481,0.005818962365414402,0.005817919346069089,0.005821296269589651,0.0058229032612238845,0.0058242909454014466,0.005823360201364871,0.005824839000497548,0.005823868527464694,0.0058265288453946285,0.00582945537208323,0.005833536818188964,0.005837542743821246,0.005831822175169381,0.00585359277710349,0.005858390574659608,0.005861168679446073,0.00584041659116258,0.005859879578381157,0.00587646205962131,0.005876960886210526,0.005881974562310985,0.005924596856344536,0.006050500402792865,0.0061948214253929245,0.006284775133935182,0.00640093001391266,0.0063273377313019215,0.006282012585762819,0.006271052111158407,0.00639975494190849,0.006519818780466702,0.006546965166343179,0.006386494519168563,0.00640914051169041,0.0067106801567597685,0.006677040137871991,0.006477096693770818,0.006578212042986907,0.0066309527117413974,0.007038844843279044,0.007069147962101726,0.007748108686784174,0.008744175955528748,0.00919598634343337,0.009004018800030563,0.009130922415099996,0.008643926425087656,0.010832413998069739,0.011123937748202665,0.01235453271225154,0.01394695361724528,0.014365593062313334,0.012045322318191144,0.015583379503007335,0.012492728930005803,0.014233019946761053,0.01678145578132449,0.017811851231629795,0.01766386499268342,0.014358313623242759,0.01622000442840461,0.019870014357748142,0.023435653385334956,0.020147138496916225,0.015486288011770544,0.014405688574407164,0.016421903386524963,0.015489457723757953,0.014058323359627983,0.012736363475736374,0.012481155683485796,0.011097198959431615,0.008692060454598673,0.007073496853298033,0.00628643310511425,0.005666416117446322,0.0050987769591165615,0.004847291123886238,0.00465203773496813,0.0035774773046065643,0.004290476325076189,0.004599704060955654,0.00454307372918261,0.005122209742251819,0.005380299923868025,0.004745873635852562,0.004125697509287599,0.003905134503326392,0.0039057335479759977,0.003975808402520037,0.0036309434923578834,0.0031579763619525034,0.0028987124457761485,0.0027512886862649764,0.0012866312246210823
20230206011734_0713,543428,TK-0713,2023-06-02 01:17:00,37.043,37.288,8.6,7.83,80.96893034637156,-1.0,37.334600782057684,1.6088008578412403,38.354447044592916,262.72927454439116,453.48740782314917,453.84054364298396,368.68062303524795,368.64547142988323,-283.0051977015579,159.4127769243909,0.0,-283.0051977015579,-159.4127769243909,32.00434,36.54286,540,True,0.02261735,6.775987500398426,4,PLEISTOCENE,False,182.9606614252889,0.8971294655200442,0.0,40.0,0.0037776574550513445,2.0662978976706268,0.003786382496637492,0.0037948404342634107,0.0037972946195242493,0.0038015969135735375,0.0038087645956795045,0.0038109918658231993,0.00381586842665394,0.003827002633375986,0.003832438647240916,0.003877293710555018,0.003858801504422972,0.003840029766769792,0.0038388127927707636,0.0038382946492976967,0.003844078854684717,0.003852217624913324,0.0038784325518520226,0.003887643170001065,0.003916852012239654,0.003897422850070484,0.003882781384098733,0.0039040144916245483,0.00393756289866903,0.003905975957721965,0.003908176973662561,0.003999510748012675,0.0041672181108108955,0.004431335780647807,0.004826005551558028,0.005290919278742399,0.005506070097032162,0.006325354099349809,0.007526821522431778,0.00802466894741072,0.008774949598259906,0.010185784289172243,0.010562414562752769,0.010466381334760822,0.009261214868948736,0.008387204018534137,0.007852759679214567,0.008553776464641987,0.007360584374754913,0.006851088561459865,0.006544133223009363,0.00783335387591405,0.00935156314761312,0.009318539057231831,0.00952381643665933,0.008905702536725109,0.008202007611409035,0.008361470234850734,0.008325719628042022,0.008683794780116038,0.008895822861658412,0.009868862228742344,0.010897106106432984,0.011089442569211974,0.011435766833589999,0.01215875335134396,0.011515049449814975,0.011057131145349331,0.008232461311666195,0.007931760824178452,0.009400165183211497,0.009962288965746784,0.009114439073573238,0.00930401221682727,0.006921241643578815,0.005897329936607181,0.005915835812950379,0.006111351438729054,0.006312731361034798,0.007005907128810469,0.005930695261226795,0.004676146673620556,0.00486803443678005,0.005260095028116218,0.005321126096487641,0.006037794381560741,0.00653132124306383,0.006034197497734755,0.005161232784215505,0.005334358410759728,0.005737240933278371,0.005412019487368892,0.004776458301494029,0.0043829705388219965,0.003931731075232845,0.003895765843044419,0.00422508893178615,0.0041898980599916905,0.004026672140662453,0.0038147835990636663,0.003579575725611007,0.00418509461420704,0.004298001554109014,0.0037003996515513884,0.0028716557830705176,0.002272472597459854,0.002164791501460098,0.002334610048602189,0.0025841958003176733,0.00275470672992486,0.0025471404180450355,0.00203800162973102,0.0019029418174696864,0.001919369460543593,0.0014637986898708175,0.0016119438761952405,0.0012999422363419362
20230206011734_0714,543428,TK-0714,2023-06-02 01:17:00,37.043,37.288,8.6,7.83,80.96893034637156,-1.0,37.334600782057684,1.6088008578412403,38.354447044592916,262.93880639051866,454.7927529197593,455.14487595526464,370.41343599074315,370.37809789936335,-284.8896658871597,159.2728095810719,0.0,-284.8896658871597,-159.2728095810719,31.98667,36.55547,607,True,0.08737379,6.50168182062876,4,PLEISTOCENE,False,120.17226645165447,0.7847760119806129,0.0,40.0,0.0025373548974296045,1.9486599254902035,0.0025384517565652685,0.0025411821527794153,0.002541969175274532,0.002543313560562222,0.0025456392129435137,0.0025463404705434165,0.0025485434425913315,0.0025525982606207347,0.0025520396539330664,0.0025542786411294057,0.002558610443920335,0.00256174042162674,0.0025629748203819308,0.002564716488024811,0.002567794665823837,0.0025673159158753674,0.002578924055865886,0.0025904913305010123,0.0025821858445740256,0.002566810019345675,0.002554571381195297,0.002615831494250557,0.002599578533195354,0.002630473113086894,0.0026930478601487912,0.002709546187517453,0.0026365759386385123,0.002860885154571274,0.003002295033690392,0.0030397485711837705,0.0030978914902663256,0.003079673854169946,0.0032534717060363353,0.003491104230079259,0.0033213002200293516,0.0033086808862716854,0.0031585573594617874,0.0032705612065801184,0.003453123960113968,0.003894523238009031,0.0039704500221389525,0.0036291971714422955,0.0038752773131951,0.004075583224929846,0.004198226539010622,0.005579566214832908,0.005937559795668536,0.00594145093233316,0.006006251011496901,0.0065497196953486925,0.006026216357948763,0.005812293271713215,0.005355579856825423,0.005419427376450304,0.005424158953832212,0.005246334655583034,0.005241480493353454,0.005202570942896193,0.006052456633770361,0.006370131245273702,0.005760041054831123,0.005486727150856625,0.005976749035328052,0.005282412379518289,0.004768824634560445,0.004678915418038365,0.004410020940285591,0.004892189225784334,0.005762704468404363,0.005244044487319303,0.00424603413082143,0.004268307773531062,0.004864990912976989,0.005228939042478934,0.0046993278189175975,0.004485648690980453,0.0050821991171215684,0.005774243537170603,0.005303053277072048,0.005045773200583567,0.005074695747791497,0.00463455126017673,0.004394190100945879,0.004674313788729348,0.004772123011146656,0.004778203492432264,0.004725625596655354,0.004701747968817039,0.004006049858941319,0.0036867239051877197,0.00396326700194251,0.0042851885450832395,0.00402805329321658,0.003663324213764806,0.0035075742222659316,0.00397799990469083,0.004396014602316658,0.0036397934049556893,0.002884660848188835,0.0021591997657423715,0.002014016518731465,0.0022907110586164944,0.0025092190690296904,0.002743563339361609,0.0024573084228572514,0.001948640072779343,0.0019255357872025457,0.0020025665903816085,0.0016399693657285492,0.001531797520542782,0.0010315379843352172
20230206011734_0718,543428,TK-0718,2023-06-02 01:17:00,37.043,37.288,8.6,7.83,80.96893034637156,-1.0,37.334600782057684,1.6088008578412403,38.354447044592916,258.0789712441394,432.78808042511065,433.1580918764557,338.36346857675727,338.3315973003077,-246.72227083899625,166.4593689469687,0.0,-246.72227083899625,-166.4593689469687,32.316976,36.26776,344,True,0.009764403,16.306182360438058,4,PALEOZOIC,False,419.3183608254582,1.5027637968527092,0.0,32.0,0.0036676446537689503,2.314320745859509,0.0036771030700696906,0.003688863832089405,0.003693292667205173,0.0036956105000023687,0.003698328504056277,0.003706332832541284,0.0037208010620821646,0.003729585047445232,0.0037274418085551076,0.0037120791498126927,0.00374319741048451,0.0037460408466948626,0.00373426176184427,0.003717733175637214,0.0037385845201324806,0.003819536316732603,0.0038109185786638355,0.003785446469435931,0.003769071642020932,0.003778866411935847,0.003792630061087176,0.003921380860814253,0.003933878265414187,0.004038537295439077,0.003979251893964155,0.004019823574348698,0.004099188051484421,0.004505746586988041,0.0044242676974665185,0.005263325641193036,0.005340304827308118,0.005561973695531979,0.005591717176040745,0.005336305287337047,0.0052024494233513865,0.005366688596342731,0.005865717462804947,0.005892674269739978,0.006075705283859749,0.00587020397661119,0.00627666309657306,0.006674333002193677,0.007180813775461525,0.007326314014166798,0.007236576894331624,0.007689857892596076,0.007510590512633205,0.007215982853404905,0.006835719045031896,0.0076113369326076185,0.008410571069120345,0.009185797299959839,0.009836567841245999,0.010657604549606016,0.011185851972296566,0.01070441501983639,0.0100773465182025,0.009723793429719494,0.010694570546893434,0.01044307597587408,0.00958919193152782,0.008533465849713581,0.00934458506114594,0.00876319662029073,0.009142335956709846,0.00887528009293913,0.009194672062650532,0.008167532438988385,0.006415561162116734,0.006900991623346667,0.0067884773104835245,0.007289346469409262,0.006886611572270887,0.006661733912005113,0.006228134851913141,0.004973411402337354,0.004911704964634387,0.004286226784454047,0.004383164326183803,0.0043273952511275636,0.004268226278139564,0.004521354623408145,0.004150347909349764,0.00428103630060477,0.003606327798282606,0.003489976320155631,0.003473440202360745,0.0032330851951248582,0.0029593507602081203,0.003131461109911067,0.0035782175835229945,0.0036549649970822385,0.003826460512689813,0.00440922485046239,0.004880393024002493,0.00439965014771723,0.0035015948954312368,0.0032479083279155544,0.0032568780322655044,0.0030236226606928872,0.0029182164211433354,0.002962515234594442,0.002682663354982567,0.002625377795576707,0.0024357344473366627,0.002243524085671051,0.0019388914789060436,0.001618429690785351,0.0017617650692529105,0.0018914676338532786,0.0016644140096763358
