gmid,event_id,station_id,event_time,event_longitude,event_latitude,event_depth,magnitude,dip,rake,rupture_width,depth_top_of_rupture,depth_bottom_of_rupture,azimuth,repi,rhypo,rjb,rrup,rx,ry0,rvolc,gc2t,gc2u,station_longitude,station_latitude,vs30,vs30measured,slope,xvf,region,geology,backarc,z1,z2pt5,fpeak,longest_period,PGA,PGV,SA(0.010),SA(0.020),SA(0.022),SA(0.025),SA(0.029),SA(0.030),SA(0.032),SA(0.035),SA(0.036),SA(0.040),SA(0.042),SA(0.044),SA(0.045),SA(0.046),SA(0.048),SA(0.050),SA(0.055),SA(0.060),SA(0.065),SA(0.067),SA(0.070),SA(0.075),SA(0.080),SA(0.085),SA(0.090),SA(0.095),SA(0.100),SA(0.110),SA(0.120),SA(0.130),SA(0.133),SA(0.140),SA(0.150),SA(0.160),SA(0.170),SA(0.180),SA(0.190),SA(0.200),SA(0.220),SA(0.240),SA(0.250),SA(0.260),SA(0.280),SA(0.290),SA(0.300),SA(0.320),SA(0.340),SA(0.350),SA(0.360),SA(0.380),SA(0.400),SA(0.420),SA(0.440),SA(0.450),SA(0.460),SA(0.480),SA(0.500),SA(0.550),SA(0.600),SA(0.650),SA(0.667),SA(0.700),SA(0.750),SA(0.800),SA(0.850),SA(0.900),SA(0.950),SA(1.000),SA(1.100),SA(1.200),SA(1.300),SA(1.400),SA(1.500),SA(1.600),SA(1.700),SA(1.800),SA(1.900),SA(2.000),SA(2.200),SA(2.400),SA(2.500),SA(2.600),SA(2.800),SA(3.000),SA(3.200),SA(3.400),SA(3.500),SA(3.600),SA(3.800),SA(4.000),SA(4.200),SA(4.400),SA(4.600),SA(4.800),SA(5.000),SA(5.500),SA(6.000),SA(6.500),SA(7.000),SA(7.500),SA(8.000),SA(8.500),SA(9.000),SA(9.500),SA(10.000),SA(11.000),SA(12.000),SA(13.000),SA(14.000),SA(15.000),SA(20.000)
20230206011734_0125,543428,TK-0125,2023-06-02 01:17:00,37.043,37.288,8.6,7.83,80.96893034637156,-1.0,37.334600782057684,1.6088008578412403,38.354447044592916,261.74981815000103,111.80237067861282,113.22623410392991,66.5863945516101,66.60056861438079,-59.170848739466706,0.0,0.0,-59.170848739466706,77.30226866320098,35.79577,37.01519,216,True,0.0012732961,45.070713066568096,4,PLEISTOCENE,False,504.5151850373346,2.5591661981973943,0.0,26.7,0.10543957698153479,29.70047034459275,0.10548547530469381,0.10557059131905784,0.1056074347808917,0.10563904378705279,0.10579096521744244,0.10577831257091515,0.10580311333903639,0.10584098110521042,0.10582216361107054,0.10662571040629379,0.10681392978559065,0.10702642800377374,0.1071186777729896,0.10720621073041546,0.10712951356403853,0.10724160425607208,0.10738311553888297,0.10801025323798072,0.10937979745529224,0.10967293724070361,0.1097911264616085,0.11061505083766064,0.11052537453025618,0.11103935522295101,0.11150149054820241,0.11214372203133888,0.11098107173206175,0.1232950309943914,0.1298098270400218,0.13143273678210768,0.1300210660298314,0.13713552791886455,0.1484503860622295,0.14961054821269912,0.14907400303331925,0.1474183161846129,0.15145533762039176,0.15460350582503077,0.15383279746437933,0.18832923841520796,0.19215603618771607,0.19461386091374341,0.1866042036464965,0.170853167480779,0.1797926927566518,0.21526364309647897,0.22262508335280387,0.22071604864660277,0.2260608739708175,0.26141409338230165,0.2806594249313141,0.2998015849198046,0.31233160882265726,0.3109540408498162,0.3059807213034735,0.29073823442179464,0.29199807804554134,0.28926972780242793,0.3715637141350877,0.4050148261859344,0.40614237513844986,0.4031917422477459,0.3733382651176147,0.31057652161197963,0.28241893313954725,0.27889788114661296,0.33543480066187,0.36026127074343045,0.29283418627922053,0.1695728291723843,0.12158239770663772,0.10725468170147455,0.09424537418324024,0.09195413941034243,0.101827039107304,0.11021673700832584,0.10662060433673036,0.10624408633488293,0.13361646224740184,0.14488001656525604,0.13613394120758887,0.11688218541911526,0.11456470100872407,0.12422964510768672,0.0898280948923181,0.0711941681820812,0.06381381693369585,0.05880509459299685,0.05514464787208646,0.051362380931265016,0.055948668714103825,0.05300428388480373,0.04857154862351933,0.04095576289016934,0.03739335353403586,0.03804181220487155,0.02389444491420612,0.018287494892063057,0.015336205273237827,0.014952790208745636,0.0166529639354158,0.018637057800344012,0.01987781508507888,0.020471834020330013,0.020509910547076134,0.020368142869207916,0.019647877794946287,0.016989961416277826,0.01671755877234664,0.015262683877902961,0.0073312539815386865
20230206011734_0127,543428,TK-0127,2023-06-02 01:17:00,37.043,37.288,8.6,7.83,80.96893034637156,-1.0,37.334600782057684,1.6088008578412403,38.354447044592916,306.4931113889774,122.54801999550429,123.84840412705574,94.61242486250588,94.66332579534307,-93.83722132591673,0.0,0.0,-93.83722132591673,144.42483239623374,35.92044,37.816183,583,True,0.10987928,1.6253261945686117,4,PALEOZOIC,False,140.46128729097092,0.8218428015662476,0.0,40.0,0.05396515170447128,6.0793586832632895,0.054282346661367595,0.05475400719495977,0.05489267106484652,0.05513703090491758,0.05535681352860119,0.05567421294135062,0.05636679589331383,0.057129965014930735,0.05707486200071774,0.05732751812224351,0.058270349711573015,0.05922484800904429,0.059949994955345094,0.06046487526407779,0.0613651978540855,0.06452798511089945,0.07033910475799711,0.07637165970546274,0.08203993325677934,0.08667903408515167,0.09308559411322895,0.09126843559282512,0.08845388016537543,0.08699116375540739,0.08699184941110852,0.09146300310633931,0.09260623021975833,0.08886801327789134,0.10090485340087899,0.12348065710731215,0.12693536178800313,0.13071860066814855,0.12110908493760193,0.14350961389526,0.14866417317289418,0.14598813672839264,0.14833534255492103,0.16426695378176656,0.16860124985857897,0.19554016056508025,0.2118666262637413,0.21056249896554358,0.18657307407385837,0.16951521461449529,0.15323864196053125,0.13971046513778818,0.15964074933261946,0.17662765735642383,0.19677040834470083,0.23410874633434384,0.1973214563690014,0.19893818580714503,0.18975872884294173,0.17479327583515386,0.17581839135004645,0.17279675904753408,0.16271828417323675,0.12347762866974299,0.10404581571106788,0.10818938976424,0.10726724690051215,0.11058133542323004,0.09100990110315232,0.06947983059999827,0.06077142253856042,0.048984857822052176,0.04629532535965644,0.04753550618366726,0.03918916546693028,0.03296096513577071,0.029243076782565654,0.026478230063770352,0.027184629930681978,0.02375232860818251,0.025778800952180738,0.022641278086766588,0.018561432729133798,0.015958154472442934,0.014549954230606765,0.012741646045353676,0.013664968288455459,0.012246947624416185,0.011530172676022875,0.013035283823220781,0.013798858052153896,0.013511113628174545,0.013087754188945512,0.012944512452862107,0.010935197251884717,0.011695062915728194,0.011767944249824566,0.011006394167132116,0.010025203461753429,0.010603823630349613,0.010992608681691461,0.009710591926139751,0.010011077721451371,0.01216439970350086,0.010731017770011632,0.008355483399954908,0.0068072756277252015,0.005993569689186239,0.0051103465493298125,0.004207379725257288,0.003693645891220229,0.0027695674820951495,0.0026523330462819303,0.00281512868309014,0.0028922620671502615,0.002955891651669136,0.0017288532002650435
20230206011734_0128,543428,TK-0128,2023-06-02 01:17:00,37.043,37.288,8.6,7.83,80.96893034637156,-1.0,37.334600782057684,1.6088008578412403,38.354447044592916,273.6588716110855,175.52722839193552,176.43757509939513,136.5506041426482,136.540518817017,-120.49982960936283,0.0,0.0,-120.49982960936283,59.956747758746836,35.062788,37.250287,494,True,0.04657889,-22.576687506050064,4,CENOZOIC,True,236.20408840145691,0.9933217675118953,0.0,32.0,0.013131745640355665,4.360109877645712,0.013207343316122921,0.013272457489000359,0.01329366691171283,0.013335795024423037,0.013391291363532298,0.013401679713290838,0.013464333600216215,0.013438956380204014,0.013415789894725659,0.013509552537586858,0.013475693339013049,0.013476879267813073,0.013525849457877074,0.013703701805829877,0.01396932660822196,0.014131069374513262,0.014302952114511366,0.01427248042279625,0.015014004707423105,0.015219115749715554,0.015302355775648051,0.015589921381335635,0.015736344435520716,0.015890018037679154,0.015860059469873265,0.018090509296525645,0.019772360264705365,0.017874037835563017,0.018645656406584547,0.01993330661621919,0.020959843010530294,0.021346613491444063,0.018001211388776032,0.019378261043739384,0.022153752149380854,0.026285354221800197,0.027008831552368526,0.02503780627990114,0.027275791899094695,0.028393506832454177,0.02748936544938226,0.027436352605650853,0.025480687423754273,0.025768007449746826,0.028877880367822285,0.03253552520616151,0.034639013359016015,0.03662752782078252,0.03641272265398102,0.03583158180691609,0.034793922625842924,0.029699439276910936,0.028942322329949113,0.027860517123965475,0.02718390895656866,0.024718296042403637,0.02499208569748413,0.023287609782757835,0.027897435306065557,0.03192291432794158,0.03249211159193475,0.030982726569554444,0.029548628824711706,0.030633460078337137,0.031876879473177265,0.030766307761916616,0.02391045004866883,0.023361814856406326,0.021094886849231026,0.018457815771677263,0.018491602225293856,0.015904927264045958,0.013945261166534884,0.013883474542840094,0.014007144988021194,0.013167502105616428,0.0119526589982629,0.01079032882439364,0.010435848030038783,0.010186111455607544,0.010119120352837584,0.009092699858442625,0.008682908103831344,0.009750730544931925,0.010397404477626706,0.009217003523973479,0.008752162168708957,0.008219349025338033,0.007982594305564856,0.00773053615046645,0.008349059386841856,0.00912272331638412,0.009133984067216248,0.008509689891198043,0.007730336079167296,0.0071175438367332465,0.00861840642789792,0.007448597791377883,0.006041883744866321,0.005217409852963292,0.005434062645851365,0.005659893852559031,0.005720310925878846,0.0055164449471751835,0.004780508297229047,0.003476456696174491,0.003136664372019765,0.003089734820504953,0.002832447919130526,0.0025393096946616407,0.001745411083821748
20230206011734_0129,543428,TK-0129,2023-06-02 01:17:00,37.043,37.288,8.6,7.83,80.96893034637156,-1.0,37.334600782057684,1.6088008578412403,38.354447044592916,329.22853725350836,141.84858063109064,142.97352841367183,112.77886089956854,112.77367625451959,-106.41432960273858,0.0,0.0,-106.41432960273858,188.69922761853454,36.210863,38.259195,965,True,0.053165074,-5.876756308347981,4,CRETACEOUS,True,9.986690088617289,0.46175790152020907,0.0,40.0,0.04674922181469976,9.951675900284323,0.04709815834272028,0.04784857440562431,0.04807973039926692,0.04859739869627664,0.04926160866490802,0.04964626626166769,0.0506091430081274,0.05174981862021076,0.051583940942096534,0.05338864302436432,0.05328656804924177,0.05674175582807493,0.05815110450489444,0.05900468862070814,0.061173200007000494,0.06426568474357407,0.07266019584065657,0.07403022989706219,0.07721245839651647,0.08094363555811752,0.08741138017605196,0.09625519142687007,0.10113965928865463,0.10319174098471465,0.11167701981715276,0.1238950514524152,0.11483468878653784,0.10643687095023034,0.10231517910110471,0.1050024961221065,0.11036792765228205,0.11240350357327783,0.13899432599070596,0.13871087150887007,0.14215362933146597,0.1287275059449796,0.11398532854703289,0.1276064440327373,0.1358502797064624,0.11330765766727154,0.11587224311600067,0.11797421769700042,0.11345812249902888,0.10681115662434464,0.09887279717127535,0.10424078579257755,0.10847193313490859,0.10582395447933185,0.09612094159490356,0.08725900096355707,0.08346238053450619,0.07881447138593733,0.07968422176744282,0.0795286569254105,0.07519345682007073,0.06938171984468407,0.06682179696651977,0.06439955525988826,0.0643167890770415,0.057491834070690584,0.054240561611964916,0.05702870608692702,0.049741854318102886,0.047119459701847576,0.04097239377340521,0.03969215868314769,0.03600065692350079,0.043724024291005505,0.04225604158116328,0.04300461850730173,0.04221234897329134,0.045907117858237576,0.04512467966456114,0.04619722344723431,0.04002718683560516,0.031160169654499824,0.029373759970075144,0.027303040145224777,0.018993485271142738,0.01863388101304321,0.017779415857620245,0.01571604397094021,0.015232692627499192,0.013655002542659977,0.013635158060756061,0.01484167487942274,0.01604749347613933,0.017001830943689584,0.017176929410787852,0.016492377716629498,0.014979675393290457,0.01490641187860611,0.014543518369293606,0.013399947302530612,0.013069961930211984,0.011652490316152687,0.011324733811560829,0.01176534304744934,0.013532569922840191,0.014399007889065443,0.014218102222430602,0.013804232006079917,0.012686422104056481,0.011344887322671401,0.010075526038728182,0.00957289064474986,0.009540183305440767,0.009542223182970344,0.008802839153000813,0.007936326658148609,0.003703090761490992
20230206011734_0130,543428,TK-0130,2023-06-02 01:17:00,37.043,37.288,8.6,7.83,80.96893034637156,-1.0,37.334600782057684,1.6088008578412403,38.354447044592916,274.91052066000464,121.78538446256917,123.09382546941899,87.64554327266046,87.65012198700049,-79.0446910127551,0.0,0.0,-79.0446910127551,90.6965330691591,35.67104,37.25186,265,False,0.006101241,20.373945542191336,4,PLEISTOCENE,False,482.39934802157745,2.0254442902214342,0.0,32.0,0.07589647499931207,15.79288669858374,0.07598027893751204,0.07617891843478594,0.0762336267193696,0.07631970375990767,0.07638144887264639,0.07632331381547414,0.0764254180943735,0.07682443708160253,0.07701272834918992,0.07771879847712218,0.07795528186741608,0.07792832575602761,0.07788220240209515,0.07794481802703483,0.07836721158301663,0.07847645104049095,0.07772877829420113,0.07955570348463004,0.08109413995579315,0.08168256678649372,0.08257379220520497,0.08162887081049452,0.08770942506107393,0.0866479382115265,0.0968107069414632,0.10083190100475259,0.09678612909272397,0.09216712810406012,0.08677494214089176,0.10102106791497868,0.10668342399074228,0.11754351387991928,0.09863529006594463,0.10085776538221732,0.11390261121413217,0.1291518832667106,0.14069412710118276,0.14101318418257008,0.13356245770920835,0.12981991368502496,0.1250536507329387,0.12361247906270766,0.1608949755998475,0.16932165243194824,0.17528640068019571,0.17960681383342594,0.17831032181301953,0.18212624449029868,0.17739325663891037,0.19241131806949152,0.18440475299886527,0.16639469359328132,0.1707928682729393,0.19171587842939172,0.20303823732836923,0.1874006248487309,0.18650431435834092,0.16049100892084417,0.12300740651464864,0.12865763951981724,0.12146939143508614,0.12207006496726783,0.1265993227479947,0.12772469508881015,0.1322256767460987,0.1362877512943386,0.11478559802145427,0.10683751748061857,0.08547945978759933,0.09379870525502305,0.09333925404699563,0.08956026624196037,0.10552611990045474,0.1004811288308721,0.10095619707084948,0.10392509075206603,0.09689957883682618,0.09753748403407561,0.093676146807742,0.06517550547041515,0.06121249039101688,0.05954252258433324,0.05446742137350041,0.061579233769071776,0.05769450321636655,0.0586654654985385,0.05588669856364205,0.056765681783106474,0.0557665456165135,0.056920832883593744,0.05634035172828757,0.05312947403042823,0.04671369660934042,0.04333664926307435,0.042438240600292075,0.028890287454359995,0.027315863839457256,0.026712511123862297,0.024840972431562913,0.022023193738020197,0.01891594799049143,0.016641042048967578,0.014889048917668941,0.013636252940209046,0.012222671055356137,0.008739125759420142,0.008107172127720936,0.007038184943534154,0.00599451121935859,0.005608210056368661,0.0033489391418324464
20230206011734_0131,543428,TK-0131,2023-06-02 01:17:00,37.043,37.288,8.6,7.83,80.96893034637156,-1.0,37.334600782057684,1.6088008578412403,38.354447044592916,313.4955136347114,112.14768024510064,113.56721439023384,83.35926156454511,83.47892280893151,-83.7508673415278,0.0,0.0,-83.7508673415278,156.38937070876557,36.115347,37.856602,717,False,0.15296285,13.054794903351045,4,CRETACEOUS,False,56.12551698364506,0.6486339378859385,0.0,20.0,0.15584610844836647,6.894784811351203,0.1599578649133546,0.16678679029442417,0.1698104154869288,0.1776357592776665,0.193240524440882,0.19537269691024262,0.21138219056111027,0.23114063938263213,0.2319879393041401,0.2102987316696609,0.20121806172621864,0.21069337196540236,0.21281278666479742,0.21363037036205126,0.21219856054431263,0.2241606229546171,0.2478051152325229,0.2902207953576774,0.3543809167101129,0.3626778215184454,0.347291813833052,0.40221010041632327,0.43813163648439973,0.42060110307905957,0.47826015756426626,0.47275155393605867,0.4728029967166097,0.6042147989706707,0.6749020567624059,0.5963902100170818,0.6152370087718422,0.5412801398237763,0.4858963530402842,0.5271074074179559,0.5999782220374186,0.5405113255582741,0.39524769374757224,0.28676719560154923,0.24062103199534507,0.1866873477738456,0.1521229993169163,0.13020071490432542,0.11365170516669974,0.09517232815513105,0.09151049572572106,0.09079117231038422,0.10782385513813697,0.10826228715859339,0.09839471651257867,0.08436049369815853,0.07700110961367834,0.06955435810426489,0.0605349854675794,0.06070952137643656,0.06044872458512272,0.058816922227197005,0.054517927346614925,0.053352314843117976,0.056526120886202916,0.05962658622017007,0.05969260231554763,0.052576093788325375,0.0506946176222644,0.04374548639361163,0.03608975829008091,0.03352231877561698,0.02820576781246958,0.02775547466516217,0.027307661356139254,0.025188222828449645,0.02517232769223562,0.021538078949162723,0.024859573890880466,0.0264654770273694,0.028363591368044297,0.024998723170074195,0.021742346379334435,0.020666475717237908,0.01802613381669245,0.015221288779272625,0.014725636624582343,0.014208969392602707,0.011470041139297936,0.008735468214311006,0.009769011489347933,0.009883757178573321,0.010028708321197136,0.00996465816439966,0.00935743695211815,0.009529111588505992,0.009892614235373774,0.009895289375966725,0.008523889810060335,0.007795826277099842,0.008438642941917431,0.00967536568902291,0.009031992735298866,0.009435360994216671,0.01010536144310212,0.008830144976272797,0.008096707924008854,0.007299686105261277,0.006971495666891609,0.006335901317253404,0.005388881085427939,0.004481477090304202,0.00438290819432722,0.004391924223890442,0.004302487514374444,0.0038834380124333242,0.0021299282606217795
