gmid,event_id,station_id,event_time,event_longitude,event_latitude,event_depth,magnitude,dip,rake,rupture_width,depth_top_of_rupture,depth_bottom_of_rupture,azimuth,repi,rhypo,rjb,rrup,rx,ry0,rvolc,gc2t,gc2u,station_longitude,station_latitude,vs30,vs30measured,slope,xvf,region,geology,backarc,z1,z2pt5,fpeak,longest_period,PGA,PGV,SA(0.010),SA(0.020),SA(0.022),SA(0.025),SA(0.029),SA(0.030),SA(0.032),SA(0.035),SA(0.036),SA(0.040),SA(0.042),SA(0.044),SA(0.045),SA(0.046),SA(0.048),SA(0.050),SA(0.055),SA(0.060),SA(0.065),SA(0.067),SA(0.070),SA(0.075),SA(0.080),SA(0.085),SA(0.090),SA(0.095),SA(0.100),SA(0.110),SA(0.120),SA(0.130),SA(0.133),SA(0.140),SA(0.150),SA(0.160),SA(0.170),SA(0.180),SA(0.190),SA(0.200),SA(0.220),SA(0.240),SA(0.250),SA(0.260),SA(0.280),SA(0.290),SA(0.300),SA(0.320),SA(0.340),SA(0.350),SA(0.360),SA(0.380),SA(0.400),SA(0.420),SA(0.440),SA(0.450),SA(0.460),SA(0.480),SA(0.500),SA(0.550),SA(0.600),SA(0.650),SA(0.667),SA(0.700),SA(0.750),SA(0.800),SA(0.850),SA(0.900),SA(0.950),SA(1.000),SA(1.100),SA(1.200),SA(1.300),SA(1.400),SA(1.500),SA(1.600),SA(1.700),SA(1.800),SA(1.900),SA(2.000),SA(2.200),SA(2.400),SA(2.500),SA(2.600),SA(2.800),SA(3.000),SA(3.200),SA(3.400),SA(3.500),SA(3.600),SA(3.800),SA(4.000),SA(4.200),SA(4.400),SA(4.600),SA(4.800),SA(5.000),SA(5.500),SA(6.000),SA(6.500),SA(7.000),SA(7.500),SA(8.000),SA(8.500),SA(9.000),SA(9.500),SA(10.000),SA(11.000),SA(12.000),SA(13.000),SA(14.000),SA(15.000),SA(20.000)
20230206011732_1206,543428,TK-1206,2023-06-02 01:17:00,37.043,37.288,8.6,7.83,80.96893034637156,-1.0,37.334600782057684,1.6088008578412403,38.354447044592916,54.4617394305738,419.4771234337223,419.8588656730143,231.19641344659246,231.6353052041594,68.37457618671996,211.24567793340043,0.0,68.37457618671996,553.5344067866762,41.00883,39.29345,356,True,0.053468574,150.0,4,CENOZOIC,False,406.79223774790347,1.4449565384361895,0.0,32.0,0.015325677131931234,7.76573458584261,0.015337756179055449,0.015389715304376345,0.015446806876005519,0.015589873911176685,0.015662626192232406,0.01566929709605038,0.015635459986276995,0.015782408196293965,0.01580598443544857,0.01591148593816167,0.016066719504567287,0.01619192715748715,0.01611431321201079,0.01608526518550743,0.016542174469802114,0.017007536782284522,0.01715681625861471,0.01756441389510506,0.019177370376725504,0.019119217810241246,0.01998882268141189,0.02133356505289955,0.02324837038879983,0.024172251671571197,0.026817980464361516,0.028512497339821967,0.028171480662960862,0.022543759057619506,0.02714979433935937,0.02536699210203717,0.02442343210316065,0.024322108826630166,0.028131966299232224,0.029002464472073816,0.031062675727195274,0.032225319470582325,0.03142523424129601,0.030605920127029684,0.032406901316161696,0.032886512132472075,0.03234098524291734,0.03225573340930453,0.031557005856192956,0.029349477017063568,0.027189706337480544,0.025983098644858846,0.028048179902307954,0.02788931324123819,0.028711485492057542,0.0304865416707428,0.03238447159430946,0.033054647324470846,0.035370144115148376,0.03363339177533015,0.03000347834193736,0.022898286681210855,0.022418875517269277,0.02176637630160324,0.025457291629875898,0.026047336823495252,0.02510089228062678,0.022240820804578402,0.02388714473820631,0.026911734111467894,0.03107886413197581,0.0274063312972306,0.02499388330622743,0.02364093763185778,0.022299057787306183,0.022387497006842647,0.024539915064722456,0.03201305312812748,0.030325634417540787,0.024574113931616372,0.021312702640504746,0.02415991433407342,0.02710328931854893,0.02782895901736674,0.024583458270323797,0.02019149043915404,0.020093527897188233,0.019029534089986123,0.01749999681428879,0.01658294958713236,0.019080663311754974,0.02005743073546603,0.018906586967176016,0.01887856177500951,0.02132289204680455,0.02329267184163477,0.02365196168195688,0.023025529339403807,0.02025454800889409,0.01776673965387974,0.016435471482868887,0.01723393219063548,0.016987583828715208,0.015601079271513581,0.012756937626081908,0.011105773236082027,0.009517941012437312,0.007737045552690425,0.006639219548290026,0.0056549151597206785,0.005015694331360443,0.005164396769136046,0.005514344630582669,0.005647964895789788,0.005586134583958263,0.005284475864438355,0.0033928242130263587
20230206011734_1210,543428,TK-1210,2023-06-02 01:17:00,37.043,37.288,8.6,7.83,80.96893034637156,-1.0,37.334600782057684,1.6088008578412403,38.354447044592916,59.19161690232875,355.09329838199886,355.5441752522565,170.0016800981632,170.91821049663582,83.2278104513965,147.91777927709836,0.0,83.2278104513965,490.2065081303741,40.55931,38.75008,491,False,0.052285243,150.0,2,PLEISTOCENE,False,239.89779906565224,1.00026795369625,0.0,40.0,0.06883531298182641,9.073301561527312,0.06985235950867577,0.07088648576243517,0.07086283024042332,0.0727807029683154,0.07322137986724343,0.07352100514542731,0.0730751929390235,0.0779016690925254,0.07840540866440349,0.07540292113438357,0.07302985366258555,0.07821100078758896,0.08000907923274049,0.08095945541764284,0.0815355918510061,0.08374357662616601,0.08167780059432517,0.10196604595511782,0.13413832758819016,0.13767838859816323,0.1564739020639687,0.1586392135377436,0.17664691119907308,0.16466854963804303,0.14471585673143225,0.1547328218081032,0.15609458976547635,0.14341538141899005,0.14694718980717084,0.1548768947644433,0.16724584370937792,0.20767146153067179,0.24740859378492203,0.2504670432314833,0.23660819280423145,0.1906774796656205,0.15667213687645326,0.16864074945890511,0.14339149196190507,0.12045099822173626,0.1060822532338765,0.0970457685836563,0.08091282223982522,0.0754127655766167,0.07305754066782656,0.07031834851297626,0.056518267378765835,0.05773591634227998,0.05638109702598989,0.06752873067180525,0.07225641871040185,0.06124614567026401,0.05727307846462961,0.057284186804365825,0.05726212313446094,0.05786302777073791,0.05897059878124176,0.06133774495578068,0.05830698685506089,0.048239885284079256,0.04829982476171213,0.04600471012501724,0.03876450437534516,0.03268114009286346,0.032944448136746386,0.034948757427674504,0.03432067563040004,0.033249436202748964,0.031807403860914504,0.030592722071187576,0.030432134660466053,0.025578103059739607,0.0213290495704348,0.02006256555196714,0.01714636764162905,0.016320224968908642,0.01776570103765625,0.01846046530423554,0.015460242206599093,0.01433907989011757,0.013502612369623402,0.01326827018015829,0.013790394157276594,0.013542405596370282,0.01572354817379445,0.01704674881172332,0.016942671656469597,0.01700972545869083,0.016777902222173548,0.01573693696871177,0.013516334551598879,0.011963733743153472,0.01140359338808516,0.010489720809263567,0.00924106236362115,0.008012523615027536,0.00966992640035206,0.010029630444097467,0.008512933699225685,0.00781937636945052,0.007719984299056256,0.007848615023492773,0.008229907042158943,0.00867440289963583,0.008984154775547485,0.009197920499311146,0.008894130943855896,0.008207241894274095,0.007334108526497818,0.006469227986345402,0.004125809249960708
20230206011734_1211,543428,TK-1211,2023-06-02 01:17:00,37.043,37.288,8.6,7.83,80.96893034637156,-1.0,37.334600782057684,1.6088008578412403,38.354447044592916,59.0732976159033,403.927977636544,404.32440084361514,218.32473309152613,219.06958869008352,96.82055691087412,192.15728736935534,0.0,96.82055691087412,534.4460162226311,41.0504,38.96616,463,True,0.052049644,150.0,2,CENOZOIC,False,275.23424515589903,1.0697663392836279,0.0,32.0,0.024821632411547796,8.622533946824726,0.02492379854116566,0.025038662273230195,0.02506190572238207,0.025201942065925072,0.02542267755267392,0.025485921064689134,0.025505617210708906,0.02587505025541254,0.02610556451762291,0.02553949044682417,0.0267500352597527,0.027910264624568262,0.028263502304763037,0.028142161570964417,0.027330298088373728,0.028230559529048523,0.031699432708562826,0.03342061773709489,0.03641272836165784,0.036504227450931015,0.03582791191495059,0.03606368335642565,0.032846226301111836,0.03712053808872262,0.038128584993467565,0.03419706281302389,0.03369342183781351,0.035880647656376795,0.03774879809752532,0.03875914077906559,0.037823879824629744,0.03788675793172659,0.03589991284763506,0.035257400970154416,0.03953166386935925,0.04051459934258618,0.04386016584001246,0.04272602335096271,0.04618747011344799,0.040679610165168356,0.039783445955332356,0.040492607681477756,0.04465313534683557,0.04614823869257723,0.05052875867217806,0.0596359911080594,0.05983957978807327,0.06043255742136912,0.061149549212505115,0.05444712455642453,0.05430391402646513,0.05232860376594848,0.05336911845137069,0.055539714053689605,0.056852403707860974,0.059084872748678734,0.06079883374649479,0.0456251330812331,0.037379200093431014,0.03977760368649374,0.04516313052988398,0.05028989651565861,0.05012670593206336,0.046721180499417314,0.03366258296562089,0.03249772556814808,0.030270205751188786,0.03304290078882665,0.033219695359180436,0.028197886001152705,0.029714069986624313,0.028185771866506795,0.022098621229388268,0.022458535358092547,0.023047027682733763,0.022012796615070686,0.021560436206544534,0.021038194994093498,0.020858986851957705,0.022262892030311978,0.02034265387623056,0.019392153214793085,0.016822614272025513,0.017052439594403963,0.01479366134018413,0.015749310617955852,0.01715305919170961,0.018603692937274065,0.020495957643885815,0.020684717183055888,0.019136190706566244,0.017603200607962707,0.01670059838451738,0.01593899155293186,0.018448027821268413,0.020760432097561534,0.019666912906057304,0.020732089398004448,0.019966675367767514,0.018681923925759673,0.015931805550005847,0.013122099743714661,0.011413311286801122,0.010573281513999102,0.01017544151866315,0.008581748486061056,0.006611837366182758,0.005950198122365328,0.005129493816373466,0.004242670840019225,0.0030285414625423794
20230206011734_1212,543428,TK-1212,2023-06-02 01:17:00,37.043,37.288,8.6,7.83,80.96893034637156,-1.0,37.334600782057684,1.6088008578412403,38.354447044592916,49.36136852885636,396.255605819661,396.65969689836976,207.28893049279463,207.78283724470162,28.935858653636217,191.66209384868193,0.0,28.935858653636217,533.9508227019577,40.54324,39.43613,798,False,0.18234278,150.00000000000003,4,CRETACEOUS,False,31.51433156995682,0.5738815657013601,0.0,40.0,0.08586950983947679,7.434777816039651,0.08830847544963086,0.092417168463748,0.09341333539794633,0.0989834061108556,0.11315152180874848,0.11635887181938477,0.11773649691503334,0.12474688481219755,0.1276610233692573,0.12734981325429873,0.12909418366354608,0.13071136156563087,0.13177575153687268,0.133001628977976,0.1378658349137946,0.14579728794436825,0.1658821566080491,0.20266896747399796,0.23146977769313284,0.23598792641779168,0.24465646584280376,0.27890330962727783,0.2975129958803904,0.31653362975972504,0.313279746658877,0.276548127734267,0.23959789142408833,0.1883182799408219,0.14673558437460585,0.12374120320112117,0.1110712413672778,0.09979818292197336,0.11036013979921631,0.10754869422086086,0.09783589437172903,0.10569685318044592,0.10911802394736365,0.1279570102834562,0.1639723212762694,0.14219459454511918,0.14125677102893996,0.1343951043940869,0.14830569121008338,0.1617340458802733,0.1641121808792084,0.15262877903833919,0.12741293070077567,0.12737777574710138,0.12721741672135267,0.14636022648766495,0.15327390750768488,0.14007483335989415,0.11656010268189347,0.10951584091088182,0.10075960645931878,0.08890183336781543,0.08046123217256239,0.06807265901216078,0.04861694103584707,0.04236086874390292,0.03785789435118829,0.037102638273684735,0.04123420438315737,0.0456096968671548,0.04752683252079794,0.042201102642925335,0.03783599295509091,0.03126124174452884,0.021645066791801903,0.022111191342231197,0.02001117125278966,0.018201089003166013,0.015930504294599936,0.01587077785008324,0.015476532522037182,0.014917598909267447,0.015968195588108677,0.015280729564030485,0.01622919792390201,0.01387767802741024,0.012606099705487043,0.01189900627087328,0.010160888756459506,0.008595229388773834,0.008534257642062726,0.0077334607333662195,0.007779640158288382,0.008128414329155962,0.007624929911942509,0.008696487778712934,0.008826373770922956,0.008438941971123205,0.00838646891824623,0.009022747630965784,0.009457925926302293,0.010638829160758702,0.0106826153511508,0.009325153313633244,0.008225096228988737,0.007627848195729429,0.007267540186948265,0.007088347963345346,0.007164442411137836,0.007271609504240085,0.007440007532262221,0.007304361315510313,0.006980685579416964,0.006527739438753542,0.0059951775928503755,0.005622176485007587,0.0035593141097011315
20230206011734_1213,543428,TK-1213,2023-06-02 01:17:00,37.043,37.288,8.6,7.83,80.96893034637156,-1.0,37.334600782057684,1.6088008578412403,38.354447044592916,51.535745437219646,377.8990682048123,378.3227666293232,188.89808281525004,189.39323896712867,40.35538768639229,174.0971597487253,0.0,40.35538768639229,516.385888602001,40.4774,39.231,654,False,0.10970745,150.0,4,CENOZOIC,False,87.40757300788307,0.7205973126001706,0.0,32.0,0.29516592508197764,20.44845703400375,0.29720523629804513,0.30345006918549206,0.3072772362242595,0.3153586445201086,0.30908306075380776,0.30867945534966335,0.3169353104564213,0.3332611080720013,0.33630979288293894,0.3285278368057891,0.3490639958088984,0.3515117314961605,0.33914616760192406,0.34045032164301925,0.3643163392335356,0.3720517058630703,0.41542638154810213,0.5025228638938007,0.5193239116051619,0.5083486132750469,0.5140530054671038,0.578068799549986,0.6277030179765767,0.6574479131379671,0.7926140558306397,0.8392298757712418,0.7987640773434458,0.8631004666211657,0.8249485163884624,0.9263793290156068,0.9715524075982114,1.0483506709289065,1.0515671202490022,1.0528857106533007,1.1963886867268632,1.038137689439095,0.9109316995669648,0.7629467980399655,0.6182706390117099,0.5272040131485973,0.4664260339396986,0.43304034646603695,0.5276721336532454,0.5838314211821273,0.5973090421995224,0.5842865993315347,0.5070633392361107,0.4748536351167967,0.46028519792362627,0.44751902888148487,0.4019347408347241,0.3743433632731123,0.3417919914007115,0.34774390424386764,0.36331641713956436,0.36810431537077487,0.36194247120374284,0.36729138335868217,0.36296168710543636,0.3234097905108678,0.3031740863024542,0.2481684029606908,0.20038536786120384,0.17719220814258468,0.1423720978321501,0.13659845666822737,0.13525209406694325,0.1314857067477305,0.12356093053981701,0.11868976671662533,0.08311165596042355,0.06231214774158357,0.056910006241124814,0.05145639214225648,0.04373470366254058,0.043686781589050594,0.04089943574168201,0.03633968977813465,0.03518937604795918,0.03721965241150175,0.033584975767548396,0.03081310650200267,0.026050080018023038,0.021918811017985554,0.02349115900513358,0.024494486891544508,0.022296947494053265,0.021180051380077593,0.02034502943321362,0.02104033405278083,0.022947592126307124,0.02391495385926059,0.02239981708926714,0.02096826194663018,0.020593429637688416,0.0213488674005443,0.019527230288256356,0.01619827375386114,0.01305864480838466,0.011265066725913398,0.011256537809087771,0.009905491327230747,0.0087202667968363,0.00767883901147588,0.007410659118030195,0.007622351138148521,0.007487537547402035,0.007188125052574151,0.0071271733960933045,0.007130092493863954,0.004256296982868552
20230206011734_1215,543428,TK-1215,2023-06-02 01:17:00,37.043,37.288,8.6,7.83,80.96893034637156,-1.0,37.334600782057684,1.6088008578412403,38.354447044592916,57.85431300906998,359.5310194151342,359.9763380024937,173.293506502561,174.06688855816597,76.2223464382526,153.30046426432654,0.0,76.2223464382526,495.5891931176023,40.55687,38.83498,424,False,0.03069464,149.99999999999997,2,PLEISTOCENE,False,325.48616490186373,1.1830607394035921,0.0,32.0,0.0649045960364711,11.288588021793558,0.0649597296540915,0.06508904376892476,0.0651224875007573,0.0651778578211079,0.06526789814705049,0.06535641602763187,0.06541413297929054,0.0654174343731977,0.06553174305772891,0.06552472457568771,0.0661165376103612,0.06685979787354608,0.06680420100359416,0.06679243106323231,0.06760508079887821,0.06843262846391637,0.06923701091853793,0.06988900952138088,0.07027491993121421,0.07172452687819202,0.07307314556648414,0.0760162677879142,0.08082158978062862,0.08172729908662264,0.08041616684019803,0.07995667311525269,0.08276835794927252,0.10203900893005638,0.09612242352187451,0.10353237047451655,0.1066789430586657,0.11002270021732921,0.11625524521102722,0.11992704924536227,0.14227625825382514,0.15622506098514685,0.17009964798065663,0.1821333910488092,0.14636364994578366,0.1865300279378962,0.22453105358468284,0.24656270947460646,0.23826434125587814,0.2165464813525881,0.19407121998917232,0.16567894385917156,0.16228634766304745,0.16899176573815097,0.17700740115025002,0.17203775364294877,0.16185830498966364,0.16372065790491416,0.16521487064868248,0.159923320401851,0.15686831723303557,0.17337453926137253,0.18831568391817582,0.14768054093012103,0.16254475322011905,0.14297638501224635,0.13412613612995195,0.1270493211859581,0.09798426088799402,0.0811841223916286,0.07252175984426537,0.06214007962262323,0.04963894266298794,0.04431451720797348,0.045939241840920894,0.044893621001526454,0.036380257803967773,0.0338550212339375,0.04079491814848392,0.049078084701459836,0.04063425791473571,0.03640575100266096,0.028517383263750747,0.03005955408444813,0.03257070042397241,0.029420395533970602,0.025767755587300982,0.023932183384662478,0.02237093103638782,0.022804482116936878,0.022019526999720422,0.021042065609818764,0.021397985947286105,0.021669352574324154,0.020304422325546932,0.018501924468583893,0.017517614911811242,0.0180711762676243,0.018262585959832718,0.01708472932694626,0.017307855062646677,0.018236267334191668,0.0186917395842521,0.017844214622865843,0.01802613136847878,0.016878726236048677,0.015627273656123757,0.013236961782058639,0.011715653572759981,0.010257648168337874,0.009782187078838095,0.009517194628245428,0.008918702336321978,0.007941440014812251,0.007384055725217696,0.006637743079139738,0.003974556798298271
